{"geometry":{"coordinates":[[[[1.448527,42.596793],[1.460665,42.599166],[1.464388,42.604154],[1.466307,42.622913],[1.487631,42.645381],[1.493628,42.647212],[1.569504,42.647323],[1.575724,42.646372],[1.58828,42.632682],[1.594205,42.630663],[1.64456,42.628943],[1.656995,42.615061],[1.663116,42.613658],[1.726299,42.613024],[1.731703,42.6099],[1.734438,42.604279],[1.736653,42.585623],[1.7412,42.581383],[1.778775,42.578645],[1.783452,42.574545],[1.783459,42.568553],[1.778809,42.564432],[1.77266,42.563146],[1.741238,42.561692],[1.736658,42.557484],[1.734965,42.551442],[1.733881,42.519938],[1.730158,42.51495],[1.71802,42.512576],[1.71802,42.495733],[1.67371,42.494246],[1.669171,42.489946],[1.660971,42.472813],[1.651019,42.465093],[1.638744,42.462094],[1.594225,42.461891],[1.588262,42.459863],[1.575585,42.446301],[1.569911,42.448606],[1.562603,42.458968],[1.556806,42.460852],[1.551814,42.457141],[1.546908,42.432662],[1.541704,42.429171],[1.459102,42.428591],[1.453205,42.430782],[1.449508,42.435823],[1.447514,42.454681],[1.443766,42.459683],[1.41634,42.485184],[1.417303,42.491144],[1.422383,42.494794],[1.441327,42.496327],[1.453011,42.501122],[1.463915,42.516316],[1.464074,42.522566],[1.460132,42.527389],[1.432956,42.553089],[1.434506,42.558966],[1.44484,42.566299],[1.447471,42.571855],[1.44434,42.577184],[1.434085,42.584588],[1.431683,42.596793],[1.448527,42.596793]]]],"type":"MultiPolygon"},"properties":{"name":"Andorra","source_feature_id":"marineregions:AD"},"type":"Feature"}
