{"geometry":{"coordinates":[[[[51.684,24.685],[51.793,24.763],[51.905,24.733],[52.272,24.811],[52.337,24.865],[52.283,24.971],[52.343,25.055],[52.502,25.004],[52.598,25.085429],[53.035,25.531],[54.438,25.665],[54.678,25.73],[54.696,25.742],[54.775,25.8],[54.753,25.496],[55.234,25.639],[55.429,25.919],[55.66,26.06],[55.704,26.155],[56.065,26.053],[56.074,26.052],[56.085,26.05],[56.154,26.07],[56.196,25.98],[56.139,25.812],[56.174,25.619],[56.295,25.635],[56.311,25.643],[56.51,25.693],[56.838,25.65],[57.127,25.117],[56.408,24.995],[56.386,24.985],[56.374,24.98],[56.113,24.738],[55.978,24.878],[56.062,24.871],[56.007,24.995],[55.813,24.911],[55.838,24.673],[55.764,24.526],[55.835,24.334],[55.753,24.235],[55.955,24.223],[56.018,24.066],[55.833,24.014],[55.734,24.057],[55.484,23.943],[55.571,23.626],[55.234,23.117],[55.213,22.706],[55.137,22.631],[52.581,22.939],[51.591,24.126],[51.521,24.432],[51.522,24.432],[51.522,24.433],[51.684,24.685]]]],"type":"MultiPolygon"},"properties":{"name":"United Arab Emirates","source_feature_id":"marineregions:AE"},"type":"Feature"}
