{"geometry":{"coordinates":[[[[73.832195,37.226015],[74.380165,37.423644],[74.811355,37.351779],[74.892203,37.234998],[74.748473,37.288897],[74.505929,37.243981],[74.461013,37.127201],[74.559828,37.03737],[74.559828,37.028387],[74.416098,37.01042],[74.119655,36.839741],[73.90406,36.902623],[73.167445,36.89364],[72.933884,36.839741],[72.619475,36.848724],[72.502695,36.77686],[72.179303,36.713978],[72.071506,36.588214],[71.891843,36.498383],[71.810995,36.399569],[71.640316,36.480417],[71.352857,36.166008],[71.200144,36.058211],[71.370823,35.968379],[71.550485,35.725835],[71.496586,35.636004],[71.62235,35.573123],[71.658282,35.438376],[71.541502,35.312612],[71.676249,35.204815],[71.532519,35.088034],[71.460654,34.944305],[71.298958,34.881423],[71.280992,34.800575],[71.092346,34.683794],[71.002515,34.495149],[71.173194,34.333453],[71.083363,34.06396],[70.81387,33.965146],[70.436579,33.947179],[69.906576,34.03701],[69.852677,33.947179],[69.969457,33.758534],[70.140137,33.722602],[70.167086,33.542939],[70.328782,33.345311],[70.023356,33.138699],[69.843694,33.093784],[69.574201,33.102767],[69.493352,33.021919],[69.538268,32.878189],[69.394538,32.779375],[69.448437,32.644628],[69.241825,32.464966],[69.268775,32.15954],[69.331656,31.934962],[69.026231,31.629536],[68.828602,31.602587],[68.711822,31.773266],[68.577075,31.836148],[68.433345,31.7553],[68.280632,31.7553],[68.172835,31.836148],[68.074021,31.701401],[67.831477,31.61157],[67.714696,31.512756],[67.57995,31.521739],[67.597916,31.422925],[67.786561,31.395976],[67.777578,31.324111],[67.373338,31.20733],[67.067912,31.216313],[67.03198,31.306144],[66.897233,31.297161],[66.726554,31.20733],[66.690622,31.072584],[66.573841,30.973769],[66.394179,30.937837],[66.286382,30.578512],[66.358246,30.470715],[66.322314,30.228171],[66.232483,30.066475],[66.376213,29.967661],[66.250449,29.85088],[65.055695,29.536471],[64.570607,29.59037],[64.247215,29.518505],[64.112469,29.374775],[64.049587,29.410708],[63.573482,29.482573],[63.232124,29.464607],[62.468559,29.374775],[60.869565,29.859863],[61.803809,30.83004],[61.830758,31.09055],[61.77686,31.306144],[61.704995,31.378009],[60.860582,31.485807],[60.815667,31.710384],[60.82465,32.033777],[60.878548,32.204456],[60.815667,32.482932],[60.716852,32.689544],[60.582106,33.129716],[60.636004,33.22853],[60.869565,33.417176],[60.896515,33.542939],[60.662954,33.533956],[60.546173,33.731585],[60.564139,33.821416],[60.474308,34.072943],[60.689903,34.315487],[60.887531,34.32447],[60.743802,34.522098],[60.995329,34.629896],[61.130075,35.070068],[61.139059,35.13295],[61.094143,35.168883],[61.094143,35.27668],[61.192957,35.294646],[61.273805,35.600072],[61.282788,35.609055],[61.588214,35.438376],[61.77686,35.411427],[62.064319,35.429393],[62.288897,35.258714],[62.306863,35.123967],[62.477542,35.27668],[62.621272,35.213798],[62.926698,35.375494],[63.10636,35.429393],[63.097377,35.618038],[63.241107,35.68092],[63.124326,35.860582],[63.537549,35.905498],[63.573482,35.950413],[63.986705,36.040244],[64.166367,36.166008],[64.283148,36.148042],[64.435861,36.237873],[64.642472,36.444484],[64.615523,36.642113],[64.795185,36.920589],[64.759253,37.109235],[65.12756,37.243981],[65.5318,37.234998],[65.639598,37.342796],[65.702479,37.540424],[66.142652,37.369745],[66.439095,37.315846],[66.555875,37.351779],[66.699605,37.333812],[66.951132,37.387711],[67.103845,37.342796],[67.238591,37.190083],[67.526051,37.261948],[67.795544,37.1811],[67.795544,37.082285],[68.074021,36.938556],[68.262666,37.001437],[68.307582,37.109235],[68.657923,37.208049],[68.666906,37.270931],[68.882501,37.333812],[69.017248,37.29788],[69.250808,37.091268],[69.448437,37.234998],[69.376572,37.432627],[69.538268,37.58534],[69.906576,37.621272],[70.113187,37.522458],[70.2659,37.612289],[70.301833,37.70212],[70.176069,37.935681],[70.481495,38.10636],[70.616241,38.339921],[70.768954,38.456701],[71.146245,38.402803],[71.370823,38.259073],[71.370823,38.151276],[71.272009,38.007546],[71.33489,37.881782],[71.523536,37.953647],[71.595401,37.800934],[71.50557,37.612289],[71.50557,37.306863],[71.433705,37.055336],[71.559468,36.767876],[71.631333,36.687028],[71.837945,36.678045],[72.323033,36.983471],[72.673374,37.019404],[72.781171,37.199066],[73.059648,37.306863],[73.149479,37.405677],[73.508803,37.477542],[73.778297,37.44161],[73.769314,37.333812],[73.625584,37.270931],[73.832195,37.226015]]]],"type":"MultiPolygon"},"properties":{"name":"Afghanistan","source_feature_id":"marineregions:AF"},"type":"Feature"}
