{"geometry":{"coordinates":[[[[-62.663,16.74],[-62.402,17.112],[-62.422,17.662],[-62.226,18.312],[-62.07,18.592],[-61.93,18.615],[-61.484,18.549],[-61.141,18.359],[-60.934,18.115],[-60.83,17.863],[-60.817,17.442],[-60.752,17.196],[-60.799822,17.155858],[-61.026,16.966],[-61.832,16.685],[-62.203,16.888],[-62.256,16.874],[-62.404,16.776],[-62.636,16.667],[-62.636,16.666],[-62.638,16.665],[-62.639,16.665],[-62.751,16.612],[-62.663,16.74]]]],"type":"MultiPolygon"},"properties":{"name":"Antigua and Barbuda","source_feature_id":"marineregions:AG"},"type":"Feature"}
