{"geometry":{"coordinates":[[[[-60.736669,20.922025],[-60.982087,20.523132],[-62.226344,18.312091],[-62.739444,18.155833],[-62.876389,18.190278],[-62.948611,18.180833],[-63.209444,18.098056],[-63.473889,18.034167],[-63.634044,17.947997],[-63.88734,17.938825],[-63.899094,17.964478],[-63.842329,18.208333],[-63.870279,18.497023],[-63.780131,19.117196],[-63.257641,21.939842],[-62.924361,21.910409],[-62.594273,21.851164],[-62.279322,21.765109],[-61.965669,21.648206],[-61.59366,21.46364],[-61.26275,21.249318],[-60.953759,21.07286],[-60.736669,20.922025]]]],"type":"MultiPolygon"},"properties":{"name":"Anguilla","source_feature_id":"marineregions:AI"},"type":"Feature"}
