{"geometry":{"coordinates":[[[[19.358359,41.812702],[19.382537,42.06107],[19.373018,42.101736],[19.321432,42.16723],[19.320464,42.207869],[19.636486,42.595816],[19.702584,42.644465],[19.741919,42.634805],[19.769295,42.515436],[19.800297,42.488508],[19.840989,42.480701],[20.077255,42.563106],[20.166557,42.487671],[20.265166,42.344591],[20.426629,42.278727],[20.516565,42.205067],[20.603768,41.988655],[20.599398,41.87253],[20.548791,41.796197],[20.523861,41.707546],[20.532708,41.616788],[20.491565,41.534779],[20.495504,41.490126],[20.540828,41.411828],[20.513883,41.278763],[20.574274,41.154774],[20.743483,40.937663],[20.782696,40.915127],[20.919633,40.920498],[20.986795,40.86193],[20.980314,40.803865],[21.036743,40.638401],[21.001704,40.529212],[20.804798,40.408332],[20.640309,40.102571],[20.367808,40.00597],[20.344346,39.95419],[20.386242,39.846058],[20.234236,39.677639],[20.002695,39.679167],[19.957549,39.706222],[19.937726,39.81952],[19.892618,39.856366],[19.580065,40.015493],[18.999281,40.087136],[18.79514,40.515765],[18.578198,41.131423],[18.561355,41.148266],[18.544511,41.198796],[18.493981,41.232483],[18.460295,41.283013],[18.325548,41.434603],[19.291271,41.709667],[19.358359,41.812702]]]],"type":"MultiPolygon"},"properties":{"name":"Albania","source_feature_id":"marineregions:AL"},"type":"Feature"}
