{"geometry":{"coordinates":[[[[-166.641944,-17.555],[-169.329722,-16.636667],[-169.9325,-16.594167],[-171.305278,-16.840278],[-171.847532,-15.878384],[-171.694445,-15.426946],[-171.073355,-14.085064],[-170.945362,-13.835136],[-170.762745,-13.25117],[-170.542657,-12.611103],[-171.237194,-12.490811],[-172.812085,-11.686715],[-173.774691,-11.048132],[-171.849444,-10.297222],[-168.523591,-10.024476],[-168.466111,-11.731389],[-168.173333,-12.031944],[-167.422222,-12.477778],[-165.622222,-14.058333],[-165.200833,-15.646389],[-166.0275,-16.758333],[-166.641944,-17.555]]]],"type":"MultiPolygon"},"properties":{"name":"American Samoa","source_feature_id":"marineregions:AS"},"type":"Feature"}
