{"geometry":{"coordinates":[[[[-70.177728,13.50343],[-70.121598,13.517115],[-69.832018,13.496305],[-69.748462,13.471304],[-69.534957,13.379171],[-69.440777,13.310884],[-69.408369,13.263683],[-69.405023,13.234909],[-69.428225,13.120958],[-69.510058,12.518102],[-69.514173,12.344345],[-69.546128,12.144044],[-69.746232,12.262567],[-70.056115,12.343125],[-70.113322,12.353135],[-70.374974,12.347314],[-70.401762,12.357862],[-70.421963,12.41013],[-70.421982,12.817778],[-70.358395,13.01832],[-70.21682,13.461831],[-70.177728,13.50343]]]],"type":"MultiPolygon"},"properties":{"name":"Aruba","source_feature_id":"marineregions:AW"},"type":"Feature"}
