{"geometry":{"coordinates":[[[[45.183372,39.629639],[45.405824,39.527518],[45.504274,39.52594],[45.693774,39.585086],[45.786234,39.557357],[45.81367,39.516027],[45.813279,39.417628],[45.833868,39.37308],[45.960509,39.295761],[46.008356,39.155713],[46.107883,38.983318],[46.150737,38.840729],[45.522894,38.990299],[45.096013,39.317986],[44.80327,39.632366],[44.820113,39.649209],[44.80327,39.649209],[44.769583,39.716583],[45.06345,39.769889],[45.145404,39.721481],[45.183372,39.629639]]],[[[44.971703,39.800799],[44.971703,39.783956],[44.95486,39.783956],[44.938017,39.783956],[44.938017,39.800799],[44.95486,39.800799],[44.971703,39.800799]]],[[[45.676486,41.358058],[45.889912,41.207797],[46.240791,41.174148],[46.492843,41.095965],[46.578676,41.112459],[46.680648,41.246938],[46.659637,41.331181],[46.430431,41.458912],[46.242304,41.642188],[46.23238,41.72287],[46.42023,41.906216],[46.80669,41.779989],[47.02659,41.56935],[47.129382,41.532047],[47.276618,41.368371],[47.464278,41.252382],[47.792643,41.223244],[48.042919,41.433068],[48.423186,41.660973],[48.576177,41.822],[48.59302,41.838843],[49.456326,42.301118],[49.664843,42.266493],[50.043245,41.876274],[50.296961,41.523089],[50.474588,41.399734],[50.875239,41.229987],[51.14425,41.045158],[51.297167,40.890403],[51.458525,40.607636],[51.518793,40.398813],[51.522147,40.181806],[51.402941,39.880467],[51.089873,39.581818],[50.598986,39.352838],[50.230724,38.690702],[49.940487,38.369116],[49.728272,38.336122],[49.311067,38.456909],[48.767665,38.428403],[48.560451,38.484868],[48.116416,38.798095],[48.089602,38.892088],[48.264449,39.019122],[48.202252,39.216069],[48.274291,39.414851],[48.150146,39.586437],[47.950306,39.666563],[47.44719,39.469063],[46.791859,39.080064],[46.538133,38.874416],[46.529057,39.074937],[46.471028,39.157529],[46.495675,39.192262],[46.546169,39.196367],[46.572008,39.232273],[46.550838,39.27776],[46.427183,39.364701],[46.40252,39.408324],[46.424662,39.450877],[46.52129,39.480776],[46.533967,39.52316],[46.57182,39.548149],[46.387103,39.616787],[46.192227,39.608229],[45.996379,39.758108],[45.863467,39.824283],[45.762885,39.932994],[45.632093,39.995475],[45.670851,40.021424],[45.865059,40.025482],[45.951939,40.145041],[45.959397,40.24096],[45.88188,40.299837],[45.695151,40.366284],[45.520271,40.459199],[45.405633,40.617972],[45.38539,40.662724],[45.392787,40.71034],[45.570987,40.812284],[45.583706,40.859624],[45.425549,40.987357],[45.224353,41.01352],[45.146283,41.064522],[45.098931,41.062299],[45.098462,41.091376],[45.173661,41.147418],[45.143122,41.17834],[45.055146,41.212084],[45.022233,41.299856],[45.250945,41.430936],[45.425519,41.441306],[45.676486,41.358058]],[[47.009747,41.56935],[47.02659,41.552506],[47.02659,41.56935],[47.009747,41.56935]],[[46.538133,39.463933],[46.538133,39.480776],[46.52129,39.480776],[46.538133,39.463933]],[[46.57182,39.531306],[46.588663,39.531306],[46.588663,39.548149],[46.57182,39.548149],[46.57182,39.531306]],[[45.392787,40.693496],[45.40963,40.693496],[45.40963,40.71034],[45.392787,40.71034],[45.392787,40.693496]]],[[[45.20751,40.996676],[45.190667,40.996676],[45.190667,41.01352],[45.20751,41.01352],[45.224353,41.01352],[45.224353,40.996676],[45.224353,40.979833],[45.20751,40.979833],[45.20751,40.996676]]],[[[45.00539,41.097736],[45.022233,41.080893],[45.039077,41.080893],[45.039077,41.06405],[45.039077,41.047206],[45.00539,41.030363],[45.00539,41.047206],[45.00539,41.06405],[44.988547,41.06405],[44.971703,41.06405],[44.971703,41.080893],[44.988547,41.080893],[44.988547,41.097736],[45.00539,41.097736]]]],"type":"MultiPolygon"},"properties":{"name":"Azerbaijan","source_feature_id":"marineregions:AZ"},"type":"Feature"}
