{"geometry":{"coordinates":[[[[17.166727,45.14912],[17.274524,45.185052],[17.588933,45.104204],[17.678764,45.131153],[17.858426,45.041322],[17.98419,45.14912],[18.199784,45.077255],[18.2447,45.140137],[18.568092,45.086238],[18.613008,45.077255],[18.79267,44.996407],[18.76572,44.897593],[19.026231,44.852677],[19.16996,44.924542],[19.367589,44.888609],[19.34064,44.735897],[19.134028,44.529285],[19.107079,44.349623],[19.331656,44.268775],[19.358606,44.178944],[19.619116,44.05318],[19.529285,43.954366],[19.241825,44.017248],[19.259792,43.9364],[19.538268,43.657923],[19.511319,43.586058],[19.259792,43.613008],[19.214876,43.523176],[18.918433,43.496227],[19.026231,43.433345],[19.026231,43.235717],[18.954366,43.334531],[18.684872,43.253683],[18.657923,43.047072],[18.496227,42.993173],[18.469278,42.750629],[18.559109,42.732663],[18.541143,42.570967],[18.442328,42.553],[17.885375,42.822494],[17.831477,42.912325],[17.651815,42.885375],[17.544017,42.939274],[17.723679,42.975207],[17.651815,43.10097],[17.346389,43.253683],[17.274524,43.469278],[17.17571,43.487244],[16.753503,43.774704],[16.708588,43.855552],[16.448078,44.026231],[16.178584,44.268775],[16.214517,44.358606],[16.115702,44.529285],[15.747395,44.897593],[15.747395,45.059289],[15.828243,45.220985],[15.980956,45.212001],[16.277398,44.996407],[16.358246,45.00539],[16.492993,45.212001],[16.834351,45.185052],[16.978081,45.229968],[17.005031,45.220985],[17.166727,45.14912]]]],"type":"MultiPolygon"},"properties":{"name":"Bosnia and Herzegovina","source_feature_id":"marineregions:BA"},"type":"Feature"}
