{"geometry":{"coordinates":[[[[-60.384477,13.241107],[-60.240747,13.636364],[-60.007186,14.112469],[-59.998203,14.112469],[-59.962271,14.157384],[-59.575997,14.220266],[-59.315487,14.184333],[-59.010061,14.022637],[-58.740568,13.762127],[-58.596838,13.546533],[-58.507007,13.214157],[-58.524973,12.953647],[-58.623787,12.711103],[-58.7765,12.495508],[-58.983112,12.315846],[-59.270571,12.190083],[-59.549048,12.15415],[-59.72871,12.1811],[-60.070068,12.315846],[-60.330579,12.549407],[-60.384477,13.241107]]]],"type":"MultiPolygon"},"properties":{"name":"Barbados","source_feature_id":"marineregions:BB"},"type":"Feature"}
