{"geometry":{"coordinates":[[[[91.555387,20.250245],[91.052728,21.035101],[90.964323,21.108611],[90.85002,21.119843],[90.416045,20.953652],[89.493496,20.829147],[89.37783,20.832126],[89.284269,20.897307],[89.235986,21.121542],[89.181197,21.469712],[89.061471,21.800588],[89.084396,22.148985],[88.997301,22.367894],[88.882276,22.940622],[88.89912,22.940622],[88.89912,22.957465],[88.884313,22.957465],[88.910376,23.173044],[88.713843,23.294332],[88.755606,23.417603],[88.701243,23.534815],[88.59594,23.614355],[88.586807,23.728892],[88.728388,24.037343],[88.721983,24.152162],[88.582902,24.326252],[88.175128,24.532588],[88.09494,24.61166],[88.082937,24.725803],[88.124803,24.831058],[88.322989,24.942054],[88.555719,25.185494],[88.89846,25.21076],[88.923638,25.304433],[88.866585,25.404088],[88.556746,25.544709],[88.190135,25.821156],[88.135318,25.918521],[88.215181,26.127491],[88.456083,26.371954],[88.4338,26.53227],[88.935554,26.264682],[89.025442,26.393284],[89.225388,26.117468],[89.433207,26.019879],[89.547618,26.019988],[89.687803,26.171662],[89.825062,25.994999],[89.837086,25.421637],[89.892872,25.325044],[89.995728,25.274105],[90.445473,25.176264],[91.252722,25.186758],[91.711957,25.147098],[91.944643,25.170591],[92.174814,25.127376],[92.380465,25.017224],[92.437828,24.920523],[92.28547,24.749358],[92.218447,24.524879],[92.144226,24.438052],[91.884201,24.217572],[91.661427,24.203872],[91.295616,23.947913],[91.200716,23.741205],[91.219811,23.520057],[91.337225,23.195679],[91.492821,23.143805],[91.553204,23.046041],[91.651881,22.996314],[91.752782,23.043055],[91.845376,23.370477],[91.93092,23.445922],[91.978113,23.662239],[92.192039,23.69146],[92.277746,23.629355],[92.346628,23.414995],[92.372283,23.077561],[92.539664,22.541252],[92.604653,21.980552],[92.633109,21.400428],[92.575405,21.318874],[92.370274,21.411379],[92.268908,21.366801],[92.215677,21.264734],[92.389806,20.595406],[92.381816,20.480199],[92.087501,20.312216],[91.846703,20.060411],[91.813017,20.009881],[91.810209,20.011753],[91.555387,20.250245]],[[89.10124,22.148985],[89.10124,22.165828],[89.084396,22.165828],[89.084396,22.148985],[89.10124,22.148985]],[[91.661427,24.220715],[91.644583,24.220715],[91.644583,24.203872],[91.661427,24.203872],[91.661427,24.220715]],[[91.93092,23.429078],[91.947763,23.445922],[91.93092,23.445922],[91.93092,23.429078]]],[[[88.713843,23.294332],[88.697,23.294332],[88.697,23.311175],[88.713843,23.311175],[88.713843,23.294332]]],[[[91.307716,23.344862],[91.32456,23.361705],[91.32456,23.344862],[91.307716,23.344862]]],[[[88.59594,23.597512],[88.579096,23.597512],[88.59594,23.614355],[88.59594,23.597512]]],[[[91.695113,25.163942],[91.711957,25.163942],[91.711957,25.147098],[91.695113,25.163942]]]],"type":"MultiPolygon"},"properties":{"name":"Bangladesh","source_feature_id":"marineregions:BD"},"type":"Feature"}
