{"geometry":{"coordinates":[[[[2.539,51.876],[3.354,51.379],[3.365,51.374],[3.428,51.246],[3.593,51.304],[3.899,51.201],[4.173,51.296],[4.218,51.374],[4.425,51.362],[4.38,51.446],[4.476,51.478],[4.54,51.482],[4.535,51.421],[4.653,51.421],[4.775,51.504],[4.846,51.422],[4.784,51.409],[4.921,51.392],[5.031,51.484],[5.238,51.262],[5.486,51.304],[5.563,51.221],[5.836,51.161],[5.721,50.962],[5.758,50.949],[5.641,50.833],[5.695,50.813],[5.684,50.756],[6.021,50.754],[6.12,50.722],[6.178,50.624],[6.274,50.622],[6.179,50.542],[6.345,50.488],[6.342,50.379],[6.406,50.331],[6.177,50.236],[6.139,50.134],[5.965,50.172],[5.74,49.906],[5.782,49.873],[5.753,49.794],[5.911,49.664],[5.819,49.546],[5.471,49.496],[5.428,49.596],[5.313,49.611],[5.333,49.656],[5.278,49.693],[5.161,49.697],[4.996,49.8],[4.856,49.796],[4.886,49.913],[4.787,49.983],[4.898,50.138],[4.826,50.17],[4.702,50.094],[4.683,49.997],[4.454,49.94],[4.198,49.956],[4.134,50.017],[4.23,50.079],[4.201,50.135],[4.123,50.131],[4.21,50.274],[4.137,50.257],[4.029,50.36],[3.702,50.31],[3.608,50.495],[3.292,50.525],[3.255,50.702],[3.149,50.791],[2.902,50.696],[2.794,50.731],[2.607,50.85],[2.584,50.918],[2.632,50.956],[2.544,51.094],[2.537,51.102],[2.39,51.269],[2.376,51.297],[2.354,51.339],[2.306,51.43],[2.238,51.558],[2.253,51.613],[2.306,51.657],[2.539,51.876]]],[[[4.918,51.434],[4.928,51.444],[4.938,51.446],[4.942,51.434],[4.918,51.434]]]],"type":"MultiPolygon"},"properties":{"name":"Belgium","source_feature_id":"marineregions:BE"},"type":"Feature"}
