{"geometry":{"coordinates":[[[[50.922096,26.251962],[50.904486,26.107814],[50.846956,26.001887],[50.825481,25.932568],[50.828496,25.860742],[50.859756,25.769195],[50.858287,25.697201],[50.796807,25.595186],[50.800811,25.55104],[50.684641,25.581678],[50.56369,25.585025],[50.429596,25.689388],[50.358481,25.816446],[50.31316,25.87367],[50.295789,25.918854],[50.280849,26.08847],[50.306521,26.182252],[50.323653,26.302653],[50.380128,26.436984],[50.397233,26.507758],[50.428972,26.543958],[50.536649,26.600726],[50.571979,26.633991],[50.76581,26.999865],[50.883714,27.151455],[50.887082,27.151455],[50.985586,27.090419],[51.11952,27.050395],[51.043761,26.670385],[50.922096,26.251962]]]],"type":"MultiPolygon"},"properties":{"name":"Bahrain","source_feature_id":"marineregions:BH"},"type":"Feature"}
