{"geometry":{"coordinates":[[[[30.416816,-2.659001],[30.524614,-2.68595],[30.416816,-2.874596],[30.506648,-2.955444],[30.578512,-2.901545],[30.668344,-2.991376],[30.848006,-2.97341],[30.80309,-3.063241],[30.83004,-3.26087],[30.731225,-3.269853],[30.641394,-3.449515],[30.443766,-3.566295],[30.380884,-3.772907],[30.25512,-3.880704],[30.228171,-4.0424],[30.075458,-4.159181],[30.039526,-4.275961],[29.761049,-4.437657],[29.419691,-4.44664],[29.356809,-4.087316],[29.231046,-3.808839],[29.249012,-3.503414],[29.213079,-3.350701],[29.257995,-3.063241],[28.997485,-2.784765],[29.0424,-2.739849],[29.078333,-2.596119],[29.32986,-2.650018],[29.374775,-2.838663],[29.752066,-2.811714],[29.895796,-2.748832],[29.967661,-2.488322],[29.958678,-2.326626],[30.156306,-2.434423],[30.210205,-2.353575],[30.461732,-2.317643],[30.54258,-2.416457],[30.416816,-2.659001]]]],"type":"MultiPolygon"},"properties":{"name":"Burundi","source_feature_id":"marineregions:BI"},"type":"Feature"}
