{"geometry":{"coordinates":[[[[1.094817,11.049227],[1.145347,11.285034],[1.397997,11.453467],[2.004357,11.419781],[2.307537,11.672431],[2.408597,11.908238],[2.391754,11.925081],[2.391754,12.245104],[2.88021,12.379851],[3.301294,11.891394],[3.58763,11.706117],[3.604474,11.689274],[3.48657,11.436624],[3.772907,10.965011],[3.772907,10.426024],[3.604474,10.409181],[3.570787,9.903881],[3.318137,9.769134],[3.149704,9.499641],[3.13286,9.196461],[2.77915,9.061714],[2.72862,7.815307],[2.762307,7.057357],[2.711777,6.349937],[2.812837,5.474084],[1.852767,5.339337],[1.633803,6.232034],[1.802237,6.282564],[1.583273,6.66996],[1.633803,7.006827],[1.61696,9.078557],[1.397997,9.348051],[1.347467,10.004941],[0.774793,10.392337],[0.90954,10.998697],[1.094817,11.049227]]]],"type":"MultiPolygon"},"properties":{"name":"Benin","source_feature_id":"marineregions:BJ"},"type":"Feature"}
