{"geometry":{"coordinates":[[[[-63.033891,17.914156],[-63.023561,17.941119],[-62.983297,17.982989],[-62.972287,18.009648],[-62.960384,18.022368],[-62.919695,18.053164],[-62.903269,18.057387],[-62.882227,18.071751],[-62.848811,18.076272],[-62.831167,18.094748],[-62.800018,18.10843],[-62.776988,18.133392],[-62.741421,18.157115],[-62.488771,18.224488],[-62.236121,18.308705],[-62.252964,18.173958],[-62.336419,17.83233],[-62.421398,17.668658],[-62.657377,17.635014],[-62.775108,17.651815],[-62.824381,17.658929],[-62.944752,17.717491],[-63.024132,17.743434],[-63.111974,17.820248],[-63.033891,17.914156]]]],"type":"MultiPolygon"},"properties":{"name":"Saint-Barth\u00e9lemy","source_feature_id":"marineregions:BL"},"type":"Feature"}
