{"geometry":{"coordinates":[[[[-65.094601,33.222963],[-64.8885,33.273636],[-64.674402,33.288453],[-64.461139,33.266803],[-64.331912,33.237721],[-64.137834,33.164391],[-63.965184,33.06004],[-63.820837,32.928874],[-63.71045,32.776161],[-63.669374,32.693605],[-63.617366,32.520206],[-63.606903,32.341521],[-63.638156,32.164593],[-63.709665,31.996355],[-63.822155,31.829533],[-63.952924,31.681602],[-64.115899,31.559451],[-64.304232,31.468132],[-64.591061,31.379235],[-64.901386,31.360446],[-65.106056,31.391445],[-65.341521,31.46985],[-65.515858,31.564583],[-65.665648,31.686447],[-65.729502,31.756153],[-65.832028,31.909823],[-65.897725,32.077571],[-65.91586,32.164743],[-65.921694,32.341512],[-65.886729,32.515841],[-65.812085,32.680995],[-65.700452,32.830558],[-65.556018,32.958689],[-65.284233,33.138523],[-65.094601,33.222963]]]],"type":"MultiPolygon"},"properties":{"name":"Bermuda","source_feature_id":"marineregions:BM"},"type":"Feature"}
