{"geometry":{"coordinates":[[[[113.527623,5.23796],[113.517245,5.269862],[113.529492,5.30098],[113.64163,5.377811],[113.766425,5.432873],[114.031858,5.49334],[114.094975,5.518728],[114.343781,5.697685],[114.408679,5.687683],[114.922072,5.238277],[114.953307,5.249617],[115.01535,5.224583],[115.144061,5.113924],[115.161317,5.084792],[115.167556,5.051505],[115.138969,4.954654],[115.143416,4.921056],[115.23134,4.777164],[115.270824,4.647194],[115.280499,4.478064],[115.289817,4.445372],[115.356014,4.369385],[115.353382,4.336699],[115.326827,4.317829],[115.293367,4.322747],[115.106106,4.39789],[115.036681,4.693571],[115.058887,4.860993],[115.037317,4.884183],[115.005244,4.876652],[114.959621,4.826965],[114.86452,4.792584],[114.817241,4.744408],[114.802581,4.645567],[114.827044,4.511755],[114.875595,4.385467],[114.869613,4.352066],[114.76072,4.103718],[114.737483,4.079115],[114.675674,4.052063],[114.608012,4.050374],[114.576735,4.063294],[114.507339,4.137336],[114.442085,4.255316],[114.343726,4.272205],[114.32452,4.299406],[114.310349,4.39985],[114.265484,4.490802],[114.096828,4.600853],[114.094303,4.735067],[114.071548,4.798422],[114.043136,4.815681],[113.944027,4.835761],[113.743038,5.019314],[113.527623,5.23796]]]],"type":"MultiPolygon"},"properties":{"name":"Brunei","source_feature_id":"marineregions:BN"},"type":"Feature"}
