{"geometry":{"coordinates":[[[[14.271188,-68.559025],[13.235774,-68.672995],[12.550337,-68.720192],[12.218404,-68.621254],[12.070244,-68.483484],[12.02562,-68.460938],[11.666667,-68.405223],[11.666667,-67.989722],[12.45,-67.989722],[14.271188,-68.559025]]],[[[17.938825,-63.88734],[16.746283,-64.015017],[16.678716,-63.624924],[17.420126,-62.915358],[17.498877,-62.852487],[17.643935,-62.769551],[17.736183,-63.019745],[17.828094,-63.135755],[17.873698,-63.286353],[17.947997,-63.634044],[17.938825,-63.88734]]]],"type":"MultiPolygon"},"properties":{"name":"Saba","source_feature_id":"marineregions:BQ"},"type":"Feature"}
