{"geometry":{"coordinates":[[[[-75.7,21.416],[-75.921,21.452],[-76.478,21.743],[-76.616,21.879],[-76.782,22.228],[-76.812,22.573],[-76.688,22.929],[-76.862,23.12],[-77.349,22.84],[-77.718,22.77],[-77.998,22.806],[-78.256,22.914],[-78.601,23.199],[-78.748,23.437],[-78.884,23.174],[-79.071,22.989],[-79.443,23.139],[-80.559,23.497],[-81.224,23.94],[-81.061,24.119],[-80.745,24.329],[-80.205,24.544],[-79.725,25.11],[-79.735,25.632],[-79.59,26.192],[-79.588,27.115],[-79.532,27.426],[-79.525,27.451],[-79.524741,27.451148],[-79.286,27.55],[-79.106,27.823],[-78.878,27.998],[-78.593,28.108],[-78.297,28.138],[-77.91,28.057],[-77.557,27.815],[-77.116,27.725],[-76.674,27.418],[-76.378,27.29],[-76.164,27.104],[-75.991,26.784],[-75.958,26.5],[-76.023,26.218],[-75.432,25.787],[-75.21,25.487],[-74.867,25.229],[-74.72,24.994],[-74.352,25.024],[-74.078,24.961],[-73.834,24.83],[-73.642,24.642],[-73.495,24.353],[-73.446,24.082],[-73.488,23.81],[-73.591,23.601],[-73.148,23.357],[-72.59,23.261],[-72.325,23.157],[-71.961,22.859],[-71.925,22.808],[-71.967,22.739],[-72.292,22.219],[-72.481,22.056],[-72.658,21.701],[-72.667,21.461],[-72.473,20.884],[-72.441,20.777],[-72.423,20.723],[-73.582,20.374],[-74.585,21.059],[-74.645,21.081],[-74.61,21.336],[-74.866,21.467],[-75.072,21.67],[-75.331,21.494],[-75.637462,21.409051],[-75.638,21.409],[-75.7,21.416]]]],"type":"MultiPolygon"},"properties":{"name":"Bahamas","source_feature_id":"marineregions:BS"},"type":"Feature"}
