{"geometry":{"coordinates":[[[[88.939,27.336],[88.972,27.306],[89.005,27.327],[88.951,27.411],[89.006,27.568],[89.127,27.614],[89.507,28.09],[89.597,28.164],[89.765,28.189],[89.892,28.315],[90.224,28.351],[90.293,28.266],[90.375,28.31],[90.605,28.235],[90.443,28.064],[90.587,28.024],[90.696,28.08],[91.203,27.985],[91.248,28.064],[91.34,28.065],[91.613,27.859],[91.542,27.831],[91.645,27.769],[91.562,27.632],[91.595,27.542],[91.733,27.469],[92.018,27.479],[92.125,27.282],[92.038,27.259],[92.071,27.226],[92.023,27.119],[92.12,26.972],[92.092,26.86],[91.892,26.919],[91.719,26.811],[91.41,26.838],[91.338,26.782],[91.1,26.82],[90.712,26.766],[90.415,26.904],[90.231,26.857],[90.191,26.771],[90.053,26.729],[89.652,26.717],[89.65,26.776],[89.376,26.862],[89.13,26.804],[89.095,26.888],[88.945,26.928],[88.921,26.993],[88.877,26.952],[88.87,27.109],[88.748,27.146],[88.802,27.258],[88.877,27.252],[88.921,27.328],[88.939,27.336]]]],"type":"MultiPolygon"},"properties":{"name":"Bhutan","source_feature_id":"marineregions:BT"},"type":"Feature"}
