{"geometry":{"coordinates":[[[[3.384507,-54.39194],[3.385725,-54.392151],[3.393374,-54.396241],[3.394081,-54.396444],[3.408721,-54.398746],[3.418863,-54.404783],[3.421059,-54.408069],[3.426125,-54.409885],[3.43241,-54.418955],[3.43327,-54.425501],[3.425486,-54.43656],[3.425706,-54.439883],[3.420961,-54.441293],[3.41504,-54.445302],[3.40681,-54.446399],[3.377302,-54.448037],[3.358147,-54.446733],[3.355173,-54.44805],[3.347973,-54.450088],[3.342072,-54.454422],[3.324355,-54.455967],[3.320571,-54.454449],[3.316375,-54.447959],[3.297628,-54.435278],[3.294383,-54.43391],[3.289587,-54.434194],[3.291346,-54.432904],[3.291639,-54.428835],[3.287035,-54.42466],[3.289383,-54.423437],[3.286599,-54.420694],[3.288847,-54.417959],[3.2888,-54.41495],[3.284723,-54.407612],[3.284731,-54.40708],[3.285756,-54.404322],[3.286644,-54.403283],[3.293575,-54.400928],[3.290614,-54.398911],[3.290369,-54.398495],[3.291268,-54.397036],[3.292219,-54.396755],[3.294891,-54.39694],[3.295451,-54.397137],[3.300065,-54.399739],[3.321923,-54.399245],[3.331681,-54.397946],[3.336598,-54.39571],[3.342818,-54.396334],[3.347684,-54.392262],[3.348335,-54.387687],[3.351949,-54.386381],[3.355253,-54.387453],[3.358403,-54.391354],[3.364569,-54.392896],[3.384507,-54.39194]]]],"type":"MultiPolygon"},"properties":{"name":"Bouvet","source_feature_id":"marineregions:BV"},"type":"Feature"}
