{"geometry":{"coordinates":[[[[24.001752,-25.635555],[24.018595,-25.635555],[24.018595,-25.652398],[24.001752,-25.652398],[24.001752,-25.635555]]],[[[20.156784,-22.01641],[20.8235,-21.983891],[20.937411,-21.917099],[20.99488,-21.797906],[21.037488,-18.454012],[21.130004,-18.360475],[21.258551,-18.326097],[23.106814,-18.021389],[23.352902,-18.115316],[23.616041,-18.412544],[23.743618,-18.398322],[24.163754,-18.069787],[24.552263,-18.003488],[25.046038,-17.820248],[25.046038,-17.803405],[25.062882,-17.803405],[25.062882,-17.817441],[25.248158,-17.786561],[25.265002,-17.786561],[25.265002,-17.803405],[25.333624,-18.057197],[25.870879,-18.825554],[26.078532,-19.318666],[26.232409,-19.537482],[26.653214,-19.865403],[27.139551,-20.088076],[27.357407,-20.41731],[27.601855,-20.51691],[27.694265,-20.610844],[27.721664,-21.009542],[27.991987,-21.468753],[28.223063,-21.59635],[28.873641,-21.747726],[29.357932,-22.199515],[29.09753,-22.250671],[28.777174,-22.495595],[28.265447,-22.659158],[27.800145,-23.142444],[27.122989,-23.577615],[27.029839,-23.674054],[26.772066,-24.288608],[26.353825,-24.626183],[25.974343,-24.761476],[25.880064,-24.856265],[25.637879,-25.48459],[25.465754,-25.687956],[24.67093,-25.792023],[24.018595,-25.635555],[23.664885,-25.433435],[23.290285,-25.297009],[23.029326,-25.346249],[22.856927,-25.545715],[22.586912,-26.157699],[22.067719,-26.5656],[21.610572,-26.831278],[20.815631,-26.839457],[20.690818,-26.800384],[20.638389,-26.550574],[20.826456,-26.059625],[20.616241,-25.433435],[20.310626,-25.000702],[19.993038,-24.759702],[19.999026,-22.214349],[20.048493,-22.091478],[20.156784,-22.01641]],[[23.681728,-25.433435],[23.664885,-25.416592],[23.664885,-25.433435],[23.681728,-25.433435]],[[22.586912,-26.140855],[22.570068,-26.140855],[22.570068,-26.157699],[22.586912,-26.157699],[22.586912,-26.140855]],[[20.633085,-25.433435],[20.633085,-25.416592],[20.616241,-25.433435],[20.633085,-25.433435]],[[20.649928,-25.450278],[20.649928,-25.467122],[20.666771,-25.467122],[20.666771,-25.450278],[20.649928,-25.450278]]]],"type":"MultiPolygon"},"properties":{"name":"Botswana","source_feature_id":"marineregions:BW"},"type":"Feature"}
