{"geometry":{"coordinates":[[[[23.565,51.536],[23.528,51.73],[23.641,51.8],[23.6,51.842],[23.688,51.99],[23.652,52.081],[23.502,52.178],[23.206,52.226],[23.181,52.286],[23.468,52.55],[23.938,52.712],[23.946,52.959],[23.872,53.081],[23.917,53.16],[23.659,53.524],[23.515,53.956],[23.795,53.899],[23.917,53.971],[23.977,53.924],[24.2,53.97],[24.417,53.897],[24.674,54.017],[24.698,53.964],[24.838,54.005],[24.871,54.038],[24.773,54.114],[24.813,54.144],[25.068,54.134],[25.232,54.263],[25.496,54.31],[25.59,54.232],[25.53,54.158],[25.782,54.154],[25.784,54.238],[25.705,54.303],[25.532,54.342],[25.761,54.581],[25.735,54.795],[25.783,54.858],[25.883,54.937],[26.209,54.997],[26.261,55.121],[26.669,55.156],[26.836,55.287],[26.443,55.346],[26.554,55.389],[26.527,55.509],[26.646,55.578],[26.629,55.68],[26.779,55.679],[27.127,55.851],[27.287,55.785],[27.617,55.787],[27.653,55.93],[28.149,56.171],[28.32,56.063],[28.39,56.111],[28.684,56.1],[28.639,56.073],[28.735,55.974],[29.091,56.032],[29.439,55.963],[29.48,55.919],[29.405,55.9],[29.359,55.76],[29.513,55.702],[29.671,55.786],[29.817,55.781],[29.898,55.863],[30.277,55.87],[30.509,55.799],[30.764,55.592],[30.934,55.62],[30.929,55.384],[30.824,55.283],[31.021,55.138],[31.027,55.06],[30.91,55.019],[30.942,54.962],[30.821,54.938],[30.749,54.806],[31.01,54.717],[30.993,54.674],[31.198,54.659],[31.086,54.509],[31.235,54.465],[31.315,54.357],[31.319,54.243],[31.887,54.075],[31.853,54.004],[31.893,53.965],[31.764,53.794],[32.123,53.818],[32.359,53.719],[32.456,53.737],[32.5,53.687],[32.414,53.66],[32.424,53.602],[32.608,53.478],[32.749,53.461],[32.773,53.397],[32.738,53.331],[32.483,53.302],[32.446,53.209],[32.234,53.098],[31.925,53.085],[31.63,53.228],[31.412,53.21],[31.391,53.098],[31.243,53.033],[31.59,52.788],[31.604,52.744],[31.5,52.695],[31.661,52.558],[31.534,52.475],[31.607,52.454],[31.591,52.321],[31.709,52.265],[31.694,52.19],[31.782,52.187],[31.78,52.112],[31.402,52.141],[31.252,52.042],[31.138,52.103],[30.935,52.075],[30.94,52.014],[30.518,51.669],[30.584,51.432],[30.655,51.377],[30.559,51.263],[30.453,51.275],[30.331,51.36],[30.337,51.425],[30.177,51.512],[29.786,51.445],[29.73,51.531],[29.536,51.482],[29.498,51.401],[29.322,51.379],[29.166,51.651],[28.818,51.558],[28.752,51.42],[28.678,51.452],[28.655,51.571],[28.468,51.592],[28.358,51.542],[28.258,51.622],[28.266,51.682],[28.038,51.566],[27.941,51.557],[27.975,51.592],[27.839,51.626],[27.853,51.543],[27.749,51.474],[27.668,51.515],[27.721,51.603],[27.246,51.602],[27.273,51.648],[27.211,51.666],[27.204,51.772],[26.949,51.736],[26.041,51.925],[25.397,51.916],[25.26,51.966],[24.956,51.895],[24.377,51.879],[24.297,51.807],[24.316,51.748],[23.998,51.58],[23.782,51.666],[23.609,51.623],[23.673,51.517],[23.625,51.501],[23.565,51.536]]]],"type":"MultiPolygon"},"properties":{"name":"Belarus","source_feature_id":"marineregions:BY"},"type":"Feature"}
