{"geometry":{"coordinates":[[[[18.478746,-88.379628],[18.495655,-88.405058],[18.475142,-88.446871],[18.493767,-88.475629],[18.462438,-88.518253],[18.374891,-88.551921],[18.360386,-88.543781],[18.291464,-88.605538],[18.240223,-88.604633],[18.181257,-88.69752],[18.16083,-88.679883],[18.109245,-88.717813],[18.061266,-88.715739],[18.031826,-88.768276],[17.979813,-88.784259],[17.924795,-88.859242],[17.894668,-88.859279],[17.910118,-88.913491],[17.959127,-88.944704],[17.957668,-88.983319],[17.947025,-88.987019],[17.98213,-88.999741],[18.002643,-89.037369],[17.970714,-89.13393],[17.940845,-89.151394],[17.060909,-89.149507],[15.886166,-89.221553],[15.913203,-89.176177],[15.899298,-89.162323],[15.90683,-89.133612],[15.896401,-89.11494],[15.911851,-89.102291],[15.900457,-89.063942],[15.916529,-89.053391],[15.902388,-89.051092],[15.915155,-89.040807],[15.911658,-89.019771],[15.896788,-89.014551],[15.904319,-88.994874],[15.887774,-88.921068],[15.928228,-88.854604],[15.948247,-88.845061],[15.972537,-88.747394],[16.034109,-88.708534],[16.072351,-88.608334],[16.064914,-88.507987],[16.033287,-88.443867],[16.216463,-88.3956],[16.296519,-88.31322],[16.302004,-88.284099],[16.274759,-88.137471],[16.157058,-87.90665],[16.459789,-87.404911],[16.592963,-87.223017],[16.820533,-86.9931],[17.516534,-86.356912],[17.784099,-86.172512],[17.966437,-87.303564],[18.205197,-87.488238],[18.184798,-87.854348],[18.203061,-87.868094],[18.164401,-87.893378],[18.158259,-87.927595],[18.213404,-87.993648],[18.300487,-87.994573],[18.376184,-88.01625],[18.407464,-88.050629],[18.460212,-88.179473],[18.447965,-88.200885],[18.49013,-88.328059],[18.478746,-88.379628]]]],"type":"MultiPolygon"},"properties":{"name":"Belize","source_feature_id":"marineregions:BZ"},"type":"Feature"}
