{"geometry":{"coordinates":[[[[100.325,-12.475],[100.204,-13.128],[99.944,-13.762],[99.567,-14.322],[99.103,-14.78],[98.513,-15.166],[97.882,-15.418],[97.251,-15.541],[96.558,-15.546],[95.869,-15.419],[95.216,-15.155],[94.715,-14.832],[94.215,-14.355],[93.837,-13.817],[93.564,-13.188],[93.432,-12.562],[93.419,-11.697],[93.502,-11.101],[93.725,-10.451],[94.064,-9.873],[94.533,-9.352],[95.112,-8.93],[95.768,-8.638],[96.427,-8.494],[97.148,-8.486],[97.843,-8.626],[98.489,-8.903],[99.041,-9.286],[99.499,-9.76],[99.864,-10.327],[100.089,-10.884],[100.316,-11.836],[100.325,-12.475]]]],"type":"MultiPolygon"},"properties":{"name":"Cocos Islands","source_feature_id":"marineregions:CC"},"type":"Feature"}
