{"geometry":{"coordinates":[[[[29.661112,-13.255704],[29.661112,-13.238861],[29.677955,-13.238861],[29.677955,-13.255704],[29.661112,-13.255704]]],[[[28.599982,-9.567014],[28.599982,-9.550171],[28.616825,-9.550171],[28.616825,-9.567014],[28.599982,-9.567014]]],[[[11.824021,-5.895167],[12.444491,-5.684818],[12.515014,-5.575279],[12.553713,-5.054989],[12.851225,-4.795789],[13.087271,-4.682447],[13.104114,-4.69929],[13.104114,-4.682447],[13.22792,-4.694564],[13.424138,-4.90141],[13.634958,-4.747316],[13.773472,-4.527553],[14.263024,-4.349088],[14.389546,-4.364613],[14.417894,-4.884567],[14.802512,-4.800956],[15.163918,-4.407165],[15.912367,-3.846839],[16.157087,-3.373894],[16.25475,-2.178784],[16.840363,-1.286885],[17.383151,-0.898915],[17.645238,-0.597055],[17.726785,-0.07052],[17.91471,0.427315],[17.873428,0.957638],[18.05251,1.600282],[18.100208,2.132574],[18.560094,3.096609],[18.628728,3.48657],[18.631744,4.293436],[19.143856,4.918575],[19.496731,5.109404],[19.761951,5.085768],[20.005029,4.967668],[20.2331,4.821935],[20.621328,4.451458],[22.342812,4.148396],[22.466253,4.199469],[22.865035,4.738777],[22.996989,4.760325],[23.382997,4.6528],[24.145154,4.917178],[24.377263,5.053247],[24.505784,5.060977],[24.748842,4.946798],[25.148348,4.998021],[25.264412,5.06417],[25.412041,5.289854],[25.533629,5.340973],[25.905049,5.187747],[26.159894,5.21503],[26.659062,5.07567],[27.171489,5.161861],[27.420949,5.086687],[27.437792,5.069844],[27.454635,5.019314],[27.929726,4.549901],[28.278295,4.350411],[28.539289,4.372038],[28.774202,4.494012],[29.293305,4.421057],[29.483467,4.606044],[29.608347,4.641568],[29.724887,4.579629],[30.148879,4.066027],[30.873832,3.48657],[30.773664,2.516958],[30.825811,2.407103],[31.165992,2.259631],[31.239507,2.161057],[31.228502,2.038454],[31.086597,1.836357],[30.256779,1.085323],[30.022819,0.797024],[29.730251,-0.020397],[29.593323,-1.007572],[29.593739,-1.381153],[29.357357,-1.535192],[29.275775,-1.62494],[29.14136,-1.874498],[29.136571,-1.954868],[29.163172,-2.113792],[29.125264,-2.228573],[28.903253,-2.40257],[28.88457,-2.437986],[28.881481,-2.517577],[28.911794,-2.634958],[28.932462,-2.669367],[29.037909,-2.72862],[29.027196,-2.808983],[29.242525,-3.062357],[29.218105,-3.352048],[29.238465,-3.518006],[29.235827,-3.809957],[29.350769,-4.07814],[29.425305,-4.44664],[29.35809,-4.842534],[29.578118,-5.617766],[29.547857,-6.020863],[29.585752,-6.285153],[29.796601,-6.627792],[30.269451,-7.104337],[30.452643,-7.610536],[30.772772,-8.202704],[29.058958,-8.47882],[28.779087,-8.923465],[28.505729,-9.214056],[28.482344,-9.343115],[28.635165,-9.711791],[28.647307,-10.64119],[28.460479,-11.280564],[28.426991,-11.677718],[28.571342,-11.895693],[28.968045,-12.249319],[29.1986,-12.380674],[29.454486,-12.374182],[29.659929,-12.209875],[29.772682,-12.265332],[29.810563,-13.194847],[29.77965,-13.324272],[29.683943,-13.378938],[29.677955,-13.255704],[29.694799,-13.238861],[29.677955,-13.238861],[29.677955,-13.222018],[29.661112,-13.222018],[29.661112,-13.238861],[29.144103,-13.39013],[29.020173,-13.347298],[28.798936,-13.010867],[28.510292,-12.731252],[28.380144,-12.497048],[27.622837,-12.213243],[27.206934,-11.680406],[27.087684,-11.652533],[26.831609,-11.959047],[26.024895,-11.902073],[25.404047,-11.648453],[25.282195,-11.270608],[25.021954,-11.25544],[24.507322,-11.422623],[24.387563,-11.384523],[24.324752,-11.124916],[24.001752,-10.880794],[23.759293,-10.985053],[23.489877,-10.977856],[22.963268,-11.090766],[22.693952,-11.075254],[22.306955,-11.175969],[22.226179,-11.07377],[22.29619,-10.412921],[22.190012,-10.023258],[21.943453,-9.704713],[21.837718,-9.458631],[21.917388,-8.384242],[21.78456,-7.863553],[21.831691,-7.462433],[21.764322,-7.349154],[21.642717,-7.292851],[20.699632,-7.273615],[20.591941,-7.199745],[20.512057,-6.956144],[19.710043,-7.023924],[19.590528,-7.084102],[19.522565,-7.198048],[19.359402,-7.848913],[19.273984,-7.950718],[19.012922,-7.996834],[18.610929,-7.952111],[17.68071,-8.102226],[17.553618,-8.061294],[17.018231,-7.286546],[16.770326,-6.66039],[16.66517,-6.132234],[16.524137,-5.908619],[16.26145,-5.860544],[13.155284,-5.881788],[11.975611,-6.16466],[11.556409,-6.2389],[11.432245,-6.167616],[11.358377,-6.044838],[11.352407,-6.029914],[11.355452,-6.029044],[11.824021,-5.895167]],[[13.424138,-4.918254],[13.440981,-4.918254],[13.440981,-4.90141],[13.424138,-4.90141],[13.424138,-4.918254]],[[14.401051,-4.884567],[14.417894,-4.90141],[14.417894,-4.884567],[14.401051,-4.884567]],[[25.905049,5.170904],[25.921892,5.170904],[25.905049,5.187747],[25.905049,5.170904]]],[[[26.225072,5.20459],[26.225072,5.221434],[26.241915,5.221434],[26.241915,5.20459],[26.225072,5.20459]]]],"type":"MultiPolygon"},"properties":{"name":"Democratic Republic of the Congo","source_feature_id":"marineregions:CD"},"type":"Feature"}
