{"geometry":{"coordinates":[[[[10.792313,-4.855051],[10.729204,-4.615074],[11.375379,-3.599051],[11.498586,-3.55158],[11.753149,-3.630851],[11.874111,-3.610827],[11.931292,-3.492894],[11.591148,-2.78429],[11.570993,-2.519266],[11.660073,-2.452529],[11.915567,-2.407788],[12.316896,-2.417434],[12.44101,-2.370313],[12.491276,-2.252233],[12.477451,-1.984897],[12.546049,-1.876139],[12.678659,-1.869592],[12.792333,-1.935725],[13.016945,-2.267952],[13.132572,-2.335913],[13.257936,-2.383064],[13.522501,-2.367661],[13.734638,-2.207733],[13.845151,-2.255351],[13.994375,-2.467329],[14.121711,-2.432599],[14.398599,-1.835739],[14.477514,-1.441739],[14.475301,-0.641433],[14.417303,-0.522367],[13.996362,-0.198358],[13.936014,0.194694],[14.048849,0.432874],[14.365106,0.681302],[14.442583,0.930507],[14.261385,1.284833],[14.026973,1.40491],[13.244963,1.270316],[13.171171,1.79429],[13.306234,2.17279],[14.526213,2.168595],[14.910921,2.04359],[15.708781,1.903418],[16.069287,1.726008],[16.108434,2.115402],[16.186444,2.22332],[16.304348,2.442284],[16.462664,2.815715],[16.567996,3.346617],[16.761951,3.526703],[17.563423,3.655644],[18.628728,3.48657],[18.560094,3.096609],[18.100208,2.132574],[18.05251,1.600282],[17.873428,0.957638],[17.91471,0.427315],[17.726785,-0.07052],[17.645238,-0.597055],[17.383151,-0.898915],[16.840363,-1.286885],[16.25475,-2.178784],[16.157087,-3.373894],[15.912367,-3.846839],[15.163918,-4.407165],[14.802512,-4.800956],[14.417894,-4.884567],[14.389546,-4.364613],[14.263024,-4.349088],[13.773472,-4.527553],[13.634958,-4.747316],[13.424138,-4.90141],[13.22792,-4.694564],[13.104114,-4.682447],[13.087271,-4.682447],[12.904084,-4.480997],[12.780072,-4.435278],[11.90954,-5.083668],[11.436624,-5.35618],[11.253453,-5.478295],[10.792313,-4.855051]],[[13.003054,-2.341223],[13.003054,-2.358067],[13.003054,-2.37491],[13.019898,-2.358067],[13.019898,-2.341223],[13.003054,-2.341223]]],[[[13.424138,-4.918254],[13.424138,-4.90141],[13.440981,-4.90141],[13.440981,-4.918254],[13.424138,-4.918254]]],[[[14.417894,-4.884567],[14.417894,-4.90141],[14.401051,-4.884567],[14.417894,-4.884567]]]],"type":"MultiPolygon"},"properties":{"name":"Republic of the Congo","source_feature_id":"marineregions:CG"},"type":"Feature"}
