{"geometry":{"coordinates":[[[[8.809064,47.700323],[9.567014,47.548733],[9.534044,47.268484],[9.530726,47.270568],[9.529542,47.261639],[9.519773,47.242777],[9.51011,47.232133],[9.503944,47.225268],[9.502048,47.22192],[9.500152,47.213874],[9.497614,47.208424],[9.496593,47.207072],[9.490686,47.198617],[9.488317,47.193918],[9.487119,47.189927],[9.486902,47.189348],[9.485482,47.181559],[9.486429,47.177503],[9.489743,47.166238],[9.494478,47.157032],[9.499135,47.149501],[9.504015,47.145149],[9.485497,47.071077],[9.473429,47.066138],[9.471317,47.062683],[9.472294,47.058928],[9.475093,47.052383],[9.476227,47.052383],[9.476108,47.054787],[9.479887,47.056332],[9.483415,47.051182],[9.488202,47.050838],[9.492612,47.056847],[9.498155,47.054873],[9.498533,47.056675],[9.501305,47.055902],[9.513147,47.057276],[9.513525,47.059078],[9.516422,47.060277],[9.547736,47.060277],[9.552833,47.057447],[9.554723,47.050495],[9.557208,47.048435],[9.564548,47.049723],[9.574097,47.05307],[9.583444,47.053585],[9.602198,47.060277],[9.617544,47.060277],[9.870194,47.02659],[10.106001,46.841313],[10.341807,46.992903],[10.476554,46.858157],[10.476554,46.538133],[10.106001,46.605507],[9.971254,46.3697],[9.583857,46.285483],[9.465954,46.504447],[9.280677,46.504447],[9.280677,46.285483],[9.011184,46.049677],[9.078557,45.91493],[8.926967,45.847557],[8.809064,46.100207],[8.606944,46.11705],[8.472197,46.453917],[8.135331,46.302327],[8.152174,46.133893],[7.865837,45.91493],[7.545814,45.982303],[7.040514,45.91493],[6.804707,46.42023],[6.501527,46.453917],[6.21519,46.31917],[6.299407,46.21811],[5.979384,46.150737],[6.16466,46.352857],[6.11413,46.588663],[6.434154,46.757097],[7.057357,47.363457],[6.888924,47.363457],[6.989984,47.498203],[7.208947,47.43083],[7.461597,47.48136],[7.596344,47.58242],[8.472197,47.58242],[8.455354,47.599263],[8.556414,47.63295],[8.573257,47.599263],[8.606944,47.63295],[8.657474,47.78454],[8.741691,47.68348],[8.809064,47.700323]]]],"type":"MultiPolygon"},"properties":{"name":"Switzerland","source_feature_id":"marineregions:CH"},"type":"Feature"}
