{"geometry":{"coordinates":[[[[-7.411067,5.30565],[-7.411067,5.288807],[-7.403362,5.590471],[-7.445764,5.786466],[-7.703873,5.934231],[-7.927213,6.263984],[-8.319401,6.352909],[-8.546429,6.54039],[-8.354294,6.77102],[-8.303471,7.075602],[-8.472197,7.562657],[-8.220974,7.635987],[-8.000922,8.107733],[-8.187053,8.292855],[-8.187199,8.417998],[-8.079391,8.487031],[-7.697636,8.434197],[-7.69611,8.561715],[-7.91154,8.886686],[-7.817303,9.12222],[-8.111616,9.555141],[-8.120893,9.950408],[-7.983741,10.173374],[-7.657995,10.391824],[-7.530515,10.41129],[-7.184974,10.222411],[-7.053837,10.223049],[-6.706732,10.404387],[-6.573183,10.607855],[-6.319189,10.677999],[-6.220812,10.61943],[-6.186053,10.358533],[-6.118567,10.252745],[-5.989826,10.262991],[-5.638742,10.437877],[-5.50777,10.426024],[-5.150523,10.257822],[-4.838786,9.827323],[-4.730071,9.748828],[-4.346791,9.658755],[-4.123007,9.804651],[-3.738542,9.920326],[-3.337912,9.907339],[-3.097442,9.798359],[-2.820843,9.509241],[-2.694934,9.482797],[-2.67809,9.482797],[-2.715271,9.086881],[-2.526718,8.449275],[-2.554728,8.184898],[-2.85232,7.743166],[-2.998824,7.228887],[-3.175381,6.868736],[-3.222835,6.608003],[-3.024535,5.831436],[-2.787596,5.51376],[-2.755413,5.251453],[-2.831779,5.145679],[-3.075458,5.046766],[-3.143141,4.9324],[-3.28445,4.278207],[-4.225273,4.303598],[-5.439594,4.179483],[-5.958108,4.022735],[-7.085866,3.556282],[-7.478441,3.452884],[-7.575887,4.825907],[-7.51152,5.111998],[-7.427911,5.288807],[-7.427911,5.30565],[-7.411067,5.30565]],[[-8.354294,6.754177],[-8.337451,6.754177],[-8.337451,6.77102],[-8.354294,6.77102],[-8.354294,6.754177]]]],"type":"MultiPolygon"},"properties":{"name":"Ivory Coast","source_feature_id":"marineregions:CI"},"type":"Feature"}
