{"geometry":{"coordinates":[[[[-160.469,-20.529],[-160.141,-20.339],[-159.761,-20.284],[-159.364,-20.369],[-159.038,-20.591],[-158.812,-20.966],[-158.774,-21.259],[-158.855,-21.606],[-159.074,-21.897],[-159.397,-22.086],[-159.793,-22.152],[-160.221,-22.06],[-160.534,-21.859],[-160.74,-21.56],[-160.806,-21.21],[-160.722,-20.864],[-160.469,-20.529]]],[[[-159.488,-19.975],[-159.747,-19.687],[-159.848,-19.435],[-159.852,-19.076],[-159.709,-18.743],[-159.446,-18.489],[-159.108,-18.353],[-158.741,-18.349],[-158.394,-18.478],[-158.082,-18.786],[-157.963,-19.11],[-157.981,-19.479],[-158.141,-19.801],[-158.421,-20.039],[-158.776,-20.155],[-159.151,-20.133],[-159.488,-19.975]]],[[[-164.098,-13.243],[-164.01,-12.894],[-163.793,-12.608],[-163.481,-12.427],[-163.017,-12.354],[-162.668,-12.449],[-162.385,-12.666],[-162.207,-12.973],[-162.162,-13.324],[-162.256,-13.661],[-162.473,-13.938],[-162.782,-14.113],[-163.19,-14.185],[-163.549,-14.109],[-163.848,-13.902],[-164.041,-13.597],[-164.098,-13.243]]],[[[-166.711,-10.768],[-166.58,-10.454],[-166.399,-10.252],[-166.169,-10.11],[-165.907,-10.04],[-165.548,-10.071],[-165.162,-10.297],[-164.999,-10.512],[-164.901,-10.81],[-164.639,-11.075],[-164.51,-11.406],[-164.519,-11.768],[-164.668,-12.093],[-164.935,-12.336],[-165.277,-12.458],[-165.64,-12.44],[-165.971,-12.282],[-166.207,-12.024],[-166.333,-11.699],[-166.529,-11.519],[-166.665,-11.29],[-166.727,-11.032],[-166.711,-10.768]]],[[[-158.965,-9.147],[-158.946,-8.793],[-158.793,-8.473],[-158.528,-8.236],[-158.192,-8.119],[-157.796,-8.12],[-157.462,-8.238],[-157.181,-8.493],[-157.011,-8.892],[-157.023,-9.24],[-157.167,-9.558],[-157.467,-9.864],[-157.876,-10.013],[-158.229,-9.982],[-158.561,-9.809],[-158.845,-9.481],[-158.965,-9.147]]]],"type":"MultiPolygon"},"properties":{"name":"Cook Islands","source_feature_id":"marineregions:CK"},"type":"Feature"}
