{"geometry":{"coordinates":[[[[10.015729,2.178559],[9.938197,2.20643],[9.688142,2.41889],[9.210525,2.547512],[9.146055,2.596906],[9.136563,2.676468],[9.243737,2.899283],[9.27851,3.05978],[9.263832,3.471803],[9.225136,3.631078],[9.003912,3.873163],[8.64714,4.07998],[8.320607,4.076087],[8.460074,4.593603],[8.827921,5.307668],[8.902654,5.833524],[9.945874,6.869322],[10.06448,6.931264],[10.455616,6.961589],[10.565594,7.038489],[10.688084,7.027863],[11.174684,6.575012],[11.300462,6.53943],[11.427792,6.579149],[11.516171,6.677638],[11.628942,6.920822],[11.870233,7.240524],[12.362007,8.482464],[12.777266,8.80738],[12.914059,9.323669],[13.24337,9.732971],[13.297556,9.994785],[13.504543,10.338608],[13.748337,10.959629],[13.905351,11.176414],[14.395299,11.386556],[14.57525,11.578635],[14.632935,12.106927],[14.580288,12.229769],[14.241814,12.440863],[14.081028,13.087271],[14.347652,13.058103],[14.463248,12.989781],[14.809002,12.580595],[15.058182,11.960089],[15.109599,10.752266],[15.279983,10.386666],[15.547045,10.083715],[15.508564,9.984282],[14.299518,9.960802],[14.094201,9.793419],[14.062685,9.662969],[14.108255,9.53833],[14.553473,9.032053],[15.173792,8.516268],[15.525476,7.78815],[15.512711,7.528971],[15.253338,7.223304],[14.799755,6.404598],[14.522556,6.114337],[14.497567,5.98965],[14.602376,5.744477],[14.587916,5.345593],[14.739984,4.696273],[15.067456,4.279596],[15.228326,3.773028],[16.037707,2.886962],[16.186444,2.240163],[16.186444,2.22332],[16.108434,2.115402],[16.069287,1.726008],[15.708781,1.903418],[14.910921,2.04359],[14.526213,2.168595],[13.306234,2.17279],[13.062936,2.258401],[11.562211,2.302438],[11.335564,2.17279],[10.015729,2.178559]]]],"type":"MultiPolygon"},"properties":{"name":"Cameroon","source_feature_id":"marineregions:CM"},"type":"Feature"}
