{"geometry":{"coordinates":[[[[-69.613502,0.623203],[-69.596658,0.60636],[-69.613502,0.60636],[-69.613502,0.623203]]],[[[-79.286428,2.91398],[-78.923387,3.315224],[-78.459572,3.59274],[-78.373794,3.695345],[-78.406737,4.230065],[-78.290761,4.894849],[-78.414848,5.421393],[-78.385346,6.230203],[-78.540469,6.602587],[-78.06832,7.005043],[-77.848389,7.307295],[-77.752591,7.536063],[-77.66665,7.612544],[-77.426027,7.632908],[-77.281053,7.835128],[-77.221322,8.071786],[-77.378349,8.410578],[-77.384043,8.656454],[-77.058255,9.465954],[-77.075099,9.533327],[-77.070145,9.53729],[-76.831464,9.864154],[-76.550275,10.479519],[-76.138769,11.178528],[-75.312593,11.873937],[-74.284197,12.204193],[-73.744449,12.217465],[-73.486129,12.291689],[-73.030641,12.583642],[-72.511534,13.015087],[-71.8967,13.291936],[-71.493784,13.320781],[-71.373421,13.262345],[-71.301065,13.1496],[-71.230462,12.750404],[-71.072922,12.376459],[-70.759696,11.939484],[-70.766889,11.80712],[-70.853871,11.707003],[-70.984707,11.686622],[-71.240912,11.772778],[-71.508522,11.776039],[-71.767361,11.697052],[-71.991861,11.549078],[-72.241931,11.231213],[-72.551424,10.969523],[-72.771764,10.628763],[-73.032471,9.72321],[-73.275996,9.248449],[-73.028367,9.218639],[-72.811494,9.058972],[-72.429975,8.349365],[-72.380421,8.223584],[-72.46473,7.695422],[-72.380234,7.448159],[-71.999506,7.067068],[-71.466268,7.02367],[-71.466268,7.006827],[-71.449425,7.006827],[-71.449425,7.02367],[-70.647696,7.064796],[-70.128324,6.926834],[-69.915844,6.767165],[-69.597905,6.332074],[-69.398234,6.153798],[-68.464721,6.170453],[-67.801057,6.278223],[-67.667145,6.278693],[-67.550824,6.213891],[-67.473727,6.10755],[-67.495475,5.97698],[-67.793985,5.227386],[-67.829959,4.691613],[-67.712879,4.030381],[-67.377064,3.453794],[-67.389438,3.321672],[-67.467536,3.213396],[-67.757335,2.932913],[-67.738427,2.818481],[-67.513359,2.673071],[-67.250039,2.370846],[-66.851195,1.229563],[-66.983483,1.231342],[-67.078567,1.32515],[-67.280351,1.967017],[-67.334084,2.090841],[-67.434937,2.16303],[-67.904878,1.903586],[-68.1723,1.907762],[-68.228906,1.79772],[-68.33631,1.734231],[-69.553113,1.737975],[-69.68739,1.726006],[-69.794025,1.646715],[-69.849308,1.386759],[-69.779026,1.132842],[-69.265017,1.003771],[-69.162888,0.765103],[-69.220571,0.650516],[-69.616161,0.662544],[-69.874945,0.585258],[-69.985822,0.512365],[-70.02936,0.385559],[-69.993135,-0.151007],[-69.641428,-0.549773],[-69.4176,-1.181445],[-69.950368,-4.24452],[-70.212864,-3.937343],[-70.584299,-3.792447],[-70.599583,-3.663285],[-70.546072,-3.540008],[-70.129857,-2.847441],[-70.117382,-2.714815],[-70.208452,-2.624185],[-70.559313,-2.442284],[-70.556728,-2.442284],[-70.539885,-2.442284],[-70.539885,-2.42544],[-70.556728,-2.42544],[-70.573572,-2.42544],[-70.590415,-2.42544],[-70.590415,-2.426159],[-70.917343,-2.256666],[-71.297007,-2.365992],[-71.667066,-2.215377],[-71.797027,-2.222787],[-72.021234,-2.372253],[-72.277493,-2.450237],[-72.941635,-2.385558],[-73.055205,-2.317963],[-73.110936,-2.19819],[-73.136246,-1.930839],[-73.213654,-1.822429],[-73.450218,-1.709111],[-73.470625,-1.583273],[-73.603008,-1.348405],[-74.264575,-0.891985],[-74.372874,-0.644084],[-74.54227,-0.43626],[-74.998426,-0.147542],[-75.256019,-0.117903],[-75.766118,0.074445],[-76.212079,0.380859],[-76.73086,0.256995],[-77.398555,0.390036],[-77.614282,0.723132],[-78.117625,0.925777],[-78.439409,1.179033],[-78.930795,1.430888],[-79.904779,1.448527],[-79.835973,1.980996],[-79.286428,2.91398]],[[-73.453782,-1.583273],[-73.453782,-1.56643],[-73.470625,-1.56643],[-73.470625,-1.583273],[-73.453782,-1.583273]],[[-78.422566,1.179033],[-78.439409,1.195877],[-78.439409,1.179033],[-78.422566,1.179033]]],[[[-71.449425,7.02367],[-71.466268,7.02367],[-71.466268,7.040514],[-71.449425,7.040514],[-71.449425,7.02367]]],[[[-81.747314,13.424824],[-81.608539,13.654731],[-81.225176,13.777185],[-80.816577,13.777848],[-80.561754,13.698162],[-80.450246,13.458375],[-80.46486,13.187678],[-80.560569,12.933532],[-80.855173,12.478591],[-81.827158,12.004999],[-82.07856,12.092523],[-82.128099,12.127201],[-82.019619,12.660873],[-81.798126,13.157459],[-81.747314,13.424824]]],[[[-81.36676,14.074186],[-81.357669,14.196599],[-81.236619,14.240753],[-81.010046,14.127387],[-81.028999,14.005603],[-81.147736,13.95363],[-81.275281,13.981078],[-81.36676,14.074186]]],[[[-79.766377,15.671532],[-79.899595,15.648972],[-80.000786,15.73942],[-79.988943,15.874611],[-79.878046,15.951311],[-79.748831,15.912214],[-79.696289,15.787211],[-79.766377,15.671532]]],[[[-78.733714,15.979227],[-78.614534,16.010475],[-78.506187,15.952387],[-78.47124,15.834572],[-78.53383,15.728768],[-78.652247,15.695773],[-78.76032,15.755129],[-78.795033,15.872925],[-78.733714,15.979227]]]],"type":"MultiPolygon"},"properties":{"name":"Colombian Exclusive Economic Zone (Quitasue\u00f1o Bank)","source_feature_id":"marineregions:CO"},"type":"Feature"}
