{"geometry":{"coordinates":[[[[-83.258,7.263],[-83.611,7.541],[-83.919,7.622],[-84.259,7.854],[-84.54,8.198],[-84.642,8.634],[-84.876,8.71],[-85.19,8.681],[-85.446,8.74],[-85.828,9.019],[-86.131,9.151],[-86.388,9.389],[-86.634,9.774],[-86.756,10.181],[-86.737,10.519],[-86.798249,10.837201],[-86.759,10.852],[-86.023,11.097],[-85.703,11.064],[-85.609,11.219],[-84.914,10.941],[-84.683,11.083],[-84.44,10.956],[-84.352,10.99],[-84.203,10.783],[-84.02,10.793],[-83.926,10.709],[-83.767,10.771],[-83.765,10.772],[-83.762,10.774],[-83.662,10.812],[-83.68,10.915],[-83.688,10.933],[-83.681,11.027],[-83.496,11.234],[-82.848,11.26],[-82.821766,11.260468],[-82.792,11.261],[-82.523,10.743],[-81.956,10.244],[-82.562,9.576],[-82.671,9.495],[-82.856,9.62],[-82.843,9.499],[-82.938,9.473],[-82.933,9.076],[-82.711,8.93],[-82.917,8.765],[-82.828,8.627],[-82.848,8.465],[-83.05,8.34],[-82.94,8.269],[-82.891,8.111],[-82.89,8.081],[-82.896,8.037],[-83.258,7.263]]]],"type":"MultiPolygon"},"properties":{"name":"Costa Rica","source_feature_id":"marineregions:CR"},"type":"Feature"}
