{"geometry":{"coordinates":[[[[-81.224167,23.94],[-80.679083,23.55875],[-80.558833,23.497333],[-80.222194,23.423972],[-79.626194,23.212833],[-78.115444,22.596111],[-77.820528,22.432278],[-77.629667,22.29175],[-77.052972,21.930056],[-76.477556,21.742889],[-75.921194,21.451528],[-75.459639,21.377806],[-74.584528,21.059083],[-73.582356,20.373544],[-74.113317,19.413386],[-74.606397,19.302092],[-74.756611,19.255297],[-75.169111,19.059917],[-75.506413,18.832238],[-75.543333,18.861111],[-75.569167,18.852778],[-75.698611,18.918333],[-75.964722,19.021944],[-76.190278,19.077778],[-76.626111,19.156389],[-77.649444,19.168889],[-77.998419,19.19586],[-78.243168,19.232592],[-78.726943,19.357807],[-78.780853,19.610575],[-78.871054,19.858648],[-79.011501,20.020949],[-79.174489,20.164587],[-79.42544,20.330669],[-79.626983,20.423897],[-79.741299,20.461088],[-80.026348,20.519356],[-80.400207,20.633438],[-80.703764,20.568741],[-80.947513,20.490071],[-81.356426,20.503879],[-81.631287,20.471445],[-81.873977,20.410809],[-82.289939,20.267069],[-82.512358,20.166621],[-82.713011,20.056576],[-83.270741,19.700027],[-83.59445,19.47467],[-84.0,19.0],[-84.483333,19.0],[-84.64185,19.5405],[-84.965639,20.076972],[-85.53975,20.826778],[-85.852583,21.589139],[-86.115278,22.759111],[-86.939658,24.946101],[-86.549417,25.224566],[-85.895833,24.865556],[-84.595556,24.215556],[-84.188889,24.055],[-83.6625,23.903333],[-83.202778,23.833333],[-81.833333,23.833333],[-81.224167,23.94]]]],"type":"MultiPolygon"},"properties":{"name":"Cuba","source_feature_id":"marineregions:CU"},"type":"Feature"}
