{"geometry":{"coordinates":[[[[18.736667,-20.0],[19.177705,-20.388577],[19.496614,-20.763566],[19.643446,-20.977358],[19.770976,-21.194574],[19.977241,-21.650279],[20.108219,-22.086384],[20.182671,-22.525474],[20.203298,-22.978303],[20.168655,-23.444994],[20.31079,-23.775023],[20.408838,-24.066568],[20.485527,-24.383381],[20.533796,-24.69875],[20.555408,-25.069868],[20.539808,-25.439391],[20.485527,-25.81448],[20.393694,-26.179059],[20.260033,-26.54283],[20.029874,-27.02808],[19.841997,-27.345087],[19.632059,-27.627948],[19.375651,-27.905618],[19.091042,-28.151605],[18.760573,-28.376182],[18.434125,-28.550415],[18.090968,-28.685804],[17.730291,-28.781837],[17.367071,-28.834781],[16.996092,-28.845838],[16.748734,-28.829889],[16.502494,-28.795676],[16.265397,-28.744339],[16.030216,-28.67477],[15.49895,-28.456091],[15.277799,-28.336082],[15.06149,-28.196658],[14.747081,-28.201058],[14.434119,-28.175257],[14.128427,-28.120468],[13.823735,-28.035421],[13.536547,-27.92535],[13.253888,-27.78567],[12.99123,-27.62409],[12.738321,-27.434391],[12.467455,-27.185157],[12.220208,-26.902409],[11.995778,-26.58411],[11.812229,-26.253786],[11.657488,-25.883242],[11.551679,-25.532624],[11.482493,-25.167224],[11.45242,-24.789045],[11.470221,-24.129165],[11.566752,-23.143687],[11.614112,-22.833636],[11.693894,-22.507584],[11.824002,-22.138556],[11.991078,-21.792953],[12.369939,-21.187618],[12.580984,-20.902688],[12.817833,-20.641289],[13.087851,-20.39616],[13.298394,-20.237308],[13.593333,-20.073056],[14.85,-20.073611],[14.916667,-20.0],[15.166667,-19.858333],[15.416667,-19.747222],[15.666667,-19.641667],[16.068056,-19.558226],[16.283333,-19.541667],[16.633333,-19.553333],[17.0,-19.535],[17.1,-19.613333],[17.446667,-19.631667],[17.888333,-19.633333],[18.736667,-20.0]]]],"type":"MultiPolygon"},"properties":{"name":"Cape Verde","source_feature_id":"marineregions:CV"},"type":"Feature"}
