{"geometry":{"coordinates":[[[[15.241855,-68.870169],[13.267001,-69.395447],[12.923136,-69.458798],[12.150501,-69.545996],[11.879167,-69.079167],[11.758333,-68.954167],[11.741667,-68.829167],[11.666667,-68.6],[11.666667,-68.405223],[12.02562,-68.460938],[12.070244,-68.483484],[12.218404,-68.621254],[12.550337,-68.720192],[13.235774,-68.672995],[14.271188,-68.559025],[15.241855,-68.870169]]]],"type":"MultiPolygon"},"properties":{"name":"Cura\u00e7ao","source_feature_id":"marineregions:CW"},"type":"Feature"}
