{"geometry":{"coordinates":[[[[104.994216,-11.203393],[104.868688,-11.075554],[104.77107,-10.925861],[104.705123,-10.760148],[104.673358,-10.584865],[104.676949,-10.406822],[104.728257,-10.1777],[104.803604,-10.010445],[104.911328,-9.86164],[105.046987,-9.737362],[105.205023,-9.642683],[105.378977,-9.581464],[105.615453,-9.530982],[105.792553,-9.530698],[105.966386,-9.564351],[106.206834,-9.67536],[106.344812,-9.785667],[106.45876,-9.920334],[106.54436,-10.074295],[106.618496,-10.304279],[106.638761,-10.479493],[106.624278,-10.655267],[106.575538,-10.824908],[106.466868,-11.051814],[106.357649,-11.189249],[106.223599,-11.303317],[106.069731,-11.389729],[105.90182,-11.445232],[105.726186,-11.467734],[105.549448,-11.456388],[105.378265,-11.411621],[105.142788,-11.304387],[104.994216,-11.203393]]]],"type":"MultiPolygon"},"properties":{"name":"Christmas Island","source_feature_id":"marineregions:CX"},"type":"Feature"}
