{"geometry":{"coordinates":[[[[34.173,34.091],[33.406,33.731],[33.097,33.671],[32.61,33.718],[31.872,33.966],[31.52,34.259],[31.244,34.778],[31.223,35.254],[31.331,35.508],[31.481705,35.682735],[31.482,35.683],[31.742,35.681],[32.426,35.627],[33.723,35.777],[34.76,36.219],[35.162,36.016],[35.194,35.837],[35.118,35.309],[35.091,35.151],[34.974,34.993],[34.963,34.812],[34.712,34.371],[34.568,34.242],[34.481794,34.163543],[34.173,34.091]]]],"type":"MultiPolygon"},"properties":{"name":"Cyprus","source_feature_id":"marineregions:CY"},"type":"Feature"}
