{"geometry":{"coordinates":[[[[15.001797,50.871362],[14.974847,51.006109],[15.235358,50.997125],[15.298239,50.862379],[15.864175,50.673733],[15.980956,50.6917],[16.025871,50.601868],[16.34028,50.66475],[16.448078,50.592885],[16.19655,50.449156],[16.358246,50.377291],[16.555875,50.170679],[16.699605,50.098814],[17.022997,50.278476],[16.861301,50.413223],[17.202659,50.386274],[17.427237,50.251527],[17.759612,50.233561],[17.588933,50.170679],[17.912325,49.973051],[18.091987,50.044916],[18.496227,49.901186],[18.64894,49.71254],[18.810636,49.676608],[18.846568,49.523895],[18.550126,49.505929],[18.370464,49.317284],[18.190801,49.290334],[18.065038,49.029824],[17.921308,49.020841],[17.876392,48.922027],[17.508085,48.814229],[17.193676,48.877111],[16.942149,48.616601],[16.915199,48.706432],[16.681639,48.733381],[16.537909,48.814229],[16.412145,48.742364],[16.133669,48.742364],[15.891125,48.841179],[15.756378,48.850162],[15.370104,48.984908],[15.163493,48.948976],[15.019763,49.020841],[14.965864,48.760331],[14.813151,48.778297],[14.669421,48.580668],[14.444844,48.64355],[14.346029,48.553719],[14.121452,48.589651],[14.05857,48.670499],[13.842975,48.769314],[13.591448,48.966942],[13.402803,48.984908],[13.339921,49.092706],[13.169242,49.137621],[13.025512,49.3083],[12.782968,49.344233],[12.666188,49.434064],[12.522458,49.685591],[12.405677,49.766439],[12.549407,49.919152],[12.44161,49.991017],[12.199066,50.125764],[12.127201,50.314409],[12.261948,50.269493],[12.288897,50.179662],[12.513475,50.395257],[12.827884,50.458139],[12.998563,50.422206],[13.043478,50.503054],[13.196191,50.503054],[13.375853,50.646784],[13.456701,50.601868],[13.528566,50.700683],[13.887891,50.736615],[13.905857,50.790514],[14.399928,50.934244],[14.310097,50.979159],[14.301114,51.060007],[14.597557,50.988142],[14.624506,50.862379],[14.822134,50.862379],[15.001797,50.871362]]]],"type":"MultiPolygon"},"properties":{"name":"Czech Republic","source_feature_id":"marineregions:CZ"},"type":"Feature"}
