{"geometry":{"coordinates":[[[[10.207061,54.757681],[10.223904,54.757681],[10.543927,54.572404],[10.560771,54.572404],[10.577614,54.555561],[10.762891,54.555561],[10.762891,54.572404],[10.779734,54.572404],[11.150287,54.622934],[11.167131,54.622934],[11.183974,54.622934],[11.487154,54.471344],[11.503997,54.471344],[11.520841,54.471344],[11.722961,54.370284],[11.739804,54.370284],[11.756648,54.370284],[11.773491,54.370284],[11.790334,54.370284],[11.807178,54.370284],[12.009298,54.387127],[12.026141,54.387127],[12.042984,54.387127],[12.059828,54.403971],[12.076671,54.403971],[12.093514,54.403971],[12.261948,54.538717],[12.278791,54.538717],[12.278791,54.555561],[12.295634,54.555561],[12.295634,54.572404],[12.312478,54.572404],[12.312478,54.589247],[12.329321,54.589247],[12.329321,54.606091],[12.346164,54.606091],[12.615658,54.723994],[12.632501,54.740837],[12.649344,54.740837],[12.666188,54.740837],[12.683031,54.740837],[12.699874,54.757681],[12.716718,54.757681],[12.733561,54.757681],[12.750404,54.757681],[12.767248,54.774524],[12.784091,54.774524],[12.800934,54.774524],[12.800934,54.791367],[12.817778,54.791367],[13.019898,54.892427],[13.019898,54.909271],[13.036741,54.909271],[13.036741,54.926114],[13.053584,54.926114],[13.137801,55.010331],[13.154644,55.010331],[13.542041,55.010331],[13.659944,55.027174],[13.996811,54.959801],[14.165244,54.808211],[14.417894,54.808211],[14.636858,54.538717],[14.754761,54.505031],[14.350521,54.168164],[14.198931,53.915514],[14.434738,53.24178],[14.148401,52.955444],[14.148401,52.820697],[14.603171,52.618577],[14.535798,52.38277],[14.721074,52.23118],[14.586328,51.82694],[14.721074,51.52376],[14.923194,51.490074],[15.041098,51.287954],[14.822134,50.86687],[14.283148,51.035304],[14.384208,50.900557],[13.542041,50.71528],[12.986211,50.4121],[12.514598,50.395257],[12.211418,50.10892],[12.548284,49.923644],[12.396694,49.75521],[12.632501,49.468874],[12.952524,49.35097],[13.474668,48.94673],[13.845221,48.778297],[13.727318,48.508803],[13.440981,48.559333],[13.424138,48.374057],[12.868308,48.205623],[12.767248,48.070877],[13.070428,47.700323],[13.019898,47.464517],[12.733561,47.68348],[12.177731,47.68348],[12.211418,47.599263],[11.638744,47.599263],[11.571371,47.515047],[10.981854,47.397143],[10.897637,47.53189],[10.459711,47.548733],[10.274434,47.27924],[9.971254,47.53189],[9.567014,47.548733],[8.809064,47.700323],[8.741691,47.68348],[8.657474,47.78454],[8.606944,47.63295],[8.573257,47.599263],[8.556414,47.63295],[8.455354,47.599263],[8.472197,47.58242],[7.596344,47.58242],[7.512127,47.700323],[7.579501,48.155093],[7.832151,48.64355],[8.202704,48.963573],[7.646874,49.04779],[7.360537,49.182537],[6.737334,49.165693],[6.5689,49.35097],[6.585744,49.367814],[6.36678,49.468874],[6.51837,49.80574],[6.232034,49.889957],[6.130974,50.125764],[6.400467,50.327884],[6.349937,50.496317],[6.046757,50.732124],[6.01307,50.748967],[5.91201,50.984774],[6.16466,51.153207],[6.232034,51.47323],[5.945697,51.810097],[6.737334,51.894314],[7.074201,52.349084],[6.703647,52.48383],[6.737334,52.652264],[7.057357,52.63542],[7.208947,53.005974],[7.192104,53.325997],[6.41731,53.612334],[5.996227,54.185007],[5.726734,54.302911],[6.46784,54.505031],[6.737334,54.757681],[6.87208,55.296667],[7.141574,55.246137],[8.303764,55.060861],[8.556414,54.926114],[9.465954,54.825054],[9.954411,54.825054],[10.207061,54.740837],[10.207061,54.757681]]]],"type":"MultiPolygon"},"properties":{"name":"Germany","source_feature_id":"marineregions:DE"},"type":"Feature"}
