{"geometry":{"coordinates":[[[[12.711573,43.134031],[12.642828,42.962437],[12.609783,42.912005],[12.616156,42.889994],[12.575784,42.858752],[12.549648,42.859676],[12.544005,42.828132],[12.503493,42.799991],[12.477196,42.797102],[12.443497,42.825928],[12.421353,42.815615],[12.411547,42.76352],[12.384853,42.750774],[12.384639,42.718105],[12.362366,42.695466],[12.490768,42.548006],[12.528019,42.462561],[12.46873,42.404268],[12.37112,42.333208],[12.305889,42.317393],[12.242546,42.246755],[12.126846,42.168237],[12.075176,42.150679],[12.080498,42.141373],[11.88961,42.007624],[11.816654,41.948852],[11.793651,41.896581],[11.758461,41.890093],[11.722412,41.828718],[11.485863,41.771745],[11.363468,41.803629],[11.272488,41.809406],[10.97929,41.785449],[10.972595,41.817101],[10.962811,41.815527],[10.942039,41.942656],[10.927963,41.940733],[10.914917,41.966617],[10.933285,41.976058],[10.926762,42.065047],[10.955086,42.076411],[10.981178,42.139169],[10.974998,42.197221],[10.950279,42.196172],[10.951481,42.232193],[10.990105,42.276082],[11.002464,42.335005],[10.983582,42.418246],[11.040916,42.50322],[11.074047,42.605186],[11.096706,42.634396],[11.057396,42.693342],[11.07954,42.758759],[10.987873,42.792701],[10.970535,42.86824],[10.993709,42.963362],[11.461014,43.258339],[11.48396,43.261274],[11.585455,43.365317],[11.66998,43.397713],[11.755245,43.455639],[11.829018,43.849625],[11.860172,44.142654],[12.264707,43.776381],[12.432002,43.71884],[12.517184,43.648669],[12.552319,43.530413],[12.567813,43.389061],[12.619412,43.29843],[12.686389,43.272976],[12.681973,43.191378],[12.711573,43.134031]]]],"type":"MultiPolygon"},"properties":{"name":"Djibouti","source_feature_id":"marineregions:DJ"},"type":"Feature"}
