{"geometry":{"coordinates":[[[[6.61943,55.347197],[6.51837,56.172521],[6.5689,56.812567],[6.703647,57.098904],[6.939454,57.183121],[7.983741,57.503144],[8.893281,57.688421],[9.381737,57.991601],[10.021784,58.261094],[10.543927,58.126347],[11.049227,57.823167],[11.402937,57.452614],[12.144044,56.509387],[12.093514,56.307267],[12.649344,56.054617],[12.901994,55.650377],[12.615658,55.431414],[12.683031,55.246137],[13.137801,55.010331],[13.053584,54.926114],[13.036741,54.909271],[13.019898,54.892427],[12.817778,54.791367],[12.800934,54.774524],[12.767248,54.774524],[12.750404,54.757681],[12.716718,54.757681],[12.699874,54.757681],[12.666188,54.740837],[12.649344,54.740837],[12.615658,54.723994],[12.346164,54.606091],[12.329321,54.589247],[12.312478,54.589247],[12.295634,54.572404],[12.278791,54.555561],[12.261948,54.538717],[12.093514,54.403971],[12.059828,54.403971],[12.042984,54.387127],[12.009298,54.387127],[11.807178,54.370284],[11.773491,54.370284],[11.756648,54.370284],[11.722961,54.370284],[11.520841,54.471344],[11.487154,54.471344],[11.183974,54.622934],[11.150287,54.622934],[10.779734,54.572404],[10.762891,54.555561],[10.577614,54.555561],[10.543927,54.572404],[10.223904,54.757681],[10.207061,54.740837],[9.954411,54.825054],[9.465954,54.825054],[8.556414,54.926114],[8.303764,55.060861],[7.141574,55.246137],[6.61943,55.347197]]],[[[14.417894,54.808211],[14.165244,54.808211],[13.996811,54.959801],[14.451581,55.313511],[15.041098,55.684064],[16.506468,55.347197],[16.018011,55.246137],[15.916951,54.858741],[15.714831,54.690307],[15.226374,54.572404],[14.687388,54.606091],[14.636858,54.538717],[14.417894,54.808211]]]],"type":"MultiPolygon"},"properties":{"name":"Denmark","source_feature_id":"marineregions:DK"},"type":"Feature"}
