{"geometry":{"coordinates":[[[[-62.209647,14.831745],[-62.354446,15.211062],[-62.350629,15.271479],[-62.303838,15.311325],[-61.747664,15.596928],[-61.509398,15.742535],[-61.452385,15.765737],[-61.1206,15.693707],[-60.905498,15.664301],[-60.400198,15.815891],[-60.394645,15.804786],[-60.349932,15.656336],[-60.320597,15.44022],[-60.327558,15.379429],[-60.37495,15.340992],[-60.905498,15.159001],[-62.151904,14.721074],[-62.209647,14.831745]]]],"type":"MultiPolygon"},"properties":{"name":"Dominica","source_feature_id":"marineregions:DM"},"type":"Feature"}
