{"geometry":{"coordinates":[[[[-66.086702,22.138757],[-65.821851,21.818257],[-65.842065,21.80987],[-66.824778,21.854251],[-67.296861,20.802917],[-67.53075,19.993778],[-67.63825,19.3155],[-67.880729,18.578892],[-68.127399,18.369727],[-68.184423,18.286592],[-68.236389,18.146274],[-68.263231,17.994212],[-68.3042,17.335082],[-68.496517,15.21518],[-68.862222,15.241111],[-69.577222,15.413333],[-70.41768,15.177474],[-71.675,15.011111],[-73.474748,15.028711],[-73.305022,15.64705],[-73.016341,16.535229],[-72.565202,17.268838],[-72.306513,17.641796],[-72.122809,17.848609],[-71.759143,18.031471],[-71.735118,18.081629],[-71.746996,18.145895],[-71.782576,18.17261],[-71.701474,18.344421],[-71.793095,18.38356],[-71.837059,18.428535],[-71.911625,18.469219],[-71.915788,18.483639],[-71.87974,18.490505],[-71.884084,18.506384],[-71.99948,18.625259],[-71.947964,18.647404],[-71.933833,18.632641],[-71.896155,18.646717],[-71.821705,18.631439],[-71.786372,18.705254],[-71.736154,18.721561],[-71.717297,18.803272],[-71.727274,18.875713],[-71.782584,18.954849],[-71.836312,18.969612],[-71.882786,18.94146],[-71.886235,18.957939],[-71.832966,19.005747],[-71.827611,18.994246],[-71.802614,19.004494],[-71.788489,18.993645],[-71.770699,19.031496],[-71.702551,19.071407],[-71.711632,19.08205],[-71.696557,19.088402],[-71.700916,19.106426],[-71.65446,19.115782],[-71.645738,19.134321],[-71.656186,19.143934],[-71.640196,19.145651],[-71.646556,19.167967],[-71.634836,19.169168],[-71.645202,19.180069],[-71.627024,19.18273],[-71.639006,19.197911],[-71.622025,19.206247],[-71.638054,19.228552],[-71.696911,19.241186],[-71.723903,19.27783],[-71.731409,19.262351],[-71.755087,19.27989],[-71.756971,19.300881],[-71.785496,19.331042],[-71.713984,19.371629],[-71.693249,19.360995],[-71.698518,19.392843],[-71.677958,19.444017],[-71.694045,19.477247],[-71.687679,19.511547],[-71.743602,19.584846],[-71.745654,19.633942],[-71.732419,19.646363],[-71.760849,19.706097],[-71.990918,19.850058],[-72.059521,19.931388],[-72.124296,20.154527],[-72.189065,20.28795],[-72.203659,20.593662],[-71.949724,20.647815],[-71.811311,20.697921],[-71.67934,20.753082],[-71.450915,20.891534],[-71.294255,20.927389],[-71.169087,20.988101],[-71.011396,21.13332],[-70.915587,21.174306],[-70.83334,21.234581],[-70.758532,21.327386],[-70.57167,21.641518],[-69.692341,22.805699],[-68.82692,24.08931],[-68.443136,23.950884],[-68.131497,23.806379],[-67.528516,23.458726],[-67.242034,23.265087],[-67.046041,23.106602],[-66.854694,22.926671],[-66.086702,22.138757]]]],"type":"MultiPolygon"},"properties":{"name":"Dominican Republic","source_feature_id":"marineregions:DO"},"type":"Feature"}
