{"geometry":{"coordinates":[[[[-8.0,29.114],[-7.676,29.388],[-7.468,29.391],[-7.079,29.653],[-6.839,29.575],[-6.538,29.585],[-6.471,29.699],[-6.27,29.734],[-6.052,29.692],[-5.831,29.821],[-5.413,29.859],[-5.13,30.0],[-5.002,30.166],[-4.822,30.641],[-4.246,30.734],[-3.892,30.896],[-3.576,30.915],[-3.557,31.024],[-3.696,31.137],[-3.781,31.119],[-3.807,31.222],[-3.78,31.35],[-3.647,31.387],[-3.656,31.614],[-2.962,31.795],[-2.908,31.851],[-2.899,32.01],[-2.829,32.041],[-2.238,32.102],[-1.266,32.065],[-1.154,32.111],[-1.183,32.166],[-1.3,32.161],[-1.241,32.204],[-1.246,32.328],[-0.998,32.513],[-1.388,32.749],[-1.544,32.957],[-1.485,32.982],[-1.475,33.078],[-1.669,33.282],[-1.596,33.607],[-1.739,33.703],[-1.673,33.773],[-1.647,34.11],[-1.781,34.389],[-1.688,34.493],[-1.855,34.619],[-1.741,34.746],[-1.89,34.808],[-1.974,34.936],[-2.181,35.016],[-2.203,35.094],[-2.206,35.114],[-2.058,35.643],[-2.122,35.889],[-2.094,35.965],[-0.995,36.586],[-0.887,36.681],[-0.886061,36.681322],[-0.817705,36.704731],[-0.814,36.706],[-0.77,36.713],[-0.447,36.784],[0.133,37.077],[0.507,37.263],[1.034,37.402],[2.267,37.508],[2.725,37.663],[3.252,37.691],[3.676,37.793],[4.892,37.791],[5.402,37.659],[5.897,37.876],[6.261,37.967],[6.838,37.941],[7.189,37.992],[7.761,37.921],[8.099,37.81],[8.350379,37.824963],[8.351,37.825],[8.421,37.801],[8.525,37.399],[8.639,36.953],[8.641,36.945],[8.671,36.818],[8.441,36.763],[8.487,36.696],[8.445,36.619],[8.154,36.497],[8.409,36.412],[8.307,36.174],[8.344,36.1],[8.265,35.939],[8.261,35.754],[8.358,35.665],[8.381,35.491],[8.317,35.413],[8.327,35.29],[8.48,35.244],[8.341,35.069],[8.317,34.95],[8.257,34.928],[8.325,34.733],[8.273,34.738],[8.216,34.576],[7.858,34.406],[7.806,34.205],[7.644,34.193],[7.514,34.062],[7.557,34.015],[7.524,33.799],[7.746,33.421],[7.742,33.254],[8.118,33.095],[8.319,32.822],[8.363,32.518],[9.094,32.093],[9.551,30.228],[9.4,30.174],[9.414,30.042],[9.785,29.427],[9.902,28.784],[9.839,28.334],[9.771,28.264],[9.965,27.867],[9.894,27.607],[9.823,27.573],[9.88,27.561],[9.783,27.281],[9.863,26.935],[9.942,26.876],[9.949,26.795],[9.866,26.521],[9.513,26.384],[9.479,26.252],[9.364,26.235],[10.027,25.323],[10.032,24.957],[10.218,24.645],[10.364,24.537],[10.706,24.575],[10.767,24.513],[10.832,24.572],[10.947,24.534],[11.354,24.245],[12.001,23.501],[7.535,20.89],[5.818,19.444],[4.239,19.129],[3.399,18.955],[3.301,19.0],[3.114,19.151],[3.206,19.302],[3.204,19.428],[3.266,19.448],[3.256,19.844],[2.774,19.978],[2.674,20.084],[2.572,20.034],[2.474,20.1],[2.39,20.016],[2.39,20.148],[2.211,20.314],[2.13,20.238],[1.914,20.227],[1.882,20.3],[1.677,20.403],[1.676,20.489],[1.559,20.599],[1.48,20.602],[1.311,20.739],[1.171,20.727],[1.166,21.109],[-0.997,22.561],[-4.814,25.0],[-8.667,27.365],[-8.66601,27.667],[-8.667,27.769],[-8.667,28.729],[-8.0,29.114]]]],"type":"MultiPolygon"},"properties":{"name":"Algeria","source_feature_id":"marineregions:DZ"},"type":"Feature"}
