{"geometry":{"coordinates":[[[[-90.693496,-2.218829],[-90.864175,-2.155947],[-91.169601,-1.922386],[-91.555875,-1.90442],[-91.942149,-1.733741],[-92.085879,-1.598994],[-92.29249,-1.329501],[-92.391304,-0.898311],[-92.508085,-0.655767],[-92.544017,-0.485088],[-92.544017,-0.197628],[-92.481135,0.179662],[-92.346389,0.503054],[-92.238591,0.637801],[-91.969098,0.871362],[-91.717571,0.979159],[-91.412145,1.033058],[-91.052821,0.979159],[-90.67553,0.736615],[-90.352138,0.655767],[-90.118577,0.530004],[-89.624506,0.188645],[-89.390945,0.224578],[-89.130435,0.206612],[-88.842975,0.098814],[-88.564499,-0.152713],[-88.411786,-0.422206],[-88.357887,-0.6917],[-88.420769,-1.042041],[-88.627381,-1.392382],[-88.878908,-1.634926],[-89.040604,-1.733741],[-89.408911,-1.850521],[-89.669421,-1.850521],[-89.831117,-2.0212],[-90.046712,-2.16493],[-90.379087,-2.245778],[-90.693496,-2.218829]]],[[[-75.269493,-0.125764],[-75.413223,-0.170679],[-75.52102,-0.11678],[-75.485088,-0.296443],[-75.242544,-0.52102],[-75.278476,-0.718649],[-75.197628,-0.970176],[-75.386274,-0.934244],[-75.556953,-1.545095],[-76.042041,-2.128997],[-76.634926,-2.596119],[-77.847646,-3.000359],[-78.180022,-3.350701],[-78.144089,-3.476464],[-78.341718,-3.386633],[-78.404599,-3.772907],[-78.566295,-3.988502],[-78.575278,-4.195113],[-78.647143,-4.320877],[-78.66511,-4.581387],[-78.862738,-4.671218],[-78.89867,-4.895796],[-79.06935,-4.967661],[-79.266978,-4.967661],[-79.419691,-4.805965],[-79.482573,-4.536471],[-79.662235,-4.437657],[-79.814948,-4.491556],[-80.093424,-4.293927],[-80.362918,-4.482573],[-80.452749,-4.437657],[-80.309019,-4.204096],[-80.443766,-4.204096],[-80.461732,-4.123248],[-80.434783,-3.988502],[-80.28207,-4.015451],[-80.156306,-3.871721],[-80.219188,-3.431549],[-80.300036,-3.395616],[-81.153432,-3.395616],[-81.23428,-3.395616],[-81.20733,-3.171038],[-81.593604,-2.883579],[-81.782249,-2.641035],[-81.854114,-2.470356],[-81.890047,-2.209845],[-81.87208,-2.030183],[-81.728351,-1.688825],[-81.719368,-1.464247],[-81.800216,-1.149838],[-81.791232,-0.961193],[-81.719368,-0.700683],[-81.512756,-0.368308],[-81.369026,-0.242544],[-81.23428,0.125764],[-80.94682,0.485088],[-80.982752,0.898311],[-80.910888,1.158821],[-80.68631,1.455264],[-80.318002,1.455264],[-79.249012,1.455264],[-78.853755,1.455264],[-78.629177,1.248653],[-78.431549,1.176788],[-77.919511,0.80848],[-77.694934,0.844413],[-77.694934,0.745598],[-77.479339,0.655767],[-77.524254,0.377291],[-77.120014,0.377291],[-77.075099,0.28746],[-76.581028,0.215595],[-76.410349,0.242544],[-76.410349,0.377291],[-76.275602,0.440172],[-76.051024,0.332375],[-75.880345,0.11678],[-75.763564,0.035932],[-75.583902,0.017966],[-75.278476,-0.125764],[-75.269493,-0.125764]]]],"type":"MultiPolygon"},"properties":{"name":"Galapagos","source_feature_id":"marineregions:EC"},"type":"Feature"}
