{"geometry":{"coordinates":[[[[20.391664,58.021919],[20.373697,58.201581],[20.436579,58.480057],[20.472512,58.7765],[20.481495,58.848365],[21.182178,59.189723],[21.775063,59.315487],[22.161337,59.378369],[22.754222,59.414301],[23.158462,59.531082],[23.490837,59.522098],[24.955084,59.87244],[25.170679,59.890406],[25.970176,59.863457],[26.131872,59.971254],[26.338484,59.998203],[26.814589,59.665828],[27.057133,59.620913],[27.389508,59.656845],[28.045275,59.477183],[28.189005,59.405318],[28.135106,59.288538],[27.919511,59.252605],[27.748832,58.983112],[27.353575,58.785483],[27.551204,58.363277],[27.488322,58.22853],[27.632052,58.102767],[27.623069,58.003953],[27.775782,57.833273],[27.542221,57.82429],[27.524254,57.70751],[27.371542,57.662594],[27.353575,57.518865],[26.922386,57.635645],[26.787639,57.572763],[26.769673,57.56378],[26.742724,57.581746],[26.509163,57.518865],[26.275602,57.590729],[26.194754,57.70751],[26.024075,57.770392],[26.051024,57.85124],[25.826446,57.860223],[25.332375,58.066834],[25.26051,57.994969],[25.188645,58.075817],[24.694574,57.950054],[24.568811,57.959037],[24.461013,57.878189],[24.209486,57.896155],[23.598635,57.896155],[23.652533,57.779375],[23.580668,57.671577],[23.409989,57.590729],[23.176428,57.590729],[22.996766,57.698527],[22.709307,57.941071],[22.14337,57.779375],[21.846928,57.761409],[20.400647,58.021919],[20.391664,58.021919]]]],"type":"MultiPolygon"},"properties":{"name":"Estonia","source_feature_id":"marineregions:EE"},"type":"Feature"}
