{"geometry":{"coordinates":[[[[37.007,23.096],[36.189,23.117],[35.94,23.333],[35.613,23.154],[35.212,22.785],[34.948,22.858],[34.688,22.298],[34.149,22.204],[34.07,21.964],[34.001,21.771],[33.554,21.725],[33.164,22.0],[31.408,22.0],[31.523,22.176],[31.465,22.231],[31.346,22.167],[31.29,22.0],[24.999,21.999],[24.996,29.269],[24.866,29.514],[24.9,29.624],[24.697,30.156],[24.943,30.512],[25.011,30.78],[24.874,31.14],[24.857,31.402],[25.081,31.552],[25.139,31.67],[25.142,31.669],[25.144,31.668],[25.145,31.665],[25.139,31.659],[25.149,31.654],[25.188,31.649],[25.267,31.659],[25.268,31.659],[25.286,31.658],[25.336,31.664],[25.347,31.675],[25.87,32.522],[27.47,32.259],[27.892,32.094],[29.094,31.818],[29.97,32.283],[31.052,32.505],[31.62,32.413],[32.154,32.414],[32.517,32.271],[32.852,32.037],[33.600878,32.065918],[33.601,32.066],[33.607,32.05],[33.661,31.88],[34.166,31.387],[34.214,31.328],[34.217,31.324],[34.267,31.219],[34.502,30.661],[34.544,30.411],[34.615,30.371],[34.84,29.777],[34.902,29.49],[34.913,29.464],[34.919,29.45],[34.885,29.375],[34.456,27.921],[34.756,27.148],[34.913,26.997],[34.926,26.989],[34.926452,26.988256],[35.572772,25.846497],[35.573,25.846],[35.572,25.838],[35.784,25.298],[35.991,24.967],[36.209,24.752],[36.42,24.316],[37.07,23.709],[37.167,23.475],[37.171,23.463],[37.170877,23.462399],[37.007,23.096]]]],"type":"MultiPolygon"},"properties":{"name":"Egypt","source_feature_id":"marineregions:EG"},"type":"Feature"}
