{"geometry":{"coordinates":[[[[39.54,14.5],[39.539,14.501],[39.54,14.501],[39.54,14.5]]],[[[39.373,14.539],[39.252,14.409],[39.261,14.517],[39.154,14.653],[39.022,14.633],[38.979,14.546],[38.797,14.468],[38.454,14.414],[38.256,14.681],[38.042,14.718],[37.912,14.894],[37.524,14.182],[37.313,14.448],[37.136,14.41],[37.099,14.278],[37.018,14.252],[36.851,14.323],[36.63,14.316],[36.559,14.256],[36.433,15.167],[36.585,15.334],[36.704,15.739],[36.959,16.287],[36.967,16.433],[36.88,16.531],[36.9,16.675],[37.031,16.8],[37.002,17.079],[37.404,17.055],[37.509,17.202],[37.516,17.339],[37.763,17.383],[37.793,17.5],[37.954,17.467],[38.0,17.566],[38.098,17.517],[38.166,17.595],[38.242,17.55],[38.282,17.639],[38.348,17.652],[38.453,17.9],[38.595,18.026],[38.836,18.104],[39.092,18.04],[39.443,18.044],[39.643,18.046],[40.036,17.008],[40.484,16.904],[40.831,16.613],[40.927,16.447],[41.261,15.996],[41.333,15.522],[41.600494,15.423253],[41.601,15.423],[41.625,15.253],[42.526,14.144],[42.477,14.061],[42.637,13.597],[42.724,13.458],[42.88,13.4],[43.253,12.862],[43.14,12.715],[43.124,12.709],[43.117,12.707],[42.98,12.65],[42.802,12.51],[42.816,12.421],[42.695,12.362],[42.463,12.528],[42.404,12.469],[42.218,12.765],[42.056,12.801],[41.644,13.386],[41.249,13.61],[40.873,14.135],[40.26,14.411],[40.213,14.387],[40.133,14.547],[39.949,14.413],[39.672,14.6],[39.533,14.585],[39.539,14.501],[39.526,14.486],[39.496,14.484],[39.373,14.539]]]],"type":"MultiPolygon"},"properties":{"name":"Eritrea","source_feature_id":"marineregions:ER"},"type":"Feature"}
