{"geometry":{"coordinates":[[[[-15.261386,26.898812],[-15.796257,26.87504],[-16.435071,27.085813],[-16.972489,27.115815],[-17.58186,26.838725],[-17.976467,26.758028],[-18.373591,26.824394],[-18.837133,27.094869],[-19.081096,27.414686],[-19.155979,27.808423],[-19.000316,28.322277],[-18.999959,28.859342],[-18.925288,29.117633],[-18.579011,29.525402],[-18.34368,29.656565],[-18.083053,29.724438],[-17.546249,29.708153],[-16.817687,29.371492],[-15.608594,29.269192],[-15.119857,29.046098],[-14.887224,29.157285],[-14.58606,29.604128],[-14.150558,29.919229],[-13.649576,30.112356],[-13.246855,30.103463],[-12.872401,29.956449],[-12.575653,29.684568],[-12.421788,29.314971],[-12.445353,28.912519],[-12.447224,28.903162],[-12.464068,28.903162],[-13.143457,28.463988],[-13.659944,27.842032],[-14.266119,27.310277],[-15.261386,26.898812]]],[[[-0.993757,36.583723],[-1.581953,36.276275],[-2.12226,35.893146],[-2.500911,35.751049],[-3.172665,35.681686],[-3.439645,35.716786],[-3.932086,35.933694],[-4.867124,35.811149],[-5.271964,35.808929],[-5.373024,35.909989],[-5.491493,35.953497],[-6.154679,35.943843],[-7.074201,35.808929],[-7.343694,36.196326],[-7.297199,36.740268],[-7.469273,37.544899],[-7.362391,37.792346],[-7.05523,38.06154],[-7.027283,38.176335],[-7.310007,38.470176],[-7.293164,38.470176],[-7.293164,38.487019],[-7.310007,38.487019],[-7.031335,38.936088],[-7.043713,39.064786],[-7.438149,39.595923],[-7.071875,39.713017],[-6.970796,39.798224],[-6.925726,39.922565],[-6.939067,40.187759],[-6.826223,40.428757],[-6.845098,40.959125],[-6.80049,41.083673],[-6.362423,41.386598],[-6.276793,41.488476],[-6.294623,41.61163],[-6.695736,41.939505],[-6.961839,41.96425],[-7.346105,41.857161],[-8.00745,41.855072],[-8.134597,41.882964],[-8.162,42.012893],[-8.246238,42.096322],[-8.508315,42.057976],[-9.003915,41.860907],[-10.072314,41.805156],[-10.142835,42.200975],[-10.441703,42.944609],[-10.421924,43.211542],[-10.330401,43.463423],[-10.176993,43.683221],[-9.854834,43.92284],[-8.499178,44.509386],[-7.976896,44.634558],[-7.575098,44.653793],[-6.650068,44.492346],[-5.577383,44.516521],[-4.517387,44.340826],[-3.580224,44.411262],[-2.509657,44.314813],[-1.865984,43.617459],[-1.728554,43.382703],[-1.30783,43.063624],[-0.532249,42.823659],[0.134421,42.705261],[0.54064,42.715336],[0.792311,42.815239],[1.190317,42.734569],[1.431683,42.613636],[1.431683,42.596793],[1.434085,42.584588],[1.44434,42.577184],[1.447471,42.571855],[1.44484,42.566299],[1.434506,42.558966],[1.432956,42.553089],[1.460132,42.527389],[1.464074,42.522566],[1.463915,42.516316],[1.453011,42.501122],[1.441327,42.496327],[1.422383,42.494794],[1.417303,42.491144],[1.41634,42.485184],[1.443766,42.459683],[1.447514,42.454681],[1.449508,42.435823],[1.453205,42.430782],[1.459102,42.428591],[1.541704,42.429171],[1.546908,42.432662],[1.551814,42.457141],[1.556806,42.460852],[1.562603,42.458968],[1.569911,42.448606],[1.575585,42.446301],[1.588262,42.459863],[1.594225,42.461891],[1.638744,42.462094],[1.651019,42.465093],[1.660971,42.472813],[1.669171,42.489946],[1.67371,42.494246],[1.71802,42.495733],[1.734863,42.495733],[1.996649,42.416491],[2.67809,42.344143],[2.778772,42.418152],[3.402354,42.52942],[3.452884,42.563106],[3.68869,42.664166],[3.772907,42.697853],[3.823437,42.73154],[3.873967,42.748383],[3.94134,42.748383],[4.14346,42.714696],[4.177147,42.697853],[4.210834,42.68101],[4.227677,42.664166],[4.24452,42.647323],[4.261364,42.647323],[4.278207,42.63048],[4.362424,42.57995],[4.443769,42.473189],[4.492696,42.209573],[4.419825,41.810608],[4.31566,41.561562],[4.037682,41.267752],[3.45886,40.918941],[3.982905,40.970309],[4.386326,40.928714],[4.775201,40.813233],[5.118013,40.599445],[5.368441,40.281997],[5.458744,40.027953],[5.454228,39.758661],[5.27993,39.395529],[4.977563,39.127545],[4.215201,38.856996],[3.628798,38.521807],[2.707553,38.349617],[2.420731,38.064228],[2.071521,37.859897],[1.540787,37.768694],[0.872593,37.864877],[0.606216,37.837349],[0.432205,37.636825],[0.226449,37.137681],[0.218963,37.122709],[0.134747,37.072179],[-0.368201,36.824268],[-0.774793,36.718469],[-0.842167,36.701626],[-0.85901,36.701626],[-0.871643,36.688993],[-0.875853,36.684783],[-0.993757,36.583723]],[[2.67809,42.3273],[2.694934,42.344143],[2.67809,42.344143],[2.67809,42.3273]]],[[[-7.310007,38.470176],[-7.326851,38.470176],[-7.326851,38.487019],[-7.310007,38.487019],[-7.310007,38.470176]]],[[[1.97067,42.445203],[1.953827,42.462046],[1.953827,42.47889],[1.97067,42.47889],[1.97067,42.495733],[1.987513,42.495733],[1.987513,42.47889],[1.987513,42.462046],[2.004357,42.462046],[2.004357,42.445203],[1.987513,42.445203],[1.97067,42.445203]]]],"type":"MultiPolygon"},"properties":{"name":"Canary Islands","source_feature_id":"marineregions:ES"},"type":"Feature"}
