{"geometry":{"coordinates":[[[[19.525,62.7],[20.4,63.333],[20.697,63.485],[21.5,63.667],[24.137,65.515],[24.19,65.654],[24.117,65.928],[23.937,66.079],[23.924,66.158],[23.728,66.194],[23.651,66.301],[23.688,66.384],[23.649,66.453],[23.861,66.559],[23.879,66.762],[23.996,66.816],[23.552,67.17],[23.597,67.209],[23.564,67.262],[23.776,67.335],[23.718,67.386],[23.763,67.43],[23.394,67.484],[23.559,67.619],[23.492,67.665],[23.479,67.842],[23.666,67.941],[23.387,68.049],[23.305,68.149],[23.154,68.137],[23.155,68.231],[23.057,68.307],[22.64,68.434],[22.043,68.48],[21.892,68.583],[21.429,68.692],[21.39,68.765],[20.882,68.892],[20.844,68.936],[20.908,68.971],[20.785,69.024],[20.553,69.06],[20.72,69.12],[21.063,69.037],[21.109,69.104],[21.011,69.226],[21.277,69.312],[21.608,69.28],[22.171,68.958],[22.341,68.827],[22.38,68.718],[23.042,68.691],[23.17,68.629],[23.674,68.706],[23.776,68.819],[23.872,68.837],[24.625,68.676],[24.899,68.556],[24.92,68.607],[25.116,68.638],[25.156,68.798],[25.4,68.891],[25.628,68.893],[25.775,69.013],[25.693,69.203],[25.847,69.393],[25.795,69.422],[25.864,69.475],[25.842,69.548],[25.976,69.61],[25.901,69.672],[26.382,69.853],[26.467,69.94],[26.856,69.959],[27.04,69.91],[27.575,70.067],[27.952,70.092],[27.99,70.009],[28.377,69.832],[29.124,69.693],[29.333,69.486],[28.83,69.226],[28.802,69.113],[28.928,69.052],[28.416,68.916],[28.799,68.868],[28.713,68.742],[28.435,68.54],[28.64,68.197],[29.328,68.074],[29.661,67.803],[30.019,67.673],[29.932,67.523],[29.526,67.31],[29.033,66.936],[29.107,66.79],[29.413,66.594],[29.695,66.281],[29.922,66.128],[30.094,65.855],[30.139,65.669],[29.716,65.638],[29.864,65.561],[29.736,65.482],[29.743,65.349],[29.595,65.261],[29.881,65.208],[29.824,65.145],[29.893,65.108],[29.624,65.062],[29.611,64.927],[29.739,64.79],[30.091,64.769],[30.042,64.743],[30.133,64.642],[29.991,64.587],[30.078,64.453],[30.045,64.395],[30.49,64.255],[30.466,64.204],[30.553,64.106],[30.26,63.822],[29.968,63.759],[30.487,63.464],[30.78,63.408],[31.24,63.219],[31.279,63.103],[31.461,63.032],[31.584,62.906],[31.224,62.496],[30.953,62.31],[30.656,62.208],[29.742,61.575],[29.496,61.493],[29.243,61.27],[28.82,61.121],[28.656,60.949],[28.53,60.957],[27.755,60.541],[27.748,60.452],[27.673,60.43],[27.819,60.388],[27.778,60.276],[26.543,60.107],[26.339,59.995],[26.133,59.968],[25.968,59.862],[24.953,59.868],[23.494,59.527],[23.159,59.528],[22.751,59.415],[22.164,59.38],[21.186,59.191],[20.691,58.948],[20.411,58.974],[20.153,59.445],[19.083,60.192],[19.235,60.678],[19.32,61.27],[19.482,61.363],[19.496,61.657],[19.39611,61.802781],[19.396,61.803],[19.525,62.7]]]],"type":"MultiPolygon"},"properties":{"name":"Finland","source_feature_id":"marineregions:FI"},"type":"Feature"}
