{"geometry":{"coordinates":[[[[174.887,-22.575],[174.467,-22.598],[174.101,-22.48],[173.814,-22.239],[173.652,-21.912],[173.632,-21.55],[173.801,-21.156],[174.081,-20.909],[174.415,-20.782],[174.776,-20.779],[175.143,-20.913],[175.417,-21.157],[175.571,-21.481],[175.579,-21.836],[175.479,-22.125],[175.233,-22.407],[174.887,-22.575]]],[[[-179.312,-19.746],[-179.676,-19.891],[-180.0,-19.894],[-179.985,-14.809],[-179.55,-14.9],[-179.167,-15.16],[-179.017,-15.387],[-178.942,-15.648],[-178.986,-16.245],[-178.632,-16.319],[-178.235,-16.6],[-177.999,-17.025],[-177.708,-17.169],[-177.507,-17.371],[-177.351,-17.683],[-177.307,-17.946],[-177.415,-18.375],[-177.715,-18.696],[-177.592,-19.053],[-177.648,-19.494],[-177.851,-19.795],[-178.092,-19.969],[-177.835,-20.3],[-177.75,-20.646],[-177.813,-20.996],[-178.015,-21.295],[-178.24,-21.459],[-178.601,-21.568],[-178.886,-21.558],[-179.174,-21.465],[-179.409,-21.3],[-179.58,-21.076],[-179.681,-20.723],[-179.657,-20.434],[-179.496,-20.111],[-179.19,-19.857],[-179.312,-19.746]]],[[[177.525,-19.926],[177.233,-19.706],[177.029,-19.312],[177.025,-18.956],[176.629,-18.694],[176.355,-18.217],[176.32,-17.857],[176.362,-17.603],[176.255,-17.308],[176.267,-16.962],[176.455,-16.548],[176.768,-16.278],[177.261,-16.145],[177.72,-16.248],[177.89,-16.016],[178.097,-15.85],[178.976,-15.537],[179.157,-15.432],[179.313,-15.15],[179.51,-14.971],[179.75,-14.854],[180.0,-14.81],[180.0,-19.894],[179.587,-19.737],[179.317,-19.458],[179.107,-19.703],[178.792,-19.873],[178.372,-20.003],[177.948,-20.052],[177.525,-19.926]]],[[[177.358,-13.379],[176.96,-13.412],[176.563,-13.293],[176.297,-13.068],[176.118,-12.729],[176.095,-12.369],[176.217,-12.028],[176.464,-11.762],[176.797,-11.611],[177.217,-11.584],[177.569,-11.695],[177.848,-11.933],[178.01,-12.261],[178.032,-12.636],[177.914,-12.965],[177.678,-13.226],[177.358,-13.379]]]],"type":"MultiPolygon"},"properties":{"name":"Fiji","source_feature_id":"marineregions:FJ"},"type":"Feature"}
