{"geometry":{"coordinates":[[[[11.641013,148.055567],[11.498625,147.874853],[11.634167,147.742389],[11.614194,147.532389],[11.222028,144.946028],[10.953972,143.472611],[10.965222,143.044361],[12.916833,141.347194],[13.097681,141.218722],[13.210611,140.956497],[13.313792,140.641144],[13.389142,140.303039],[13.429756,139.981828],[13.440692,139.716068],[13.430008,139.433667],[13.393467,139.136806],[13.334597,138.856936],[13.176306,138.359461],[13.003344,137.977411],[12.949411,137.528519],[12.827736,137.062878],[12.680553,136.698117],[12.515861,136.391328],[12.303981,136.081392],[12.060036,135.796864],[11.780531,135.536117],[11.486111,135.315556],[10.298056,135.783333],[9.158056,135.908333],[7.778889,136.094722],[7.550278,136.139444],[5.801111,136.708333],[4.978333,136.994722],[4.943111,137.455544],[4.968425,137.895947],[5.050822,138.327167],[5.192022,138.752189],[5.029372,139.092933],[4.8972,139.471669],[4.812111,139.837556],[4.766089,140.245303],[4.502286,140.449808],[4.227467,140.714017],[3.983617,141.008519],[3.797947,141.289025],[3.641431,141.586575],[3.50025,141.943669],[3.4111,142.267514],[3.349711,142.646286],[3.329128,143.003075],[3.334339,143.284222],[3.37035,143.610292],[3.428711,143.894714],[3.512183,144.174778],[3.619864,144.446567],[3.750939,144.708014],[3.932083,144.997322],[3.998742,145.311728],[4.095328,145.618367],[4.054508,146.007153],[4.06705,146.488869],[4.027597,146.863075],[4.030675,147.242411],[3.779892,147.61235],[3.569189,148.03995],[3.420172,148.497825],[3.338578,148.972739],[3.324417,149.406183],[3.366475,149.836864],[3.463589,150.257433],[3.614256,150.662131],[3.296458,150.886661],[3.018456,151.134483],[2.770889,151.409856],[2.546006,151.714983],[2.333522,151.621647],[2.083333,151.532897],[1.619908,151.423122],[-0.245556,152.664444],[-0.428056,152.907778],[-0.980556,153.910278],[-1.133056,155.861111],[-1.171389,157.307008],[-1.0922,157.373744],[-0.730558,157.631569],[-0.355061,157.832114],[0.074247,157.993814],[0.491156,158.091567],[0.945603,158.138044],[1.4109,158.12365],[1.830114,158.055542],[2.273058,157.922839],[2.5019,158.032536],[2.607536,158.409856],[2.749547,158.760128],[2.908642,159.057861],[3.123597,159.373497],[3.019133,159.645417],[2.927836,159.972592],[2.872486,160.289589],[2.847772,160.613003],[2.610339,160.890925],[2.387811,161.2212],[2.219972,161.544422],[2.087814,161.885158],[2.007711,162.166139],[1.953608,162.442617],[1.917694,162.756039],[1.908972,163.046567],[1.936372,163.429042],[2.002094,163.783444],[2.104428,164.125525],[2.254325,164.478242],[2.432203,164.793994],[2.644678,165.091244],[2.900236,165.375647],[3.191389,165.635],[3.556944,165.676111],[6.283611,165.509722],[7.183611,164.339444],[8.058611,163.071667],[7.856667,162.624167],[7.986111,161.000278],[8.308611,160.163056],[8.557222,159.403611],[9.662222,158.173889],[10.423611,157.463889],[10.400022,157.266531],[10.524428,157.064808],[10.652892,156.815422],[10.764092,156.545906],[10.846469,156.286972],[11.094392,155.8928],[11.291203,155.452906],[11.387336,155.14395],[11.448039,154.861261],[11.484722,154.571981],[11.496514,154.280536],[11.666172,154.016797],[11.829164,153.697639],[11.938342,153.420644],[12.040103,153.071994],[12.108339,152.68675],[12.135614,152.280992],[12.117647,151.886625],[12.053942,151.494567],[12.193539,151.112464],[12.290011,150.696342],[12.334139,150.265425],[12.327297,149.878875],[12.256147,149.39205],[12.115442,148.918561],[11.909747,148.474017],[11.641013,148.055567]]]],"type":"MultiPolygon"},"properties":{"name":"Micronesia","source_feature_id":"marineregions:FM"},"type":"Feature"}
