{"geometry":{"coordinates":[[[[-8.659542,61.245561],[-8.783187,61.473258],[-9.029816,61.630904],[-9.118397,61.711767],[-9.236625,61.861324],[-9.322127,62.030525],[-9.3386,62.117245],[-9.337095,62.204305],[-9.31747,62.290885],[-9.224166,62.459317],[-9.151086,62.539549],[-8.954935,62.688144],[-8.560671,62.914564],[-8.271677,63.026713],[-8.109945,63.072515],[-7.540709,63.172841],[-6.770724,63.24739],[-6.198182,63.237903],[-5.831274,63.189429],[-5.657849,63.153155],[-5.339608,63.058356],[-5.197867,63.000777],[-4.955775,62.868109],[-4.707195,62.691002],[-4.622855,62.608133],[-4.557701,62.521707],[-4.512262,62.43265],[-4.486842,62.341906],[-4.481529,62.250431],[-4.496194,62.159178],[-4.530509,62.06909],[-4.635596,61.909625],[-4.729143,61.80456],[-4.753801,61.667026],[-4.822377,61.533448],[-4.807408,61.404666],[-4.821327,61.315516],[-4.903456,61.141379],[-5.054073,60.978394],[-5.266429,60.832798],[-5.531742,60.710087],[-5.839589,60.614835],[-6.355321,60.530822],[-6.716615,60.51705],[-7.25192,60.560999],[-7.58534,60.63181],[-7.885442,60.732973],[-8.19888,60.878348],[-8.511168,61.091481],[-8.659542,61.245561]]]],"type":"MultiPolygon"},"properties":{"name":"Faeroe","source_feature_id":"marineregions:FO"},"type":"Feature"}
