{"geometry":{"coordinates":[[[[9.297521,0.80848],[9.549048,1.024075],[9.755659,1.06899],[9.935322,0.925261],[9.998203,0.997125],[11.327704,0.997125],[11.336687,2.173913],[11.381603,2.299677],[11.740927,2.290693],[12.576356,2.272727],[13.088394,2.236795],[13.133309,2.28171],[13.196191,2.272727],[13.295005,2.173913],[13.295005,2.057133],[13.160259,1.90442],[13.196191,1.796622],[13.142292,1.563061],[13.259073,1.383399],[13.187208,1.221703],[13.636364,1.347467],[13.780093,1.35645],[13.807043,1.437298],[14.17535,1.392382],[14.301114,1.311534],[14.301114,1.221703],[14.489759,0.934244],[14.489759,0.826446],[14.283148,0.54797],[14.103485,0.556953],[14.040604,0.40424],[13.887891,0.242544],[13.932806,0.0],[14.004671,-0.089831],[13.91484,-0.161696],[13.950773,-0.251527],[14.148401,-0.278476],[14.193317,-0.440172],[14.435861,-0.485088],[14.525692,-0.66475],[14.426877,-0.925261],[14.453827,-1.329501],[14.525692,-1.419332],[14.489759,-1.554078],[14.390945,-1.625943],[14.435861,-1.895437],[14.256198,-1.976285],[14.274165,-2.120014],[14.157384,-2.227812],[14.265181,-2.344592],[14.148401,-2.398491],[14.103485,-2.515271],[13.869925,-2.434423],[13.932806,-2.344592],[13.762127,-2.093065],[13.726195,-2.200862],[13.501617,-2.42544],[13.36687,-2.42544],[13.025512,-2.326626],[12.926698,-2.200862],[12.84585,-1.940352],[12.612289,-1.814589],[12.450593,-2.057133],[12.504492,-2.120014],[12.468559,-2.335609],[12.513475,-2.42544],[12.073302,-2.42544],[11.965505,-2.335609],[11.713978,-2.497305],[11.579231,-2.371542],[11.525332,-2.371542],[11.597197,-2.641035],[11.534315,-2.847646],[11.60618,-2.820697],[11.794826,-3.054258],[11.696011,-3.180022],[11.965505,-3.386633],[11.848724,-3.736974],[11.687028,-3.629177],[11.588214,-3.467481],[11.471434,-3.584262],[11.318721,-3.602228],[11.210923,-3.719008],[11.219907,-3.826806],[10.725835,-4.608336],[10.644987,-4.689184],[10.366511,-4.437657],[10.240747,-4.249012],[10.034136,-4.096299],[9.827524,-3.78189],[9.144808,-3.180022],[8.902264,-2.901545],[8.785483,-2.68595],[8.507007,-2.326626],[8.37226,-1.976285],[8.273446,-1.832555],[8.165649,-1.518146],[8.057851,-1.35645],[7.878189,-0.95221],[7.806324,-0.6917],[7.806324,-0.512037],[7.905138,-0.170679],[8.129716,0.107797],[8.408193,0.26051],[8.444125,0.736615],[9.03701,0.736615],[9.297521,0.80848]]]],"type":"MultiPolygon"},"properties":{"name":"Gabon","source_feature_id":"marineregions:GA"},"type":"Feature"}
