{"geometry":{"coordinates":[[[[-62.648828,12.322937],[-62.514557,12.635751],[-62.400541,12.786411],[-62.286651,12.885151],[-61.783596,12.655603],[-61.543682,12.560707],[-61.366806,12.513757],[-61.126965,12.342916],[-60.787594,12.059828],[-60.905498,11.992454],[-61.730821,11.386094],[-61.877446,11.36975],[-61.987846,11.37872],[-62.206046,11.417163],[-62.305354,11.46389],[-62.690891,12.177731],[-62.648828,12.322937]]]],"type":"MultiPolygon"},"properties":{"name":"Grenada","source_feature_id":"marineregions:GD"},"type":"Feature"}
