{"geometry":{"coordinates":[[[[44.887487,41.21564],[44.887487,41.198796],[44.870643,41.198796],[44.8538,41.21564],[44.870643,41.21564],[44.887487,41.21564]]],[[[39.346029,42.647323],[39.888156,43.098135],[40.068965,43.494716],[40.139459,43.546764],[40.224346,43.568342],[40.575447,43.541052],[40.750471,43.520057],[41.672689,43.233033],[42.375534,43.228049],[42.89557,43.147437],[43.188667,42.954656],[43.690241,42.792467],[43.847728,42.590835],[44.022739,42.585012],[44.528239,42.732485],[44.615979,42.74055],[44.781106,42.681323],[45.038373,42.718306],[45.352943,42.564136],[45.696005,42.490617],[45.74697,42.421603],[45.671166,42.268378],[45.685897,42.188395],[45.91962,42.067985],[46.42023,41.906216],[46.23238,41.72287],[46.242304,41.642188],[46.430431,41.458912],[46.659637,41.331181],[46.680648,41.246938],[46.578676,41.112459],[46.492843,41.095965],[46.240791,41.174148],[45.889912,41.207797],[45.676486,41.358058],[45.425519,41.441306],[45.250945,41.430936],[45.022233,41.299856],[44.868747,41.280074],[44.827367,41.258724],[44.8538,41.21564],[44.55062,41.21564],[44.55062,41.232483],[44.533777,41.232483],[44.533777,41.21564],[44.487662,41.200979],[44.244355,41.22302],[43.716688,41.127697],[43.472646,41.131423],[43.228184,41.22222],[43.106306,41.346281],[42.736514,41.577688],[42.417942,41.462209],[42.070419,41.506562],[41.722608,41.476156],[41.552506,41.51882],[41.283013,41.603036],[40.693496,41.956746],[39.346029,42.647323]]]],"type":"MultiPolygon"},"properties":{"name":"Georgia","source_feature_id":"marineregions:GE"},"type":"Feature"}
