{"geometry":{"coordinates":[[[[-51.769,3.98],[-52.189,3.298],[-52.332,3.17],[-52.378,2.914],[-52.555,2.64],[-52.552,2.52],[-52.662,2.373],[-52.859,2.282],[-52.903,2.186],[-53.116,2.226],[-53.283,2.19],[-53.227,2.266],[-53.34,2.351],[-53.53,2.257],[-53.741,2.31],[-53.764,2.37],[-54.066,2.197],[-54.101,2.113],[-54.194,2.184],[-54.341,2.16],[-54.601,2.342],[-54.508,2.336],[-54.217,2.761],[-54.161,2.966],[-54.214,3.154],[-53.999,3.44],[-53.979,3.606],[-54.356,4.046],[-54.323,4.146],[-54.396,4.205],[-54.448,4.52],[-54.399,4.582],[-54.478,4.899],[-54.307,5.228],[-54.019,5.523],[-53.947,5.801],[-53.843,6.03],[-53.842,6.032],[-53.602,6.503],[-53.568168,6.569102],[-53.537,6.63],[-53.175,6.442],[-52.448,6.208],[-51.584,5.505],[-51.236,5.318],[-51.078,5.138],[-51.140111,5.068],[-51.162377,5.042906],[-51.204483,4.995453],[-51.461847,4.7054],[-51.637,4.508],[-51.634538,4.487692],[-51.633,4.475],[-51.626,4.429],[-51.628,4.402],[-51.637,4.348],[-51.642,4.334],[-51.634,4.316],[-51.631,4.307],[-51.648,4.048],[-51.769,3.98]]]],"type":"MultiPolygon"},"properties":{"name":"French Guiana","source_feature_id":"marineregions:GF"},"type":"Feature"}
