{"geometry":{"coordinates":[[[[-2.244721,49.940314],[-2.054713,49.921986],[-2.050278,49.808611],[-2.065833,49.681111],[-2.138889,49.54],[-2.098889,49.459722],[-2.134722,49.4225],[-2.350278,49.313889],[-2.482778,49.275278],[-2.560556,49.22],[-2.738056,49.270556],[-2.938767,49.304152],[-2.984788,49.346863],[-3.021199,49.441181],[-2.986065,49.535791],[-2.837106,49.65523],[-2.692673,49.703573],[-2.679962,49.779303],[-2.625175,49.845745],[-2.492799,49.909205],[-2.244721,49.940314]]]],"type":"MultiPolygon"},"properties":{"name":"Guernsey","source_feature_id":"marineregions:GG"},"type":"Feature"}
