{"geometry":{"coordinates":[[[[-3.116,5.131],[-2.759,5.101],[-2.724,5.138],[-2.786,5.285],[-2.769,5.357],[-2.726,5.341],[-2.757,5.595],[-2.859,5.658],[-2.931,5.619],[-2.955,5.714],[-3.026,5.708],[-3.021,5.86],[-3.258,6.625],[-3.229,6.824],[-2.956,7.233],[-2.919,7.613],[-2.781,7.95],[-2.747,7.925],[-2.599,8.041],[-2.616,8.14],[-2.497,8.206],[-2.618,8.92],[-2.664,9.019],[-2.78,9.062],[-2.774,9.141],[-2.658,9.252],[-2.722,9.312],[-2.688,9.492],[-2.769,9.569],[-2.787,9.695],[-2.727,9.826],[-2.794,10.117],[-2.756,10.243],[-2.85,10.316],[-2.773,10.423],[-2.865,10.453],[-2.941,10.614],[-2.938,10.721],[-2.817,10.928],[-2.834,11.005],[-0.831,11.008],[-0.654,10.987],[-0.613,10.913],[-0.567,10.995],[-0.435,11.029],[-0.405,11.129],[-0.362,11.069],[-0.275,11.176],[-0.136,11.138],[0.025,11.054],[-0.091,10.71],[-0.06,10.632],[0.144,10.52],[0.191,10.4],[0.284,10.423],[0.322,10.312],[0.399,10.311],[0.353,10.097],[0.418,10.056],[0.361,10.029],[0.387,9.939],[0.319,9.727],[0.384,9.591],[0.24,9.574],[0.311,9.507],[0.229,9.463],[0.271,9.426],[0.448,9.496],[0.562,9.402],[0.455,9.05],[0.522,8.858],[0.374,8.754],[0.469,8.6],[0.646,8.493],[0.729,8.333],[0.586,8.195],[0.629,7.706],[0.52,7.592],[0.506,7.463],[0.648,7.396],[0.658,7.312],[0.6,7.014],[0.522,6.975],[0.562,6.928],[0.534,6.827],[0.645,6.74],[0.655,6.61],[0.742,6.582],[0.749,6.442],[0.89,6.335],[1.0,6.333],[1.084,6.163],[1.199,6.168],[1.304,5.812],[1.501,5.095],[1.424,5.041],[0.967,4.883],[0.471,4.854],[-0.416,4.407],[-1.187,4.19],[-1.667,3.923],[-2.203,3.867],[-2.687,4.07],[-3.294,4.202],[-3.116,5.131]]]],"type":"MultiPolygon"},"properties":{"name":"Ghana","source_feature_id":"marineregions:GH"},"type":"Feature"}
