{"geometry":{"coordinates":[[[[13.064167,-16.746944],[13.07888,-16.729506],[13.111324,-16.735146],[13.108063,-16.719371],[13.121881,-16.724571],[13.133383,-16.699278],[13.153467,-16.709061],[13.162565,-16.675567],[13.171921,-16.678123],[13.169174,-15.805716],[13.348732,-15.806064],[13.354225,-15.714696],[13.37122,-15.682067],[13.35062,-15.585027],[13.394394,-15.503517],[13.357315,-15.384755],[13.372936,-15.287185],[13.4198,-15.229483],[13.525887,-15.200529],[13.581161,-15.143319],[13.600216,-15.094405],[13.555584,-15.073918],[13.498936,-15.0144],[13.448982,-14.897699],[13.447609,-14.850922],[13.419971,-14.814032],[13.417912,-14.762847],[13.373451,-14.729491],[13.347187,-14.676895],[13.344612,-14.616727],[13.360405,-14.581088],[13.312168,-14.526374],[13.30101,-14.458287],[13.253288,-14.409426],[13.231316,-14.355808],[13.240242,-14.270198],[13.219299,-14.241339],[13.231659,-14.184545],[13.221359,-14.149806],[13.247795,-14.11683],[13.283329,-14.108363],[13.292084,-14.007113],[13.322468,-13.955955],[13.321095,-13.874276],[13.346157,-13.828584],[13.436279,-13.792937],[13.557644,-13.893024],[13.579445,-13.962595],[13.553524,-14.028993],[13.556614,-14.075262],[13.53138,-14.174152],[13.476448,-14.245309],[13.45705,-14.323687],[13.469067,-14.368701],[13.538418,-14.467901],[13.592834,-14.482017],[13.644848,-14.539065],[13.656693,-14.627906],[13.616524,-14.713221],[13.655834,-14.782977],[13.733082,-14.80082],[13.776512,-14.846404],[13.799171,-14.907206],[13.796768,-14.975261],[13.828182,-15.071601],[13.753037,-15.224071],[13.786125,-15.300711],[13.766212,-15.387319],[13.692398,-15.45307],[13.591002,-15.486562],[13.593333,-20.073056],[13.298394,-20.237308],[13.0575,-20.220512],[13.064167,-16.746944]]]],"type":"MultiPolygon"},"properties":{"name":"Gambia","source_feature_id":"marineregions:GM"},"type":"Feature"}
