{"geometry":{"coordinates":[[[[-62.405677,16.124686],[-62.055336,16.430111],[-61.830758,16.681639],[-61.022278,16.969098],[-60.7977,17.157743],[-60.492275,17.005031],[-60.303629,16.807402],[-60.186849,16.564858],[-60.141933,16.304348],[-60.231764,15.855192],[-60.896515,15.666547],[-61.327704,15.738412],[-61.444484,15.783327],[-61.74991,15.603665],[-62.351779,15.298239],[-62.522458,15.504851],[-62.639238,15.747395],[-62.648221,15.945023],[-62.405677,16.124686]]]],"type":"MultiPolygon"},"properties":{"name":"Guadeloupe","source_feature_id":"marineregions:GP"},"type":"Feature"}
