{"geometry":{"coordinates":[[[[9.744978,2.398669],[9.837343,2.328047],[9.831272,2.293288],[9.847701,2.246499],[9.885914,2.231287],[9.905412,2.198757],[9.922907,2.207726],[10.042238,2.161506],[10.110887,2.168904],[10.123149,2.143482],[10.148057,2.16142],[10.167383,2.152065],[10.190358,2.175026],[11.333345,2.17083],[11.331976,1.000443],[10.918197,0.998372],[10.849927,1.02499],[10.797443,1.016933],[10.775474,0.997944],[9.994926,0.998468],[9.984968,0.978985],[9.992436,0.933752],[9.952177,0.920706],[9.896002,0.951879],[9.87485,0.991633],[9.843593,1.004883],[9.792304,1.000678],[9.785024,1.030613],[9.747019,1.073769],[9.676901,1.067949],[9.627137,1.030276],[9.549014,1.022365],[9.54169,0.989277],[9.507175,0.95235],[9.414922,0.960025],[9.393992,0.889078],[9.361212,0.852545],[9.258469,0.791548],[9.153226,0.756439],[9.043466,0.740126],[8.419803,0.735506],[8.404414,0.950753],[8.436647,1.161675],[8.682081,1.822428],[8.763928,1.962311],[8.883207,2.121294],[8.901456,2.341574],[8.678273,2.313118],[8.505406,2.324893],[8.157185,2.418606],[7.995394,2.499531],[7.921367,2.55183],[7.756678,2.711189],[7.648708,2.872563],[7.608269,2.961059],[7.54667,3.184296],[7.537556,3.395742],[7.819528,3.645111],[7.819444,3.710278],[8.055139,3.873833],[8.067778,3.855611],[8.083028,3.865222],[8.069639,3.883833],[8.326077,4.069326],[8.584618,4.123406],[8.628225,4.111046],[8.814979,3.969356],[8.983121,3.906211],[9.034335,3.866106],[9.19696,3.682672],[9.276656,3.548713],[9.253939,3.310013],[9.303861,3.039564],[9.186427,2.772199],[9.075493,2.576037],[9.596134,2.461423],[9.744978,2.398669]]]],"type":"MultiPolygon"},"properties":{"name":"Equatorial Guinea","source_feature_id":"marineregions:GQ"},"type":"Feature"}
