{"geometry":{"coordinates":[[[[-92.139086,15.378289],[-91.788918,15.957092],[-91.714934,16.018804],[-91.530238,16.068278],[-90.65939,16.068541],[-90.473679,16.11028],[-90.434046,16.388266],[-90.650826,16.573841],[-90.633983,16.573841],[-90.633983,16.590685],[-90.650826,16.590685],[-90.76362,16.741409],[-91.081169,16.94806],[-91.36044,17.203375],[-91.031785,17.307695],[-90.941726,17.762467],[-90.767088,17.820248],[-89.15177,17.820248],[-89.153876,16.922206],[-89.210219,15.967828],[-89.17824,15.919062],[-88.942016,15.905344],[-88.620009,16.058172],[-88.44435,16.034854],[-88.208543,15.933794],[-88.299509,15.665059],[-89.138229,15.026683],[-89.18349,14.943184],[-89.176373,14.655981],[-89.35389,14.434738],[-89.35389,14.417894],[-89.516965,14.409471],[-89.559945,14.376457],[-89.550507,14.268306],[-89.569804,14.219905],[-89.666323,14.165125],[-89.788915,14.054859],[-89.895736,14.027235],[-90.063324,13.881734],[-90.35288,13.343038],[-90.532923,12.935681],[-90.80746,13.011339],[-91.376407,13.054778],[-91.741664,13.162192],[-92.248541,13.424935],[-92.775917,13.829793],[-92.2341,14.535798],[-92.115982,14.997951],[-92.139086,15.378289]]],[[[-90.61714,16.472781],[-90.633983,16.472781],[-90.633983,16.489625],[-90.61714,16.489625],[-90.61714,16.472781]]],[[[-90.66767,16.590685],[-90.650826,16.590685],[-90.650826,16.573841],[-90.66767,16.573841],[-90.66767,16.590685]]]],"type":"MultiPolygon"},"properties":{"name":"Guatemala","source_feature_id":"marineregions:GT"},"type":"Feature"}
