{"geometry":{"coordinates":[[[[145.059289,13.851958],[145.212001,13.79806],[145.733022,13.537549],[145.858785,13.465685],[145.715056,13.070428],[145.427596,12.648221],[145.292849,12.531441],[144.960474,12.378728],[144.556234,12.360762],[144.295724,12.44161],[144.134028,12.540424],[143.954366,12.720086],[143.801653,12.953647],[143.729788,13.214157],[143.738771,13.591448],[143.918433,13.986705],[144.223859,14.301114],[144.475386,14.166367],[145.059289,13.851958]]]],"type":"MultiPolygon"},"properties":{"name":"Guam","source_feature_id":"marineregions:GU"},"type":"Feature"}
