{"geometry":{"coordinates":[[[[-16.333,10.152],[-16.568,10.22],[-16.801,10.368],[-16.978,10.578],[-17.122,10.886],[-17.144,11.232],[-17.06,11.507],[-17.303,11.666],[-17.495885,11.894795],[-17.496,11.895],[-16.897,12.24],[-16.692,12.36],[-16.383,12.363],[-16.218,12.46],[-15.68,12.428],[-15.182,12.685],[-13.713,12.677],[-13.632,12.461],[-13.659,12.324],[-13.722,12.247],[-13.857,12.281],[-13.958,12.182],[-13.703,12.013],[-13.705,11.702],[-13.737,11.687],[-13.76,11.684],[-13.766,11.687],[-13.854,11.746],[-13.875,11.663],[-13.988,11.64],[-14.265,11.676],[-14.513,11.497],[-14.659,11.507],[-14.958,10.976],[-15.342,10.667],[-15.571,10.667],[-15.880918,10.457837],[-16.333,10.152]],[[-13.764,11.687],[-13.765,11.688],[-13.766,11.687],[-13.764,11.687]]]],"type":"MultiPolygon"},"properties":{"name":"Guinea-Bissau","source_feature_id":"marineregions:GW"},"type":"Feature"}
