{"geometry":{"coordinates":[[[[-57.233651,3.13286],[-57.250494,3.13286],[-57.250494,3.149704],[-57.233651,3.149704],[-57.233651,3.13286]]],[[[-61.156637,6.279413],[-61.208678,6.535214],[-61.044459,6.721369],[-60.548899,6.86171],[-60.352251,7.023375],[-60.373861,7.138782],[-60.585107,7.281862],[-60.638154,7.397454],[-60.607969,7.651668],[-59.912132,8.214863],[-59.608561,8.926967],[-59.423284,9.230147],[-59.408847,9.226538],[-58.853414,8.925472],[-58.445999,8.625902],[-57.907842,8.091271],[-57.53091,7.584627],[-56.644134,6.87208],[-57.123427,6.014668],[-57.176821,5.691797],[-57.284573,5.382204],[-57.24276,5.182839],[-57.381441,5.022144],[-57.802277,4.919676],[-57.862855,4.830747],[-57.898575,4.506397],[-58.013916,4.200316],[-57.993051,3.990009],[-57.636297,3.440405],[-57.340275,3.329215],[-57.250494,3.13286],[-57.149403,2.813148],[-56.816734,2.228956],[-56.673661,2.059414],[-56.475701,1.953827],[-56.852866,1.916968],[-57.225358,1.981795],[-57.653663,1.718668],[-58.123858,1.542706],[-58.37422,1.516247],[-58.642916,1.258703],[-58.768002,1.241531],[-59.011109,1.304514],[-59.34072,1.49113],[-59.696761,1.84884],[-59.767376,2.219962],[-59.968336,2.680606],[-59.968588,2.933079],[-59.827524,3.419197],[-59.810681,3.419197],[-59.810681,3.43604],[-59.826337,3.43604],[-59.818819,3.542726],[-59.599131,3.84618],[-59.583269,3.969504],[-59.785395,4.424078],[-60.022217,4.502528],[-60.101391,4.584661],[-60.021191,4.822694],[-60.035118,5.071204],[-60.102113,5.176078],[-60.218043,5.222889],[-60.720221,5.221434],[-60.737064,5.20459],[-61.176485,5.698964],[-61.306978,5.925534],[-61.156637,6.279413]]],[[[-61.225521,6.535214],[-61.208678,6.535214],[-61.208678,6.51837],[-61.225521,6.51837],[-61.225521,6.535214]]]],"type":"MultiPolygon"},"properties":{"name":"Guyana","source_feature_id":"marineregions:GY"},"type":"Feature"}
