{"geometry":{"coordinates":[[[[-52.707778,68.091944],[-53.236102,67.05406],[-53.436031,67.07285],[-53.663342,67.117007],[-53.860252,67.177107],[-54.054616,67.257751],[-54.245692,67.358918],[-54.418511,67.470427],[-54.738052,67.732166],[-55.026236,68.040102],[-55.293913,68.401897],[-55.538611,68.815135],[-55.738086,69.231017],[-55.905194,69.658379],[-56.055774,70.138282],[-56.173333,70.618488],[-56.372863,71.736049],[-56.434837,72.157896],[-56.500421,72.801894],[-56.524425,73.448291],[-56.510466,74.054529],[-56.46943,74.595509],[-56.396666,75.140828],[-56.29339,75.677008],[-56.165986,76.171697],[-55.952264,76.846549],[-55.775212,77.290011],[-55.563988,77.718001],[-55.32875,78.104083],[-55.084496,78.429664],[-54.809965,78.723615],[-54.51964,78.966681],[-54.216452,79.157423],[-53.903698,79.294714],[-53.584499,79.378397],[-53.246574,79.409007],[-53.000512,79.39518],[-52.740362,79.34794],[-52.483204,79.267954],[-52.230558,79.156258],[-51.983894,79.014028],[-51.744625,78.842565],[-51.5141,78.643281],[-51.280968,78.40363],[-51.084336,78.167373],[-50.887441,77.89401],[-50.549849,77.362563],[-50.366983,77.036583],[-50.209779,76.710113],[-50.06067,76.346841],[-49.936986,75.989112],[-49.826191,75.602018],[-51.0525,72.474444],[-51.408889,71.208056],[-51.971667,69.733889],[-52.707778,68.091944]]]],"type":"MultiPolygon"},"properties":{"name":"Heard and McDonald Islands","source_feature_id":"marineregions:HM"},"type":"Feature"}
