{"geometry":{"coordinates":[[[[-82.259,15.186],[-82.228,15.066],[-82.274,14.95],[-82.395,14.881],[-82.566,14.946],[-82.834,14.954],[-82.882,15.09],[-83.232,14.982],[-83.502,15.011],[-83.702,14.824],[-83.923,14.748],[-84.112,14.791],[-84.097,14.73],[-84.169,14.714],[-84.237,14.76],[-84.272,14.665],[-84.364,14.717],[-84.472,14.616],[-84.701,14.664],[-84.79,14.816],[-84.9,14.816],[-85.028,14.703],[-85.041,14.576],[-85.152,14.571],[-85.222,14.374],[-85.153,14.302],[-85.184,14.251],[-85.341,14.249],[-85.404,14.123],[-85.754,13.967],[-85.752,13.832],[-86.035,13.999],[-86.025,14.079],[-86.15,14.036],[-86.346,13.762],[-86.537,13.803],[-86.763,13.768],[-86.706,13.303],[-86.915,13.261],[-86.916,13.098],[-86.974,13.019],[-87.32,12.984],[-87.463,13.054],[-87.546,13.178],[-87.597,13.171],[-87.83,13.395],[-87.716,13.467],[-87.794,13.524],[-87.709,13.791],[-87.771,13.875],[-88.013,13.872],[-88.083,13.961],[-88.468,13.849],[-88.502,13.97],[-88.817,14.081],[-89.098,14.402],[-89.175,14.361],[-89.323,14.437],[-89.35,14.422],[-89.239,14.577],[-89.146,14.602],[-89.133,14.706],[-89.225,14.872],[-89.152,15.071],[-88.683,15.338],[-88.226,15.727],[-88.226,15.728],[-88.227,15.74],[-88.213,15.934],[-87.894,16.166],[-87.223,16.593],[-86.558,17.307],[-86.553881,17.310802],[-85.992,17.411],[-85.587,17.383],[-85.194,17.172],[-84.984,16.893],[-84.63,16.832],[-84.803,17.138],[-84.846,17.408],[-84.805,17.674],[-84.685,17.917],[-84.418,18.168],[-84.162,18.279],[-83.875,18.313],[-83.522,18.239],[-83.224,18.043],[-82.995,17.671],[-82.973,17.241],[-83.111,16.915],[-82.683,16.69],[-82.45,16.378],[-82.344,16.108],[-82.005,15.924],[-81.725,15.617],[-81.673,15.508],[-81.989789,15.398747],[-82.366,15.269],[-82.259,15.186]]]],"type":"MultiPolygon"},"properties":{"name":"Honduras","source_feature_id":"marineregions:HN"},"type":"Feature"}
