{"geometry":{"coordinates":[[[[13.12996,44.622674],[13.053925,45.014523],[13.055102,45.212749],[13.151068,45.385627],[13.390451,45.56122],[13.457824,45.544377],[13.491511,45.527533],[13.525198,45.51069],[13.609414,45.46016],[13.913203,45.46089],[14.035997,45.500196],[14.16507,45.488461],[14.425479,45.505996],[14.463313,45.527024],[14.545357,45.628634],[14.584662,45.644603],[14.625061,45.630989],[14.715941,45.539253],[14.831699,45.479515],[14.956641,45.505649],[15.161579,45.437755],[15.289833,45.457657],[15.330909,45.472299],[15.337636,45.508772],[15.298153,45.584349],[15.353878,45.646462],[15.351878,45.683635],[15.317567,45.710199],[15.319158,45.747745],[15.606961,45.843976],[15.681786,45.885876],[15.712847,46.011285],[15.698043,46.051923],[15.628354,46.103738],[15.617869,46.144462],[15.636191,46.183181],[16.003648,46.315015],[16.109873,46.38925],[16.2405,46.390487],[16.274967,46.411482],[16.287847,46.495339],[16.322827,46.520439],[16.408759,46.526523],[16.573841,46.47076],[16.590685,46.47076],[16.607528,46.47076],[16.624371,46.47076],[16.624371,46.453917],[16.641215,46.453917],[17.128489,46.159016],[17.34559,45.975698],[17.788975,45.808948],[18.45161,45.771443],[18.711208,45.885253],[18.898221,45.91493],[18.932377,45.587071],[19.037995,45.47334],[19.010551,45.39821],[19.06679,45.333304],[19.365313,45.189516],[19.136311,45.0727],[19.016125,44.8538],[18.817248,44.893177],[18.740245,45.004985],[18.618927,45.068711],[18.281577,45.118289],[18.146146,45.098126],[18.013279,45.128495],[17.819725,45.069773],[17.688015,45.108184],[17.483381,45.123293],[17.352547,45.157764],[17.149924,45.165016],[17.028611,45.224353],[17.028611,45.241197],[17.011768,45.241197],[17.011768,45.224353],[16.946447,45.242014],[16.748619,45.201076],[16.546549,45.203448],[16.484286,45.176563],[16.341119,45.033234],[16.276103,45.018179],[15.984642,45.185985],[15.854486,45.204301],[15.775335,45.099238],[15.75587,44.965619],[15.80703,44.841628],[16.159513,44.429722],[16.268715,44.184266],[16.84934,43.715838],[17.190973,43.49403],[17.403285,43.233798],[17.630009,43.084929],[17.672477,43.033069],[17.656578,42.970929],[17.608764,42.92293],[17.651815,42.88313],[17.719188,42.916816],[17.785703,42.906503],[18.191611,42.661415],[18.443451,42.563106],[18.465335,42.484473],[18.532108,42.381599],[18.512796,42.302203],[18.296747,41.947931],[18.022368,41.636723],[16.741498,42.208818],[16.245558,42.240896],[15.900375,42.441509],[15.427056,42.606163],[15.258053,42.713571],[14.771604,43.219996],[14.586328,43.422116],[14.350521,43.725296],[14.165244,43.910573],[14.081028,43.961103],[14.013654,44.011633],[13.311609,44.391705],[13.12996,44.622674]],[[17.500225,45.123293],[17.500225,45.140137],[17.483381,45.140137],[17.483381,45.123293],[17.500225,45.123293]],[[16.978081,45.25804],[16.961238,45.25804],[16.961238,45.241197],[16.978081,45.241197],[16.978081,45.25804]],[[18.679258,45.089607],[18.662415,45.089607],[18.662415,45.072763],[18.679258,45.072763],[18.679258,45.089607]]],[[[17.011768,45.20751],[17.011768,45.224353],[17.028611,45.224353],[17.011768,45.20751]]]],"type":"MultiPolygon"},"properties":{"name":"Croatia","source_feature_id":"marineregions:HR"},"type":"Feature"}
