{"geometry":{"coordinates":[[[[-73.066505,17.266746],[-73.307015,17.313959],[-73.425084,17.246706],[-73.646127,17.168004],[-73.830122,17.139999],[-74.016235,17.147255],[-74.283658,17.223264],[-74.444028,17.314485],[-74.610661,17.452326],[-74.819634,17.528738],[-74.769232,17.857556],[-74.734513,18.261795],[-74.747038,18.542661],[-74.765487,18.640879],[-74.964929,19.16358],[-74.652456,19.289442],[-74.113317,19.413386],[-73.582356,20.373544],[-73.489329,20.377917],[-73.384927,20.406352],[-73.243315,20.462687],[-72.864876,20.565127],[-72.423145,20.722519],[-72.368705,20.703286],[-72.203659,20.593662],[-72.189065,20.28795],[-72.124296,20.154527],[-72.059521,19.931388],[-71.990918,19.850058],[-71.760849,19.706097],[-71.732419,19.646363],[-71.745654,19.633942],[-71.743602,19.584846],[-71.687679,19.511547],[-71.694045,19.477247],[-71.677958,19.444017],[-71.698518,19.392843],[-71.693249,19.360995],[-71.713984,19.371629],[-71.785496,19.331042],[-71.734177,19.264269],[-71.724797,19.278286],[-71.696911,19.241186],[-71.638054,19.228552],[-71.622025,19.206247],[-71.639006,19.197911],[-71.627478,19.181785],[-71.645202,19.180069],[-71.640196,19.145651],[-71.656186,19.143934],[-71.645738,19.134321],[-71.655278,19.115181],[-71.700916,19.106426],[-71.696557,19.088402],[-71.711632,19.08205],[-71.702551,19.071407],[-71.770699,19.031496],[-71.788489,18.993645],[-71.802614,19.004494],[-71.827611,18.994246],[-71.832966,19.005747],[-71.886235,18.957939],[-71.882786,18.94146],[-71.836312,18.969612],[-71.782584,18.954849],[-71.727274,18.875713],[-71.717297,18.803272],[-71.736154,18.721561],[-71.786372,18.705254],[-71.821705,18.631439],[-71.896155,18.646717],[-71.933833,18.632641],[-71.947964,18.647404],[-71.974592,18.64397],[-71.999843,18.620796],[-71.968572,18.604038],[-71.884084,18.506384],[-71.87974,18.490505],[-71.915788,18.483639],[-71.911625,18.469219],[-71.837059,18.428535],[-71.793095,18.38356],[-71.701474,18.344421],[-71.782576,18.17261],[-71.746996,18.145895],[-71.735118,18.081629],[-71.759143,18.031471],[-72.141043,17.833524],[-72.306513,17.641796],[-72.560231,17.27509],[-72.87434,17.248245],[-73.066505,17.266746]]]],"type":"MultiPolygon"},"properties":{"name":"Haiti","source_feature_id":"marineregions:HT"},"type":"Feature"}
