{"geometry":{"coordinates":[[[[-7.25,55.917],[-7.25,55.833],[-7.133,55.833],[-7.133,55.75],[-7.033,55.75],[-7.033,55.667],[-6.95,55.667],[-6.95,55.583],[-6.85,55.583],[-6.85,55.5],[-6.75,55.467],[-6.744,55.415],[-6.882,55.213],[-7.39,55.024],[-7.538,54.747],[-7.916,54.702],[-7.853,54.632],[-7.696,54.611],[-7.847,54.535],[-8.007,54.545],[-8.174,54.463],[-7.863,54.293],[-7.846,54.212],[-7.319,54.113],[-7.316,54.165],[-7.281,54.123],[-7.246,54.206],[-7.145,54.227],[-7.209,54.298],[-7.183,54.338],[-7.015,54.415],[-7.012,54.417],[-7.0,54.413],[-6.995,54.405],[-6.99,54.409],[-6.98,54.408],[-6.906,54.36],[-6.818,54.225],[-6.64,54.178],[-6.634,54.044],[-6.387,54.061],[-6.364,54.113],[-6.21,54.082],[-6.208,54.081],[-5.826,53.87],[-5.298,53.74],[-5.298,53.702],[-5.297,53.702],[-5.317,52.983],[-5.375,52.983],[-5.408,52.733],[-5.467,52.733],[-5.467,52.533],[-5.38,52.533],[-5.38,52.4],[-5.583,52.4],[-5.583,52.267],[-5.65,52.267],[-5.7,52.133],[-5.767,52.133],[-5.833,52.0],[-5.95,51.967],[-6.0,51.833],[-6.1,51.833],[-6.1,51.667],[-6.3,51.667],[-6.3,51.5],[-6.55,51.5],[-6.55,51.333],[-6.601,51.333],[-8.285,50.75],[-9.124,50.557],[-9.674,50.526],[-10.455,50.674],[-11.068,50.926],[-11.588,51.347],[-11.813,51.739],[-11.848,52.202],[-11.771,52.446],[-11.606,52.68],[-11.309,52.892],[-11.545,53.192],[-11.625,53.579],[-11.764,53.822],[-11.79,53.996],[-11.721,54.253],[-11.395,54.704],[-10.9,55.011],[-10.073,55.174],[-9.575,55.655],[-9.132,55.901],[-8.344,56.083],[-8.217,56.083],[-8.217,56.0],[-8.022,56.0],[-7.383,56.0],[-7.383,55.917],[-7.25,55.917]],[[-7.802,54.575],[-7.802,54.574],[-7.801,54.573],[-7.8,54.573],[-7.802,54.575]]],[[[-6.903,54.36],[-6.906,54.36],[-6.906,54.361],[-6.903,54.361],[-6.903,54.36]]],[[[-6.98,54.408],[-6.979,54.409],[-6.979,54.408],[-6.98,54.408]]],[[[-7.015,54.415],[-7.016,54.415],[-7.016,54.416],[-7.015,54.415]]]],"type":"MultiPolygon"},"properties":{"name":"Ireland","source_feature_id":"marineregions:IE"},"type":"Feature"}
