{"geometry":{"coordinates":[[[[33.785483,32.447],[33.884298,32.82429],[34.117858,33.417176],[34.935322,33.156665],[35.079051,33.093784],[35.321595,33.102767],[35.357528,33.048868],[35.528207,33.120733],[35.53719,33.237513],[35.627021,33.246497],[35.68092,33.246497],[35.591089,32.70751],[35.618038,32.680561],[35.555156,32.384118],[35.429393,32.411067],[35.366511,32.518865],[35.222781,32.554797],[35.061085,32.447],[34.98922,32.150557],[34.971254,31.818182],[35.222781,31.800216],[35.007186,31.656486],[34.881423,31.386992],[34.917355,31.342077],[35.177866,31.360043],[35.474308,31.49479],[35.402443,31.225296],[35.456342,31.153432],[35.411427,30.94682],[35.204815,30.587496],[35.025153,29.653252],[34.917355,29.455623],[34.917355,29.464607],[34.881423,29.644269],[34.61193,30.371901],[34.540065,30.407833],[34.486166,30.704276],[34.405318,30.848006],[34.270571,31.216313],[34.369386,31.378009],[34.558031,31.548688],[34.189723,31.791232],[34.010061,31.61157],[34.216673,31.324111],[33.992095,31.593604],[33.965146,31.575638],[33.65972,31.881064],[33.605821,32.051743],[33.785483,32.447]]]],"type":"MultiPolygon"},"properties":{"name":"Israel","source_feature_id":"marineregions:IL"},"type":"Feature"}
