{"geometry":{"coordinates":[[[[-5.177461,54.038912],[-5.153186,54.122328],[-5.086596,54.187828],[-5.039674,54.280908],[-5.00235,54.323807],[-4.899818,54.38915],[-4.868685,54.433606],[-4.640803,54.505987],[-4.395335,54.545804],[-4.14826,54.547349],[-4.026131,54.454403],[-4.016059,54.401191],[-3.97135,54.326093],[-3.969635,54.276346],[-3.986085,54.230873],[-4.118363,54.070622],[-4.395139,53.9051],[-4.497198,53.867292],[-4.821349,53.838314],[-4.971036,53.854073],[-5.054875,53.884279],[-5.121391,53.92811],[-5.163092,53.980671],[-5.177461,54.038912]]]],"type":"MultiPolygon"},"properties":{"name":"Isle of Man","source_feature_id":"marineregions:IM"},"type":"Feature"}
