{"geometry":{"coordinates":[[[[-23.310826,62.980663],[-23.675805,63.056516],[-23.8445,63.10636],[-24.145974,63.227499],[-24.275682,63.297623],[-24.486184,63.453566],[-24.600077,63.568688],[-24.69602,63.725469],[-24.775835,63.944176],[-25.109235,64.037293],[-25.494221,64.186129],[-25.718609,64.315849],[-25.908201,64.470377],[-26.055399,64.632422],[-26.101424,64.717251],[-26.128215,64.803585],[-26.127565,64.943413],[-26.384929,65.109794],[-26.493757,65.216368],[-26.604936,65.383159],[-26.631502,65.469123],[-26.638079,65.555751],[-26.624407,65.642236],[-26.590412,65.727763],[-26.536218,65.811521],[-26.368738,65.970534],[-26.117784,66.125493],[-25.9014,66.288328],[-25.836278,66.376752],[-25.755941,66.454783],[-25.540407,66.599861],[-25.037719,66.827065],[-24.86603,66.92637],[-24.668392,67.016803],[-24.154921,67.185761],[-23.751071,67.270682],[-23.309684,67.32185],[-23.080828,67.334016],[-22.564668,67.341968],[-22.133303,67.326167],[-21.785225,67.290477],[-21.362869,67.222799],[-20.985987,67.123404],[-20.635386,66.979425],[-20.314202,66.995806],[-19.891595,66.98767],[-19.617986,67.032776],[-19.085369,67.075609],[-18.621056,67.076206],[-18.234314,67.05584],[-17.962509,67.165946],[-17.790835,67.218186],[-17.160565,67.345215],[-16.550929,67.41172],[-15.904084,67.421238],[-15.276945,67.371993],[-14.785055,67.276512],[-14.19687,67.256842],[-13.757886,67.207799],[-13.354886,67.125246],[-13.004669,67.012719],[-12.721221,66.874981],[-12.60799,66.798421],[-12.443418,66.633855],[-12.393328,66.547519],[-12.365148,66.459629],[-12.358924,66.371053],[-12.378463,66.273298],[-12.009955,66.133905],[-11.713778,65.95614],[-11.546572,65.790774],[-11.494656,65.703762],[-11.464362,65.615044],[-11.456578,65.49334],[-11.489501,65.349297],[-11.442186,65.241],[-11.428216,65.117362],[-11.439574,65.019973],[-11.475707,64.923672],[-11.535932,64.829581],[-11.65511,64.68841],[-11.74401,64.611582],[-11.976624,64.466868],[-12.185171,64.309017],[-12.335803,64.16421],[-12.444658,64.089298],[-12.70847,63.955013],[-13.311659,63.728614],[-13.766954,63.581888],[-14.203907,63.474449],[-14.406622,63.440869],[-14.776339,63.406452],[-15.213839,63.170885],[-15.358573,63.111958],[-15.681104,63.014188],[-16.037695,62.945997],[-16.551011,62.897463],[-16.866448,62.783248],[-17.16977,62.699592],[-18.190547,62.53462],[-18.734766,62.510275],[-19.502842,62.552339],[-19.953833,62.448424],[-20.513032,62.399058],[-21.07931,62.424957],[-21.438535,62.483268],[-21.626745,62.529181],[-21.929728,62.629313],[-22.065041,62.688738],[-22.297145,62.823748],[-22.429113,62.935148],[-22.920916,62.938866],[-23.310826,62.980663]]]],"type":"MultiPolygon"},"properties":{"name":"Iceland","source_feature_id":"marineregions:IS"},"type":"Feature"}
