{"geometry":{"coordinates":[[[[49.459722,-2.098889],[49.4225,-2.134722],[49.313889,-2.350278],[49.275278,-2.482778],[49.22,-2.560556],[49.0585,-2.526667],[48.926833,-2.526667],[48.871167,-2.243],[48.882333,-1.984667],[48.940667,-1.984667],[48.963667,-1.944167],[49.064833,-1.8605],[49.182333,-1.834667],[49.249833,-1.834667],[49.315667,-1.893],[49.363667,-1.993833],[49.459722,-2.098889]]]],"type":"MultiPolygon"},"properties":{"name":"Jersey","source_feature_id":"marineregions:JE"},"type":"Feature"}
