{"geometry":{"coordinates":[[[[-75.758815,18.631348],[-75.667833,18.302225],[-75.562468,18.078757],[-75.482878,17.94906],[-75.312073,17.747959],[-74.851102,17.33368],[-74.752823,17.170817],[-74.009431,14.878156],[-74.513889,14.736111],[-77.666667,14.083333],[-78.325,14.25],[-78.633333,14.493611],[-78.633333,15.6],[-78.430556,15.6],[-78.430556,16.070833],[-79.277778,16.070833],[-79.277778,16.169444],[-79.488889,16.169444],[-79.488889,16.070833],[-79.842222,16.070833],[-80.026944,15.910833],[-80.059722,15.833056],[-80.057431,15.750972],[-80.22399,16.008751],[-80.404339,16.748413],[-80.549546,17.164327],[-80.833056,17.584167],[-80.037188,18.056155],[-79.811217,18.30945],[-78.726943,19.357807],[-78.275333,19.240024],[-78.05303,19.201174],[-77.649444,19.168889],[-76.643611,19.158611],[-76.190278,19.077778],[-75.964722,19.021944],[-75.832436,18.971455],[-75.758815,18.631348]]]],"type":"MultiPolygon"},"properties":{"name":"Jamaica","source_feature_id":"marineregions:JM"},"type":"Feature"}
