{"geometry":{"coordinates":[[[[32.502537,39.084402],[33.374963,38.79439],[32.575665,37.292464],[32.34787,36.879923],[32.311478,36.839678],[32.379971,36.395334],[32.457733,36.308732],[32.529144,36.199876],[32.514038,36.163859],[32.523823,36.126185],[32.512493,36.079958],[32.571888,36.065294],[32.602615,36.024953],[32.6548,36.027385],[32.664585,35.963547],[32.67643,35.955592],[32.685614,35.969966],[32.696471,35.941101],[32.721963,35.929573],[32.728014,35.833893],[32.736983,35.801654],[32.75578,35.796297],[32.70647,35.675333],[32.678318,35.645959],[32.674971,35.605151],[32.652569,35.606267],[32.641497,35.586385],[32.64699,35.561809],[32.552662,35.576097],[32.515283,35.553734],[32.48786,35.579836],[32.466316,35.562438],[32.401471,35.56059],[32.400355,35.54702],[32.383146,35.563254],[32.322206,35.553833],[32.211699,35.573872],[32.167025,35.548622],[32.15076,35.559066],[32.140331,35.54389],[32.122478,35.549435],[32.107673,35.533679],[32.082138,35.54541],[32.035746,35.518618],[31.96734,35.545958],[31.908846,35.524267],[31.869278,35.547018],[31.815376,35.539954],[31.757526,35.559104],[31.719726,35.530273],[31.575195,35.477539],[31.394909,35.468274],[31.255031,35.398589],[31.223568,35.403953],[31.152763,35.453451],[31.104698,35.453852],[31.045818,35.424071],[30.949945,35.415601],[30.925055,35.368222],[30.894241,35.348408],[30.853043,35.331395],[30.814419,35.335493],[30.776224,35.295707],[30.687389,35.272975],[30.591446,35.209151],[30.54225,35.204272],[30.52165,35.186389],[30.491352,35.19182],[30.443201,35.15625],[30.352349,35.188227],[30.31014,35.160425],[30.233687,35.141336],[30.127087,35.171464],[30.018597,35.094674],[29.856205,35.075447],[29.721794,35.02064],[29.650898,35.023999],[29.375206,34.885352],[29.183729,36.072978],[29.380188,36.342529],[29.430485,36.449559],[29.513741,36.526283],[29.561634,36.549173],[29.637337,36.625586],[29.749946,36.680438],[29.788742,36.73502],[29.867191,36.784289],[30.001259,37.516864],[30.333767,37.672355],[30.501909,38.00657],[31.500549,37.006178],[31.999912,39.006139],[32.230625,39.300184],[32.354221,39.259193],[32.301178,39.043819],[32.477989,38.984465],[32.502537,39.084402]]]],"type":"MultiPolygon"},"properties":{"name":"Jordan","source_feature_id":"marineregions:JO"},"type":"Feature"}
