{"geometry":{"coordinates":[[[[37.788024,-3.637172],[37.655315,-3.413612],[37.650219,-3.146565],[37.477993,-2.943997],[34.429334,-1.215457],[33.939319,-0.993757],[33.953904,-0.002551],[34.008635,0.23756],[34.179948,0.567341],[34.542466,1.066121],[34.803199,1.326679],[34.948827,1.668733],[34.98944,1.911589],[34.890897,2.522354],[34.505138,3.156432],[34.40423,3.635654],[34.14359,3.890764],[33.989849,4.227677],[34.268872,4.503432],[34.505044,4.612129],[35.943676,4.631917],[36.149162,4.474354],[36.945115,4.393899],[37.96312,3.751492],[38.209719,3.64834],[39.399585,3.462142],[39.644626,3.551688],[40.012692,3.937726],[40.624209,4.208554],[40.884845,4.186391],[41.221398,3.97414],[41.889373,3.975027],[41.889373,3.958184],[41.089599,2.890939],[40.996676,2.506734],[41.010383,-0.698262],[41.169261,-1.062206],[41.737783,-1.802237],[42.360986,-2.07173],[42.035154,-2.489846],[41.060763,-3.388619],[40.725939,-3.960851],[40.390316,-4.682447],[39.850625,-4.684168],[39.346029,-4.834037],[39.295499,-4.766664],[37.788024,-3.637172]]]],"type":"MultiPolygon"},"properties":{"name":"Kenya","source_feature_id":"marineregions:KE"},"type":"Feature"}
