{"geometry":{"coordinates":[[[[103.278836,9.683794],[103.09019,9.800575],[102.883579,9.863457],[102.659001,10.01617],[102.434423,10.303629],[102.299677,10.582106],[102.102048,11.067194],[102.263744,11.148042],[102.596119,11.327704],[102.910528,11.651096],[102.703917,12.163133],[102.766798,12.459576],[102.641035,12.612289],[102.524254,12.657204],[102.533238,12.8189],[102.461373,13.079411],[102.344592,13.303989],[102.335609,13.555516],[102.542221,13.564499],[102.542221,13.663313],[102.721883,13.77111],[102.775782,13.932806],[102.901545,14.022637],[102.937478,14.184333],[103.09019,14.292131],[103.647143,14.417894],[103.710025,14.435861],[103.701042,14.381962],[104.033417,14.337046],[104.275961,14.408911],[104.32986,14.363996],[104.581387,14.355013],[104.653252,14.426877],[104.814948,14.435861],[105.003593,14.372979],[105.057492,14.211283],[105.201222,14.346029],[105.201222,14.337046],[105.273087,14.166367],[105.362918,14.103485],[105.569529,14.157384],[105.785124,14.085519],[105.901904,13.932806],[106.108516,13.91484],[106.180381,14.022637],[106.045634,14.2023],[106.000719,14.372979],[106.216313,14.363996],[106.252246,14.489759],[106.413942,14.453827],[106.548688,14.588573],[106.629536,14.444844],[106.746317,14.426877],[106.854114,14.292131],[107.04276,14.417894],[107.168523,14.417894],[107.294287,14.588573],[107.447,14.525692],[107.536831,14.687388],[107.482932,14.408911],[107.330219,14.103485],[107.447,13.995688],[107.455983,13.789077],[107.536831,13.735178],[107.617679,13.519583],[107.626662,13.36687],[107.491915,13.034495],[107.56378,12.800934],[107.581746,12.486525],[107.536831,12.333812],[107.438017,12.252964],[107.339202,12.324829],[107.150557,12.279914],[106.934962,12.064319],[106.791232,12.082285],[106.746317,11.983471],[106.413942,11.974488],[106.46784,11.866691],[106.449874,11.678045],[106.297161,11.678045],[106.081567,11.77686],[105.955803,11.642113],[105.883938,11.678045],[105.874955,11.282788],[106.153432,11.103126],[106.189364,10.842616],[106.081567,10.806683],[105.94682,10.914481],[105.928854,10.833633],[105.776141,11.031261],[105.54258,10.950413],[105.416816,10.959396],[105.326985,10.869565],[105.192239,10.914481],[105.219188,11.112109],[105.183255,10.914481],[105.021559,10.896515],[105.102407,10.716852],[104.931728,10.618038],[104.868847,10.519224],[104.59037,10.528207],[104.518505,10.411427],[104.195113,10.321595],[104.195113,10.411427],[103.92562,10.510241],[103.620194,10.231764],[103.503414,9.84549],[103.350701,9.746676],[103.278836,9.683794]]]],"type":"MultiPolygon"},"properties":{"name":"Cambodia","source_feature_id":"marineregions:KH"},"type":"Feature"}
