{"geometry":{"coordinates":[[[[-11.094468,45.731423],[-10.935762,45.514413],[-10.512438,45.003615],[-10.345491,44.826037],[-10.155443,44.651617],[-9.865399,44.423039],[-8.105182,43.176069],[-8.513263,42.739537],[-9.382083,42.419117],[-10.003431,42.243164],[-10.423037,42.138022],[-10.937752,42.033815],[-11.42496,41.892342],[-11.669691,41.850574],[-11.892629,41.835177],[-12.234753,41.875933],[-12.558356,41.959357],[-13.068515,42.144209],[-13.498226,42.337937],[-13.938637,42.634754],[-14.443967,43.009105],[-14.463057,43.484964],[-12.467048,44.77521],[-11.139722,45.7675],[-11.094468,45.731423]]]],"type":"MultiPolygon"},"properties":{"name":"Comores","source_feature_id":"marineregions:KM"},"type":"Feature"}
