{"geometry":{"coordinates":[[[[-62.758264,16.607528],[-62.808794,16.556998],[-62.859324,16.506468],[-63.044601,16.338034],[-63.303136,16.504009],[-63.405232,16.618381],[-63.520059,16.720466],[-63.544287,16.764732],[-63.448841,16.860178],[-63.106241,17.202961],[-62.921612,17.413908],[-62.845656,17.516129],[-62.775108,17.651815],[-62.657377,17.635014],[-62.421398,17.668658],[-62.372943,17.267121],[-62.396362,17.142827],[-62.447849,17.027549],[-62.574954,16.870054],[-62.657204,16.742275],[-62.722893,16.654689],[-62.758264,16.607528]]]],"type":"MultiPolygon"},"properties":{"name":"Saint Kitts and Nevis","source_feature_id":"marineregions:KN"},"type":"Feature"}
