{"geometry":{"coordinates":[[[[128.026186,41.400916],[128.026186,41.384073],[128.043029,41.400916],[128.312522,41.56935],[128.144089,41.72094],[128.076716,42.02412],[128.952569,42.02412],[129.222063,42.310456],[129.306279,42.394673],[129.356809,42.42836],[129.744206,42.462046],[129.845266,42.967346],[130.148446,42.98419],[130.249506,42.697853],[130.552686,42.52942],[130.552686,42.512576],[130.603216,42.42836],[130.620059,42.42836],[130.889553,42.142023],[131.057986,41.535663],[131.108516,41.451446],[130.956926,41.400916],[130.923239,40.878773],[130.788493,40.474533],[130.586373,40.25557],[130.097916,40.00292],[129.811579,39.767113],[129.104159,39.346029],[129.474713,38.874416],[128.868352,38.739669],[128.295679,38.588079],[128.059872,38.301743],[127.790379,38.352273],[127.133489,38.318586],[126.560816,37.762756],[126.207106,37.830129],[126.173419,37.712226],[125.752336,37.729069],[125.499686,37.577479],[125.415469,37.274299],[124.657519,36.971119],[124.893326,37.678539],[124.741736,38.049093],[123.562702,38.217526],[123.832195,38.487019],[124.017472,38.958633],[124.101689,39.666053],[124.337496,40.087136],[124.893326,40.474533],[125.263879,40.65981],[126.038672,40.929303],[126.510286,41.451446],[126.611346,41.67041],[126.914526,41.805156],[127.268236,41.485133],[128.026186,41.400916]]]],"type":"MultiPolygon"},"properties":{"name":"North Korea","source_feature_id":"marineregions:KP"},"type":"Feature"}
