{"geometry":{"coordinates":[[[[129.491556,38.874416],[129.643146,38.588079],[130.013699,38.150153],[130.552686,38.419646],[131.007456,38.453333],[131.428539,38.352273],[131.883309,38.032249],[132.051743,37.712226],[132.051743,37.392203],[131.765406,37.442733],[131.647503,37.122709],[131.900153,37.038493],[131.714876,36.836373],[131.192733,36.583723],[130.569529,36.583723],[130.687433,36.061579],[130.569529,35.556279],[130.266349,35.118352],[129.676833,35.067822],[129.373653,34.966762],[129.053629,34.663582],[129.003099,34.478306],[128.363052,33.754042],[127.874596,33.265586],[127.706162,32.945562],[127.099802,32.440262],[126.409226,32.305516],[125.988142,32.339202],[125.465999,32.591852],[125.196506,32.911876],[125.112289,33.484549],[124.724892,33.602452],[124.354339,33.922476],[124.118532,34.461462],[124.118532,34.899389],[124.320652,35.253099],[124.994386,35.707869],[124.859639,36.095266],[124.960699,36.499506],[124.859639,36.870059],[124.371182,36.903746],[123.798509,37.257456],[123.697449,37.543793],[123.579545,37.846973],[123.562702,38.217526],[124.741736,38.049093],[124.893326,37.678539],[124.657519,36.971119],[125.415469,37.274299],[125.499686,37.577479],[125.752336,37.729069],[126.173419,37.712226],[126.207106,37.830129],[126.560816,37.762756],[127.133489,38.318586],[127.790379,38.352273],[128.059872,38.301743],[128.295679,38.588079],[128.868352,38.739669],[129.491556,38.874416]]]],"type":"MultiPolygon"},"properties":{"name":"South Korea","source_feature_id":"marineregions:KR"},"type":"Feature"}
