{"geometry":{"coordinates":[[[[48.49196,29.694799],[48.74461,29.509522],[48.862513,29.442149],[49.24991,29.273715],[49.367814,28.920005],[48.69408,28.701042],[48.59302,28.633669],[48.44143,28.532609],[47.700323,28.515765],[47.464517,29.004222],[46.554977,29.105282],[46.875,29.442149],[47.144493,29.997979],[47.346613,30.099039],[48.155093,30.031665],[48.475117,29.711642],[48.49196,29.694799]]]],"type":"MultiPolygon"},"properties":{"name":"Kuwait","source_feature_id":"marineregions:KW"},"type":"Feature"}
