{"geometry":{"coordinates":[[[[-78.726943,19.357807],[-79.811217,18.30945],[-80.037188,18.056155],[-80.833056,17.584167],[-82.35,17.584167],[-83.597222,19.465833],[-83.289533,19.687559],[-82.713011,20.056576],[-82.470737,20.186984],[-82.234151,20.288787],[-81.873977,20.410809],[-81.590323,20.479188],[-81.316979,20.504611],[-80.947513,20.490071],[-80.703764,20.568741],[-80.400207,20.633438],[-80.026348,20.519356],[-79.730577,20.458477],[-79.597236,20.412389],[-79.393673,20.311865],[-79.129546,20.129174],[-78.990879,19.999627],[-78.882074,19.87329],[-78.825786,19.747544],[-78.758769,19.524621],[-78.726943,19.357807]]]],"type":"MultiPolygon"},"properties":{"name":"Cayman Islands","source_feature_id":"marineregions:KY"},"type":"Feature"}
