{"geometry":{"coordinates":[[[[102.154824,22.401635],[102.239041,22.233202],[102.609594,21.930022],[102.660124,21.677372],[102.980147,21.744745],[102.879087,21.424722],[102.912774,21.424722],[102.895931,21.172072],[103.081207,20.969951],[103.670724,20.666771],[103.822314,20.868891],[104.293927,20.919421],[104.630794,20.666771],[104.378144,20.447808],[104.664481,20.481495],[104.613951,20.245688],[105.001347,20.094098],[104.647637,19.622485],[104.091807,19.673015],[104.125494,19.487738],[103.872844,19.302461],[104.361301,19.100341],[104.681324,18.830848],[105.186624,18.662415],[105.102407,18.460295],[105.641394,17.988681],[105.742454,17.685501],[106.534091,16.978081],[106.550934,16.691745],[106.769898,16.422251],[107.325728,16.068541],[107.224668,15.849578],[107.393101,15.495868],[107.612064,15.411651],[107.544691,14.687388],[107.527848,14.687388],[107.140451,14.401051],[106.854114,14.299991],[106.550934,14.586328],[106.466718,14.518954],[105.995104,14.367364],[106.180381,14.064184],[106.113008,13.912594],[105.792984,14.081028],[105.355057,14.097871],[105.203467,14.350521],[105.540334,14.552641],[105.557178,15.057941],[105.472961,15.175844],[105.641394,15.664301],[105.338214,15.900108],[105.422431,16.018011],[105.035034,16.119071],[104.731854,16.540155],[104.799227,17.399165],[104.260241,17.870778],[103.990747,18.325548],[103.350701,18.443451],[103.030677,17.971838],[102.592751,17.837091],[102.087451,18.224488],[101.919017,18.039211],[101.396874,17.736031],[101.161067,17.466538],[100.975791,17.567598],[101.026321,17.887621],[101.177911,18.039211],[101.060007,18.443451],[101.278971,18.696101],[101.363187,19.049811],[101.194754,19.386678],[101.278971,19.588798],[100.908417,19.622485],[100.77367,19.487738],[100.504177,19.521425],[100.403117,19.757231],[100.504177,20.144628],[100.335744,20.397278],[100.083094,20.363591],[100.184154,20.666771],[100.57155,20.818361],[100.72314,21.306818],[101.161067,21.559468],[101.262127,21.188915],[101.548464,21.256288],[101.733741,21.138385],[101.767427,21.828962],[101.565307,22.283732],[101.767427,22.502695],[102.137981,22.401635],[102.154824,22.401635]]]],"type":"MultiPolygon"},"properties":{"name":"Laos","source_feature_id":"marineregions:LA"},"type":"Feature"}
