{"geometry":{"coordinates":[[[[34.482,34.164],[34.568,34.242],[34.712,34.371],[34.963,34.812],[35.673,34.698],[35.84,34.599],[35.99,34.651],[36.278,34.628],[36.329,34.691],[36.462,34.636],[36.345,34.499],[36.439,34.504],[36.55,34.423],[36.523,34.367],[36.623,34.195],[36.282,33.909],[36.39,33.832],[36.154,33.846],[36.008,33.771],[35.936,33.639],[36.066,33.576],[35.625,33.242],[35.567,33.289],[35.504,33.089],[35.366,33.049],[35.317,33.105],[35.079,33.096],[34.116,33.421],[34.481794,34.163543],[34.482,34.164]]]],"type":"MultiPolygon"},"properties":{"name":"Lebanon","source_feature_id":"marineregions:LB"},"type":"Feature"}
