{"geometry":{"coordinates":[[[[9.571868,47.059825],[9.568711,47.057806],[9.565997,47.046907],[9.563288,47.044326],[9.559607,47.04345],[9.552425,47.045319],[9.550545,47.04857],[9.549496,47.056079],[9.547142,47.058996],[9.543558,47.060184],[9.486623,47.061281],[9.487339,47.064672],[9.495418,47.072747],[9.502094,47.076309],[9.51325,47.07827],[9.51571,47.081089],[9.516484,47.134324],[9.515076,47.141676],[9.512061,47.143907],[9.504545,47.14493],[9.501363,47.146924],[9.498635,47.157824],[9.495949,47.160431],[9.488475,47.161574],[9.485079,47.163187],[9.483176,47.16642],[9.483727,47.192961],[9.487438,47.199556],[9.497469,47.21095],[9.500889,47.225621],[9.503782,47.227998],[9.514557,47.2309],[9.520061,47.248743],[9.533327,47.262397],[9.54687,47.249208],[9.553702,47.246081],[9.564616,47.243799],[9.566583,47.240637],[9.567176,47.21799],[9.568575,47.214519],[9.571634,47.212397],[9.579096,47.211384],[9.582205,47.209339],[9.583667,47.2059],[9.582842,47.198505],[9.580161,47.195932],[9.569349,47.193217],[9.56742,47.190022],[9.567014,47.171142],[9.568613,47.163913],[9.571702,47.161834],[9.594341,47.161201],[9.597855,47.159913],[9.600084,47.156938],[9.601113,47.14948],[9.603049,47.146295],[9.613859,47.143592],[9.616543,47.141014],[9.618318,47.114787],[9.62076,47.111982],[9.631623,47.109349],[9.633821,47.106341],[9.634387,47.087488],[9.633104,47.080151],[9.630207,47.077815],[9.619498,47.074944],[9.617823,47.071605],[9.617544,47.060277],[9.571868,47.059825]]]],"type":"MultiPolygon"},"properties":{"name":"Liechtenstein","source_feature_id":"marineregions:LI"},"type":"Feature"}
