{"geometry":{"coordinates":[[[[4.79,77.023333],[4.512468,77.16858],[4.26816,77.320734],[3.869854,77.629573],[3.682163,77.810429],[3.494103,78.021144],[3.200184,78.414826],[2.984933,78.795247],[2.818795,79.207774],[2.664047,79.753379],[2.576905,80.328334],[2.566529,80.576941],[2.575653,80.838359],[2.603937,81.089268],[2.653972,81.349553],[2.805405,81.852373],[3.110418,82.621843],[3.285038,82.975337],[3.523091,83.342908],[3.835814,83.753409],[4.180767,84.119653],[4.518284,84.400125],[4.936615,84.668247],[5.284315,84.84152],[5.77148,85.025808],[6.364407,85.165712],[6.711868,85.217531],[7.072726,85.232673],[7.671251,85.205953],[8.139555,85.125745],[8.744126,84.948006],[9.104002,84.795948],[9.511474,84.566303],[9.944046,84.395672],[10.196651,84.261193],[10.564714,84.027695],[10.883366,83.789019],[11.221659,83.578649],[11.448825,83.402472],[11.266667,82.406667],[11.045,81.933333],[10.695,81.041667],[10.55,80.766667],[10.096667,80.083333],[9.95,79.583333],[9.669167,79.376667],[9.363333,79.511667],[9.216667,79.533333],[9.0,79.521667],[8.896667,79.488333],[8.666667,79.303333],[8.52,79.078333],[8.37,78.923333],[7.588333,78.761667],[7.35,78.646667],[6.513333,78.203333],[5.898333,77.845],[4.79,77.023333]]]],"type":"MultiPolygon"},"properties":{"name":"Sri Lanka","source_feature_id":"marineregions:LK"},"type":"Feature"}
