{"geometry":{"coordinates":[[[[-11.642113,6.701401],[-11.507366,6.925979],[-11.417535,6.934962],[-11.354653,7.132591],[-11.183974,7.258354],[-11.103126,7.393101],[-10.842616,7.545814],[-10.698886,7.743442],[-10.609055,7.779375],[-10.609055,8.039885],[-10.474308,8.156665],[-10.294646,8.22853],[-10.285663,8.489041],[-10.043119,8.498024],[-10.061085,8.426159],[-9.773626,8.551922],[-9.477183,8.37226],[-9.513115,8.174632],[-9.405318,7.985986],[-9.432267,7.887172],[-9.351419,7.779375],[-9.360402,7.626662],[-9.4682,7.393101],[-9.288538,7.429033],[-9.099892,7.213439],[-8.92023,7.285304],[-8.857348,7.258354],[-8.713618,7.509881],[-8.668703,7.698527],[-8.560905,7.698527],[-8.471074,7.554797],[-8.390226,7.312253],[-8.282429,7.186489],[-8.327345,6.800216],[-8.605821,6.503773],[-8.390226,6.449874],[-8.174632,6.279195],[-7.994969,6.315128],[-7.82429,6.189364],[-7.85124,6.081567],[-7.698527,5.901904],[-7.429033,5.839023],[-7.375135,5.623428],[-7.429033,5.389867],[-7.384118,5.380884],[-7.42005,5.264103],[-7.473949,5.28207],[-7.473949,5.147323],[-7.554797,5.084441],[-7.56378,4.383759],[-7.527848,4.374775],[-7.536831,4.087316],[-7.482932,3.449515],[-7.977003,3.512397],[-8.300395,3.656126],[-8.63277,3.763924],[-9.620913,4.293927],[-9.926338,4.518505],[-10.27668,4.859863],[-10.806683,5.335968],[-11.282788,5.551563],[-11.534315,5.80309],[-11.740927,5.901904],[-11.938556,6.054617],[-12.136184,6.261229],[-12.01042,6.378009],[-11.642113,6.701401]]]],"type":"MultiPolygon"},"properties":{"name":"Liberia","source_feature_id":"marineregions:LR"},"type":"Feature"}
