{"geometry":{"coordinates":[[[[-28.617561,28.701653],[-28.573272,28.651634],[-28.607776,28.591087],[-28.601253,28.524996],[-28.617046,28.507984],[-28.605373,28.474743],[-28.621509,28.409814],[-28.702877,28.349907],[-28.692234,28.305274],[-28.714206,28.28061],[-28.69498,28.233045],[-28.710773,28.196444],[-28.693607,28.183526],[-28.707855,28.184309],[-28.705966,28.16689],[-28.730471,28.156728],[-28.722618,28.15006],[-28.744934,28.130872],[-28.740899,28.119111],[-28.8148,28.075421],[-28.817546,28.051508],[-28.841922,28.054644],[-28.85926,28.024263],[-28.878314,28.029547],[-28.871448,27.995821],[-28.882606,27.990526],[-28.84793,27.938594],[-28.860118,27.918402],[-28.87677,27.920565],[-28.878829,27.893106],[-28.894107,27.899971],[-28.916595,27.887419],[-28.902631,27.850434],[-28.91505,27.839378],[-28.90372,27.829966],[-28.921402,27.817024],[-28.897197,27.754261],[-28.937194,27.762109],[-28.948867,27.723257],[-28.975646,27.722864],[-28.981826,27.707751],[-29.010665,27.71305],[-29.003284,27.685767],[-29.044139,27.672599],[-29.045513,27.641566],[-29.076068,27.676134],[-29.080531,27.64078],[-29.116751,27.646172],[-29.136236,27.601267],[-29.163616,27.614649],[-29.166019,27.580428],[-29.1837,27.575708],[-29.223869,27.514334],[-29.240348,27.521416],[-29.2467,27.547975],[-29.259574,27.540882],[-29.284294,27.49403],[-29.300945,27.49029],[-29.297426,27.454249],[-29.318626,27.472967],[-29.334247,27.436126],[-29.373729,27.431595],[-29.365489,27.40579],[-29.402053,27.425285],[-29.410636,27.396306],[-29.44102,27.380339],[-29.452865,27.356467],[-29.485824,27.360412],[-29.481017,27.327865],[-29.495952,27.306365],[-29.534061,27.305576],[-29.532688,27.258794],[-29.554489,27.245966],[-29.543331,27.222025],[-29.568908,27.20235],[-29.559639,27.157545],[-29.6156,27.083315],[-29.597576,27.066139],[-29.637058,27.05704],[-29.613197,27.034322],[-29.619033,27.01753],[-29.639289,27.028198],[-29.661262,27.013777],[-29.744346,27.103718],[-30.011966,27.222345],[-30.056083,27.298092],[-30.147579,27.326458],[-30.141914,27.401468],[-30.152213,27.410997],[-30.176933,27.380998],[-30.193241,27.385568],[-30.193241,27.367886],[-30.273063,27.367078],[-30.281989,27.388354],[-30.300701,27.3804],[-30.305336,27.395314],[-30.325076,27.375075],[-30.3372,27.383079],[-30.317287,27.470779],[-30.373077,27.489086],[-30.38784,27.509979],[-30.38475,27.535249],[-30.427837,27.571334],[-30.44466,27.567352],[-30.448608,27.604382],[-30.497017,27.610946],[-30.540791,27.690436],[-30.559502,27.694022],[-30.606194,27.748638],[-30.61821,27.786916],[-30.613918,27.884271],[-30.662327,27.89967],[-30.645504,27.945182],[-30.658722,28.018033],[-30.65134,28.081114],[-30.671253,28.120638],[-30.6007,28.114657],[-30.584393,28.150546],[-30.529289,28.164288],[-30.525684,28.176039],[-30.495472,28.18062],[-30.467319,28.155325],[-30.437622,28.183608],[-30.418053,28.258016],[-30.352478,28.269553],[-30.316944,28.242315],[-30.305958,28.213089],[-30.286732,28.208119],[-30.257549,28.245497],[-30.255661,28.305455],[-30.238667,28.315387],[-30.2318,28.345382],[-30.174809,28.361057],[-30.164337,28.388451],[-30.143566,28.397782],[-30.158501,28.45674],[-30.12228,28.557719],[-30.139789,28.677195],[-30.108376,28.749244],[-30.109062,28.793487],[-30.091381,28.852621],[-30.038338,28.944415],[-30.03027,28.990003],[-29.986496,29.037583],[-29.962978,29.103382],[-29.936886,29.109731],[-29.915943,29.173096],[-29.883671,29.163591],[-29.846592,29.099883],[-29.828053,29.130744],[-29.798355,29.122435],[-29.678364,29.159971],[-29.644203,29.225145],[-29.64592,29.280222],[-29.615021,29.292859],[-29.586525,29.283579],[-29.574852,29.32504],[-29.518375,29.292933],[-29.513741,29.306148],[-29.488335,29.294313],[-29.443188,29.402935],[-29.370747,29.449046],[-29.348431,29.441754],[-29.330578,29.45455],[-29.310665,29.43762],[-29.26878,29.439202],[-29.255733,29.420517],[-29.21608,29.408519],[-29.190331,29.347941],[-29.130592,29.357603],[-29.080467,29.313998],[-29.075661,29.281],[-29.089908,29.243878],[-29.079609,29.250556],[-29.048538,29.214053],[-29.018497,29.205023],[-28.979187,29.126148],[-28.966999,29.128894],[-28.93919,29.080055],[-28.919964,29.073779],[-28.912754,29.040435],[-28.886833,29.026332],[-28.916702,28.980844],[-28.870697,28.960256],[-28.86383,28.942218],[-28.827267,28.945179],[-28.81731,28.925591],[-28.803921,28.947138],[-28.780231,28.936365],[-28.76152,28.90522],[-28.772507,28.874859],[-28.75695,28.856784],[-28.773086,28.811202],[-28.710601,28.804155],[-28.672493,28.703609],[-28.617561,28.701653]]]],"type":"MultiPolygon"},"properties":{"name":"Lesotho","source_feature_id":"marineregions:LS"},"type":"Feature"}
