{"geometry":{"coordinates":[[[[21.064,56.069],[21.065,56.069],[21.138,56.08],[21.157,56.085],[21.202,56.077],[21.235,56.163],[21.499,56.295],[22.016,56.425],[22.677,56.352],[22.969,56.416],[23.096,56.305],[23.304,56.382],[23.544,56.333],[23.764,56.372],[23.763,56.324],[24.019,56.329],[24.122,56.249],[24.577,56.288],[24.63,56.376],[24.888,56.45],[25.089,56.188],[25.677,56.148],[25.689,56.086],[26.042,55.958],[26.376,55.711],[26.629,55.68],[26.646,55.578],[26.527,55.509],[26.554,55.389],[26.443,55.346],[26.836,55.287],[26.669,55.156],[26.261,55.121],[26.209,54.997],[25.883,54.937],[25.783,54.858],[25.735,54.795],[25.761,54.581],[25.532,54.342],[25.705,54.303],[25.784,54.238],[25.782,54.154],[25.53,54.158],[25.59,54.232],[25.496,54.31],[25.232,54.263],[25.068,54.134],[24.813,54.144],[24.773,54.114],[24.871,54.038],[24.838,54.005],[24.698,53.964],[24.674,54.017],[24.417,53.897],[24.2,53.97],[23.977,53.924],[23.917,53.971],[23.795,53.899],[23.515,53.956],[23.489,54.149],[23.383,54.228],[23.044,54.316],[22.982,54.39],[22.848,54.41],[22.793,54.366],[22.671,54.525],[22.757,54.651],[22.731,54.717],[22.886,54.814],[22.846,54.898],[22.65,54.966],[22.585,55.07],[22.076,55.025],[22.035,55.084],[21.499,55.187],[21.383,55.295],[21.263,55.222],[21.196,55.273],[21.09,55.239],[19.924,55.636],[19.483536,55.78089],[19.443,56.045],[20.71,56.045],[21.064,56.069]]]],"type":"MultiPolygon"},"properties":{"name":"Lithuania","source_feature_id":"marineregions:LT"},"type":"Feature"}
