{"geometry":{"coordinates":[[[[6.030599,50.167694],[6.061168,50.156708],[6.076184,50.170784],[6.112921,50.168724],[6.107615,50.142803],[6.138878,50.133639],[6.116711,50.074139],[6.12915,50.07328],[6.112832,50.06032],[6.145036,50.022383],[6.130074,50.018005],[6.14946,50.005646],[6.141493,49.995432],[6.171064,49.985486],[6.177771,49.954233],[6.192512,49.96773],[6.238868,49.896469],[6.312386,49.868585],[6.323382,49.837246],[6.364136,49.85055],[6.429207,49.810596],[6.470223,49.822225],[6.511078,49.801798],[6.530092,49.80875],[6.506425,49.789867],[6.519189,49.761457],[6.50058,49.752188],[6.501908,49.734335],[6.516647,49.722233],[6.4958,49.72558],[6.507087,49.712448],[6.428572,49.666443],[6.440672,49.655972],[6.421209,49.619164],[6.37503,49.59092],[6.381919,49.576677],[6.358039,49.572895],[6.382725,49.556963],[6.356617,49.531882],[6.369077,49.459439],[6.304521,49.477265],[6.24039,49.514938],[6.128395,49.491953],[6.097275,49.452317],[6.068858,49.464784],[6.040904,49.448111],[5.984052,49.452016],[5.970765,49.490844],[5.870381,49.49903],[5.836829,49.523771],[5.847357,49.530272],[5.838215,49.542063],[5.812866,49.542138],[5.87276,49.573123],[5.874512,49.586792],[5.848075,49.594898],[5.876676,49.60723],[5.911477,49.66382],[5.865719,49.676211],[5.886408,49.70902],[5.865055,49.726133],[5.825891,49.723772],[5.833468,49.740708],[5.79164,49.794347],[5.753427,49.794229],[5.741059,49.837847],[5.75646,49.845861],[5.753742,49.871578],[5.782304,49.872521],[5.740161,49.906082],[5.76253,49.91724],[5.775548,49.961529],[5.834258,49.980927],[5.819314,50.011139],[5.860916,50.031567],[5.868935,50.047359],[5.855035,50.064011],[5.884706,50.078087],[5.899125,50.114307],[5.9567,50.13319],[5.971161,50.175076],[6.023626,50.186062],[6.030599,50.167694]]]],"type":"MultiPolygon"},"properties":{"name":"Grand Duchy of Luxembourg","source_feature_id":"marineregions:LU"},"type":"Feature"}
