{"geometry":{"coordinates":[[[[20.066,57.563],[20.415,57.912],[20.396,58.024],[21.916,57.749],[22.708,57.941],[23.181,57.586],[23.406,57.594],[23.596,57.692],[23.648,57.783],[23.62,57.854],[23.601,57.899],[24.289,57.905],[24.333,57.885],[24.42,57.868],[24.527,57.945],[24.835,57.972],[25.108,58.077],[25.207,58.083],[25.291,57.993],[25.29,58.079],[25.828,57.86],[26.055,57.847],[26.016,57.769],[26.184,57.721],[26.312,57.586],[26.616,57.508],[26.919,57.634],[27.351,57.518],[27.556,57.537],[27.528,57.43],[27.871,57.298],[27.817,57.14],[27.724,57.102],[27.769,57.085],[27.714,57.004],[27.767,57.004],[27.657,56.852],[27.968,56.839],[27.899,56.752],[28.013,56.687],[28.042,56.591],[28.15,56.575],[28.095,56.516],[28.195,56.447],[28.17,56.377],[28.241,56.286],[28.149,56.171],[27.653,55.93],[27.617,55.787],[27.287,55.785],[27.127,55.851],[26.779,55.679],[26.629,55.68],[26.376,55.711],[26.042,55.958],[25.689,56.086],[25.677,56.148],[25.089,56.188],[24.888,56.45],[24.63,56.376],[24.577,56.288],[24.122,56.249],[24.019,56.329],[23.763,56.324],[23.764,56.372],[23.544,56.333],[23.304,56.382],[23.096,56.305],[22.969,56.416],[22.677,56.352],[22.016,56.425],[21.499,56.295],[21.235,56.163],[21.202,56.077],[21.157,56.085],[21.138,56.08],[21.065,56.069],[21.064,56.069],[21.046,56.068],[20.71,56.045],[19.443,56.045],[19.418,56.583],[20.036,57.445],[20.066,57.563]]],[[[26.312,57.586],[26.314,57.588],[26.317,57.588],[26.312,57.586]]]],"type":"MultiPolygon"},"properties":{"name":"Latvia","source_feature_id":"marineregions:LV"},"type":"Feature"}
