{"geometry":{"coordinates":[[[[23.997882,19.500904],[21.705591,20.711632],[19.589122,21.775417],[18.63952,22.229129],[16.000489,23.445683],[14.97219,22.977562],[14.900882,22.96649],[14.883265,22.934432],[14.810044,22.92366],[14.795217,22.896709],[14.755075,22.877913],[14.710452,22.873106],[14.67711,22.847528],[14.651403,22.858171],[14.615936,22.830276],[14.182925,22.633209],[13.673591,23.071461],[13.46756,23.18407],[13.350288,23.220119],[12.000768,23.500614],[11.892527,23.598633],[11.353966,24.245453],[11.138175,24.38879],[11.046583,24.428272],[10.947205,24.533501],[10.831538,24.572296],[10.766619,24.51273],[10.740116,24.521871],[10.725688,24.567661],[10.706438,24.574871],[10.612261,24.575386],[10.589802,24.560966],[10.586216,24.541225],[10.549979,24.535046],[10.363885,24.536934],[10.301916,24.596586],[10.218337,24.645488],[10.195622,24.681403],[10.198074,24.705741],[10.102251,24.846783],[10.092792,24.890041],[10.031747,24.957075],[10.027105,25.323315],[9.363614,26.234579],[9.437153,26.228786],[9.479014,26.25226],[9.495859,26.271229],[9.513436,26.38401],[9.866177,26.520996],[9.915694,26.64957],[9.926672,26.751537],[9.949389,26.794882],[9.94177,26.875992],[9.863396,26.934642],[9.831754,27.070312],[9.836797,27.102242],[9.800551,27.166271],[9.815409,27.191248],[9.782953,27.281284],[9.799561,27.355785],[9.786999,27.3563],[9.818686,27.421875],[9.821781,27.460155],[9.831453,27.486763],[9.870529,27.503929],[9.8802,27.560577],[9.828117,27.560749],[9.822502,27.573109],[9.8711,27.58564],[9.894334,27.607269],[9.944921,27.726917],[9.946438,27.837467],[9.964858,27.866993],[9.910256,28.0517],[9.85825,28.165512],[9.819201,28.237782],[9.770684,28.264132],[9.839192,28.333568],[9.90263,28.752766],[9.868574,29.051113],[9.785453,29.42688],[9.665492,29.684801],[9.601744,29.735355],[9.575757,29.792004],[9.511533,29.871655],[9.460382,29.987698],[9.413707,30.042114],[9.39203,30.160561],[9.415066,30.18322],[9.611599,30.241756],[9.660697,30.274887],[9.820013,30.339432],[9.90314,30.354881],[10.218382,30.707989],[10.30381,30.900936],[10.27156,31.039124],[10.283984,31.08427],[10.258091,31.131306],[10.255684,31.183147],[10.209099,31.259022],[10.129054,31.46759],[10.30371,31.700706],[10.387677,31.738644],[10.470574,31.732979],[10.50035,31.754436],[10.529016,31.74139],[10.57284,31.811428],[10.62725,31.862068],[10.634729,31.884727],[10.61793,31.913738],[10.645856,31.97073],[10.66589,31.980171],[10.714864,31.969013],[10.796034,31.997509],[10.862899,32.084541],[10.864318,32.10823],[10.983395,32.179127],[11.159601,32.262211],[11.347909,32.320232],[11.436524,32.372761],[11.468854,32.370186],[11.546964,32.409325],[11.592124,32.453785],[11.592528,32.532406],[11.494222,32.610083],[11.476926,32.652998],[11.503803,32.828468],[11.492689,32.845688],[11.492689,32.924223],[11.527203,32.990913],[11.526099,33.073997],[11.561389,33.175008],[12.14702,34.177011],[13.646328,35.129743],[13.7531,34.696475],[14.070833,34.619722],[14.398333,34.568611],[14.623333,34.538333],[15.166667,34.498056],[15.17098,34.214136],[15.184554,34.213289],[15.453102,34.254671],[15.817049,34.337207],[16.086054,34.41621],[16.497472,34.561944],[16.877243,34.729947],[17.497259,35.064406],[17.937436,35.24762],[18.304517,35.425145],[18.586211,35.320727],[19.239662,35.126669],[19.745277,34.949088],[20.521042,34.864696],[20.991992,34.852609],[21.339311,34.796407],[21.941623,34.474943],[22.719301,34.156584],[23.108383,33.934769],[23.3515,33.816529],[24.46253,33.447984],[24.553335,33.444046],[24.818489,33.482307],[25.151278,33.469465],[25.741737,33.359649],[25.378814,33.280061],[25.378814,31.706797],[25.336153,31.664353],[25.137263,31.650796],[25.144686,31.665456],[25.134616,31.668434],[25.084791,31.610756],[25.080762,31.552048],[24.979491,31.495571],[24.857409,31.401672],[24.885361,31.264172],[24.874345,31.140232],[24.988092,30.889606],[25.010692,30.780258],[24.97977,30.650482],[24.947855,30.588384],[24.942606,30.512424],[24.859124,30.395265],[24.774585,30.319691],[24.696752,30.155582],[24.754648,30.092411],[24.823009,29.892769],[24.815695,29.792175],[24.89969,29.62429],[24.859428,29.56953],[24.866322,29.513741],[24.995882,29.26878],[24.997081,28.373394],[25.019913,27.967758],[25.012943,26.993408],[24.997864,26.656093],[24.998414,19.999355],[23.998253,19.999237],[23.997882,19.500904]]]],"type":"MultiPolygon"},"properties":{"name":"Libya","source_feature_id":"marineregions:LY"},"type":"Feature"}
