{"geometry":{"coordinates":[[[[-5.271964,35.808929],[-4.682447,35.808929],[-3.94134,35.994206],[-3.419197,35.674183],[-2.37491,35.758399],[-2.12226,35.893146],[-2.054887,35.640496],[-2.206477,35.034136],[-1.751707,34.747799],[-1.785393,34.394089],[-1.650647,34.107752],[-1.734863,33.737199],[-1.600117,33.619296],[-1.66749,33.265586],[-1.46537,33.080309],[-1.549587,32.962406],[-1.381153,32.743442],[-0.993757,32.507636],[-1.246407,32.339202],[-1.280093,32.170769],[-1.26325,32.069709],[-1.852767,32.052866],[-2.391754,32.103396],[-2.913897,32.002336],[-3.149704,31.715999],[-3.655004,31.614939],[-3.63816,31.395976],[-3.78975,31.126482],[-3.570787,30.907519],[-4.025557,30.856989],[-4.210834,30.739086],[-4.80035,30.654869],[-5.10353,30.014822],[-6.029914,29.694799],[-6.434154,29.711642],[-6.602587,29.576895],[-7.006827,29.644269],[-7.461597,29.391619],[-7.646874,29.408462],[-8.000584,29.105282],[-8.674317,28.734729],[-8.674317,27.673599],[-13.205174,27.673599],[-13.659944,27.842032],[-13.154644,28.498922],[-12.464068,28.903162],[-12.110358,29.071595],[-11.807178,29.357932],[-11.217661,29.711642],[-10.796577,30.250629],[-10.914481,30.587496],[-10.830264,31.665469],[-10.628144,32.120239],[-10.324964,32.473949],[-10.274434,32.827659],[-10.072314,33.147682],[-9.398581,33.787729],[-8.724847,34.208812],[-7.680561,34.613052],[-7.360537,35.135196],[-7.074201,35.808929],[-6.16466,35.943676],[-5.373024,35.909989],[-5.271964,35.808929]]]],"type":"MultiPolygon"},"properties":{"name":"Morocco","source_feature_id":"marineregions:MA"},"type":"Feature"}
