{"geometry":{"coordinates":[[[[7.418592,43.724616],[7.408036,43.728538],[7.408465,43.730006],[7.409297,43.731471],[7.411478,43.733947],[7.412762,43.734279],[7.413189,43.734137],[7.413427,43.734137],[7.41357,43.734802],[7.413855,43.735562],[7.413712,43.73618],[7.41357,43.736561],[7.413807,43.736846],[7.41395,43.737131],[7.41395,43.737701],[7.421269,43.742264],[7.421459,43.742216],[7.421982,43.742454],[7.422315,43.742692],[7.4226,43.742929],[7.422695,43.743214],[7.4226,43.743405],[7.423978,43.744117],[7.425138,43.742901],[7.425635,43.743398],[7.425914,43.743538],[7.426612,43.743956],[7.427139,43.74439],[7.427465,43.744933],[7.427822,43.745244],[7.428395,43.745461],[7.428659,43.745709],[7.429047,43.746624],[7.429466,43.747151],[7.429636,43.74757],[7.429646,43.747657],[7.429729,43.748395],[7.429931,43.748671],[7.430318,43.749028],[7.430627,43.749495],[7.431094,43.750207],[7.431373,43.750362],[7.431652,43.750331],[7.432056,43.75123],[7.432428,43.751106],[7.432878,43.750967],[7.433343,43.751075],[7.433731,43.751277],[7.43401,43.75137],[7.434404,43.751323],[7.434801,43.751277],[7.435065,43.751308],[7.435421,43.75137],[7.435732,43.751587],[7.435933,43.751711],[7.436259,43.751634],[7.436709,43.751525],[7.437057,43.751732],[7.437624,43.752068],[7.437965,43.75227],[7.438151,43.752502],[7.438198,43.752812],[7.438012,43.753107],[7.437918,43.753278],[7.437965,43.753495],[7.438151,43.753712],[7.438508,43.753371],[7.438911,43.753014],[7.439113,43.752797],[7.439314,43.752487],[7.439283,43.752239],[7.439092,43.751959],[7.439044,43.751579],[7.439013,43.751181],[7.438964,43.75092],[7.438895,43.750625],[7.438818,43.750067],[7.439092,43.749868],[7.439187,43.749583],[7.439282,43.749393],[7.439514,43.74927],[7.440121,43.749511],[7.440604,43.749837],[7.4535,43.743194],[7.459811,43.727113],[7.460568,43.725183],[7.528333,43.5525],[7.756944,42.966389],[7.723889,42.946389],[7.496667,43.529444],[7.465621,43.608531],[7.41979,43.72528],[7.418592,43.724616]]]],"type":"MultiPolygon"},"properties":{"name":"Monaco","source_feature_id":"marineregions:MC"},"type":"Feature"}
