{"geometry":{"coordinates":[[[[30.093424,46.379806],[29.895796,46.352857],[29.779015,46.451671],[29.599353,46.352857],[29.437657,46.496586],[29.240029,46.415738],[29.240029,46.559468],[28.934603,46.460654],[28.952569,46.263026],[29.06935,46.191161],[28.952569,46.092346],[28.979519,46.002515],[28.754941,45.9576],[28.78189,45.831836],[28.593245,45.777937],[28.485447,45.688106],[28.512397,45.499461],[28.305785,45.544377],[28.215954,45.472512],[28.215954,45.463529],[28.162055,45.742005],[28.108157,45.81387],[28.144089,46.191161],[28.11714,46.200144],[28.108157,46.245059],[28.224937,46.397772],[28.251886,46.604384],[28.189005,46.730147],[28.045275,47.02659],[27.784765,47.14337],[27.802731,47.14337],[27.793748,47.152354],[27.730866,47.296083],[27.470356,47.484729],[27.290693,47.664391],[27.290693,47.745239],[27.218829,47.817104],[27.227812,47.83507],[27.030183,48.131513],[27.0212,48.140496],[27.0212,48.131513],[26.931369,48.203378],[26.634926,48.257276],[26.634926,48.266259],[26.61696,48.275243],[26.706791,48.401006],[27.003234,48.356091],[27.290693,48.374057],[27.605102,48.490837],[27.757815,48.454905],[27.964427,48.320158],[28.09019,48.302192],[28.197988,48.203378],[28.359684,48.248293],[28.350701,48.131513],[28.566295,48.176428],[28.853755,48.113547],[28.92562,47.960834],[29.168164,47.996766],[29.275961,47.888969],[29.204096,47.71829],[29.195113,47.421847],[29.320877,47.448796],[29.401725,47.305066],[29.572404,47.367948],[29.554438,47.251168],[29.599353,46.963708],[29.752066,46.855911],[29.886813,46.88286],[29.967661,46.775063],[29.949695,46.559468],[30.093424,46.433705],[30.093424,46.379806]]]],"type":"MultiPolygon"},"properties":{"name":"Moldova","source_feature_id":"marineregions:MD"},"type":"Feature"}
