{"geometry":{"coordinates":[[[[41.974926,19.376306],[42.036788,19.370817],[42.103987,19.403796],[42.180164,19.282076],[42.326996,19.423106],[42.351951,19.41489],[42.371628,19.424906],[42.39227,19.471454],[42.493041,19.558176],[42.51466,19.562339],[42.541299,19.613702],[42.57575,19.609908],[42.628146,19.663277],[42.660132,19.722226],[42.637676,19.755216],[42.614036,19.751051],[42.58172,19.77719],[42.581291,19.752364],[42.544019,19.744251],[42.501131,19.766401],[42.468982,19.819455],[42.496651,19.877718],[42.48788,19.897903],[42.507514,19.905308],[42.518297,19.939694],[42.510894,20.003662],[42.543724,20.0159],[42.555568,20.079013],[42.583769,20.08787],[42.620848,20.076439],[42.655363,20.113602],[42.697506,20.035475],[42.710348,20.034862],[42.710037,20.015687],[42.718899,20.031288],[42.729328,20.015122],[42.764958,20.020776],[42.779056,20.058118],[42.75424,20.145979],[42.769689,20.155052],[42.746322,20.189374],[42.751193,20.239815],[42.780805,20.266266],[42.814386,20.255008],[42.835843,20.300059],[42.832907,20.358441],[42.868888,20.342615],[42.896354,20.349787],[42.957916,20.190479],[42.988815,20.154823],[42.963838,20.120569],[42.975512,20.089716],[43.027096,20.045715],[43.054047,19.99124],[43.110266,19.970212],[43.085584,19.916832],[43.108034,19.864429],[43.092413,19.838924],[43.104601,19.827286],[43.115244,19.83622],[43.126402,19.78355],[43.16539,19.770563],[43.169403,19.686307],[43.185539,19.674773],[43.190346,19.640406],[43.22648,19.62333],[43.246972,19.545726],[43.274868,19.529963],[43.310509,19.536012],[43.342996,19.461826],[43.384731,19.445007],[43.411231,19.359244],[43.436852,19.334061],[43.479595,19.222021],[43.527403,19.217698],[43.535986,19.150826],[43.500624,19.054117],[43.529549,19.040998],[43.557358,18.996835],[43.52714,18.979737],[43.504057,18.917304],[43.480647,18.954093],[43.451872,18.954454],[43.445684,19.01062],[43.362951,19.042034],[43.320304,19.085491],[43.308395,19.034841],[43.268795,19.043132],[43.239956,19.026629],[43.289137,18.954461],[43.329746,18.958812],[43.360001,18.913832],[43.348488,18.839155],[43.326044,18.85263],[43.254729,18.689096],[43.230643,18.716292],[43.203735,18.675646],[43.143664,18.652673],[43.045238,18.655923],[43.032374,18.543666],[42.995907,18.495093],[42.929935,18.484768],[42.885679,18.510248],[42.854995,18.468868],[42.829621,18.475968],[42.820523,18.456604],[42.793336,18.461279],[42.755527,18.471885],[42.736076,18.499953],[42.730636,18.562166],[42.700081,18.55913],[42.642142,18.582151],[42.602277,18.536836],[42.579639,18.553304],[42.5879,18.499114],[42.557108,18.438522],[42.515695,18.452749],[42.484989,18.43282],[42.401767,18.543456],[42.345464,18.543288],[41.906979,18.26665],[41.629702,18.018299],[41.441751,18.321493],[41.54901,18.748735],[41.67048,19.130623],[41.704094,19.322174],[41.884235,19.38156],[41.906068,19.342159],[41.922972,19.371666],[41.955375,19.35059],[41.965301,19.387923],[41.974926,19.376306]]]],"type":"MultiPolygon"},"properties":{"name":"Montenegro","source_feature_id":"marineregions:ME"},"type":"Feature"}
