{"geometry":{"coordinates":[[[[-63.616919,17.956726],[-63.606244,17.961123],[-63.464113,18.038745],[-63.21471,18.089663],[-62.949491,18.17205],[-62.88785,18.18788],[-62.864916,18.187975],[-62.741421,18.157115],[-62.776988,18.133392],[-62.800018,18.10843],[-62.831167,18.094748],[-62.848811,18.076272],[-62.882227,18.071751],[-62.903269,18.057387],[-62.919695,18.053164],[-62.960384,18.022368],[-62.977442,18.025104],[-63.007938,18.051846],[-63.018828,18.05572],[-63.071125,18.055296],[-63.075878,18.052091],[-63.081711,18.042088],[-63.086939,18.039809],[-63.097893,18.043294],[-63.117523,18.05529],[-63.134928,18.055992],[-63.146007,18.052786],[-63.154526,18.044973],[-63.208944,17.976692],[-63.231795,17.936176],[-63.280408,17.870778],[-63.330938,17.887621],[-63.381468,17.887621],[-63.634118,17.954995],[-63.616919,17.956726]]]],"type":"MultiPolygon"},"properties":{"name":"Collectivity of Saint Martin","source_feature_id":"marineregions:MF"},"type":"Feature"}
