{"geometry":{"coordinates":[[[[42.528708,-21.306244],[42.613691,-21.008832],[42.700129,-20.857861],[42.815177,-20.724851],[43.004328,-20.572954],[43.103556,-20.379002],[43.393856,-19.952639],[43.439377,-19.8555],[43.464272,-19.759255],[43.481641,-19.631436],[43.382956,-19.469604],[43.319298,-19.305258],[43.290341,-19.132337],[43.292185,-18.967883],[43.201678,-18.764886],[43.110851,-18.459064],[43.064657,-17.905023],[43.018686,-17.750128],[43.147136,-17.548915],[43.274185,-17.258713],[43.312074,-17.046642],[43.313587,-16.937841],[43.288502,-16.748633],[43.483385,-16.4473],[43.494438,-16.221729],[43.518594,-16.075488],[43.587507,-15.879066],[43.67421,-15.729654],[43.788359,-15.598751],[43.888112,-15.515364],[44.120253,-15.38192],[44.292735,-15.331332],[44.556506,-15.301212],[44.746364,-15.173727],[44.998505,-15.073361],[45.207415,-15.047917],[45.340911,-14.979965],[45.512573,-14.928568],[45.795953,-14.894959],[45.934266,-14.778251],[46.340456,-14.495468],[46.49586,-14.408292],[46.603044,-14.233749],[46.662546,-14.162271],[46.802154,-14.038782],[46.96762,-13.925532],[46.971818,-13.664904],[47.028273,-13.423657],[47.102539,-13.270111],[47.309721,-12.997671],[47.353294,-12.882724],[47.444628,-12.729808],[47.633713,-12.540265],[47.872985,-12.389008],[47.912849,-12.195303],[47.987392,-12.027912],[48.052212,-11.92336],[48.233294,-11.733427],[48.406523,-11.627134],[48.532238,-11.469998],[48.659135,-11.356567],[48.88353,-11.234735],[49.048243,-11.189818],[49.218444,-11.175901],[49.369448,-11.182355],[49.554591,-11.222931],[49.727292,-11.300366],[49.806639,-11.35193],[49.989321,-11.514628],[50.292936,-11.917533],[50.435876,-12.184388],[50.741422,-12.631998],[50.808512,-12.779915],[50.865765,-13.054678],[50.975292,-13.387176],[51.077504,-13.848882],[51.139673,-14.507521],[51.281413,-14.762744],[51.357284,-14.994798],[51.410725,-15.315039],[51.408126,-15.484595],[51.372858,-15.650737],[51.247508,-16.015295],[51.086616,-16.331984],[50.941601,-16.520442],[50.960401,-16.677046],[50.94593,-16.856813],[50.894624,-17.030222],[50.808813,-17.238192],[50.585685,-17.616979],[50.43122,-17.775551],[50.410797,-18.036187],[50.26965,-18.595947],[50.180743,-18.870743],[49.956426,-19.423226],[49.832733,-19.786973],[49.72096,-20.186754],[49.520295,-20.734893],[49.397906,-21.133514],[49.267533,-21.630483],[49.075847,-22.176038],[48.84738,-22.715938],[48.751523,-23.206042],[48.672955,-23.500463],[48.55866,-23.844845],[48.524804,-24.028836],[48.47625,-24.194467],[48.281137,-24.570182],[48.216792,-24.826987],[48.053435,-25.205955],[47.795338,-25.557937],[47.650966,-25.686405],[47.481282,-25.804226],[47.110446,-25.983174],[46.828239,-26.053463],[46.52243,-26.075374],[46.061004,-26.330648],[45.790401,-26.42855],[45.621022,-26.459845],[45.230344,-26.472739],[45.057344,-26.463105],[44.797849,-26.398868],[44.601296,-26.316635],[44.380599,-26.170792],[44.22109,-26.144224],[43.900489,-26.033366],[43.743835,-25.944657],[43.58143,-25.801297],[43.357986,-25.655579],[43.287056,-25.588475],[43.170092,-25.436097],[43.033883,-25.140833],[42.983261,-24.995958],[42.813052,-24.775594],[42.737798,-24.598581],[42.697262,-24.438576],[42.686929,-24.33444],[42.666966,-23.776094],[42.691305,-23.531389],[42.530285,-23.299635],[42.449167,-23.11831],[42.404206,-22.976092],[42.314137,-22.568518],[42.294464,-22.377514],[42.298405,-22.043366],[42.316658,-21.87831],[42.360798,-21.686295],[42.438824,-21.473818],[42.528708,-21.306244]]]],"type":"MultiPolygon"},"properties":{"name":"Madagascar","source_feature_id":"marineregions:MG"},"type":"Feature"}
