{"geometry":{"coordinates":[[[[169.740311,4.876744],[169.66469,4.766939],[169.566049,4.24036],[169.421113,4.01405],[169.215409,3.841053],[168.968898,3.734071],[168.70168,3.706453],[168.438804,3.762097],[168.104527,3.984707],[167.949281,4.204108],[167.791048,4.716902],[167.340602,5.211097],[167.235168,5.598285],[167.307955,5.993003],[167.45304,6.21913],[167.659325,6.391284],[168.036094,6.534239],[168.07254,6.641845],[167.512646,7.225354],[167.201417,7.964828],[167.009449,8.150923],[166.880946,8.18711],[166.366247,8.037294],[165.692215,8.039568],[165.429531,8.09649],[165.096747,8.319818],[164.819656,8.779264],[164.753369,9.039913],[164.764002,9.308568],[165.059998,9.908602],[165.146868,10.574765],[165.108445,10.702738],[164.762346,11.111745],[164.664103,11.36209],[164.633238,11.629405],[164.72726,12.019844],[164.982957,12.328683],[165.348389,12.49515],[165.6169,12.509787],[166.001233,12.392707],[166.413081,12.050002],[166.543741,12.022411],[167.306435,12.27653],[167.708151,12.246622],[168.070643,12.073704],[168.257386,11.88016],[168.407176,11.507811],[168.408069,11.23892],[168.267511,10.86208],[168.096943,10.653928],[167.875354,10.501892],[167.100012,10.27699],[167.542091,10.288553],[168.057743,10.174188],[168.339977,10.627613],[168.886266,11.008825],[168.990243,11.5333],[169.214306,12.020136],[169.27874,12.552369],[169.499675,12.887479],[169.842236,13.09684],[170.107156,13.141962],[170.500945,13.062229],[170.823886,12.824613],[170.966334,12.596672],[171.037235,12.201746],[170.980699,11.938949],[170.805893,11.575003],[170.799573,11.313697],[170.891967,11.21678],[171.386922,11.01072],[171.582621,10.826546],[171.7156,10.593104],[171.766868,10.195192],[171.581623,9.693407],[171.606438,9.565603],[171.912136,9.303159],[172.106056,8.951802],[172.1113,8.149245],[172.180543,8.034399],[172.595255,7.6938],[172.731226,7.461806],[172.794525,7.200527],[172.747278,6.665105],[172.874209,6.006938],[172.823956,5.743049],[172.695594,5.506719],[172.388525,5.248016],[172.133309,5.163816],[171.598128,5.197202],[171.227688,5.354564],[170.953536,5.64759],[170.714771,6.269597],[170.618704,6.231888],[170.571726,5.699121],[170.385066,5.341247],[170.208831,5.137479],[169.740311,4.876744]]],[[[160.694922,10.614915],[160.959978,10.659014],[161.352585,10.576551],[161.675773,10.338635],[161.818536,10.111264],[161.883446,9.715619],[161.828719,9.452715],[161.603835,9.120914],[161.258346,8.916341],[160.99304,8.873625],[160.600446,8.957118],[160.278162,9.196104],[160.091258,9.550868],[160.067945,9.818183],[160.182489,10.202641],[160.347032,10.414794],[160.694922,10.614915]]],[[[161.501674,10.969094],[161.381341,11.357238],[161.347438,11.760996],[161.420953,12.021003],[161.664732,12.343063],[162.02323,12.528214],[162.426935,12.53687],[162.800968,12.383176],[163.089298,12.099577],[163.245234,11.725776],[163.278604,11.321796],[163.156,10.937074],[162.888541,10.634261],[162.519353,10.470457],[162.115774,10.476956],[161.752244,10.653215],[161.501674,10.969094]]],[[[169.424856,15.437345],[169.73873,15.185807],[169.908491,14.821376],[169.922206,14.552362],[169.852888,14.292365],[169.614616,13.968634],[169.260256,13.778619],[168.858168,13.757844],[168.485757,13.910389],[168.290235,14.095764],[168.118778,14.459521],[168.104486,14.72829],[168.174375,14.98806],[168.412064,15.312513],[168.638755,15.457718],[169.033824,15.533099],[169.424856,15.437345]]]],"type":"MultiPolygon"},"properties":{"name":"Marshall Islands","source_feature_id":"marineregions:MH"},"type":"Feature"}
