{"geometry":{"coordinates":[[[[20.727256,41.926007],[20.782289,42.051787],[20.820776,42.077418],[21.080339,42.180359],[21.170542,42.167843],[21.250899,42.12238],[21.294488,42.13504],[21.428574,42.261967],[21.473777,42.271464],[21.704825,42.256269],[21.820172,42.330122],[21.955037,42.299185],[22.094639,42.295472],[22.322687,42.335892],[22.367948,42.3273],[22.564117,42.124765],[22.825791,42.021823],[22.859281,41.989219],[22.997914,41.745116],[22.963845,41.563159],[22.966885,41.422182],[22.940622,41.333543],[22.801785,41.32078],[22.768809,41.288644],[22.74434,41.198518],[22.711479,41.168102],[22.576676,41.130051],[22.390109,41.12438],[22.252829,41.154434],[22.01962,41.138578],[21.936142,41.097623],[21.805598,40.963657],[21.634627,40.893086],[21.451078,40.905236],[21.314312,40.873646],[20.986795,40.86193],[20.919633,40.920498],[20.782696,40.915127],[20.743483,40.937663],[20.574274,41.154774],[20.513883,41.278763],[20.540828,41.411828],[20.495504,41.490126],[20.491565,41.534779],[20.532708,41.616788],[20.523861,41.707546],[20.548791,41.796197],[20.599398,41.87253],[20.727256,41.926007]]]],"type":"MultiPolygon"},"properties":{"name":"Macedonia","source_feature_id":"marineregions:MK"},"type":"Feature"}
