{"geometry":{"coordinates":[[[[12.230341,148.078889],[12.607465,148.316312],[12.852659,148.436366],[13.118159,148.539993],[13.530119,148.800884],[13.89986,148.983612],[14.299276,149.126589],[14.664585,149.220776],[15.108682,149.389931],[15.356529,149.454161],[15.602963,149.498127],[15.979902,149.528489],[16.353445,149.515208],[16.766413,149.449348],[17.156908,149.33446],[17.720821,149.343962],[18.093343,149.311519],[18.458754,149.29984],[18.720839,149.266158],[18.979183,149.211248],[19.335265,149.172217],[19.611649,149.114463],[19.88172,149.032445],[20.143374,148.926886],[20.420024,148.877607],[20.697615,148.802623],[21.125808,148.630578],[21.647124,148.352512],[21.982297,148.130057],[22.285012,147.959555],[22.543154,147.777051],[22.779366,147.57372],[23.011299,147.33181],[23.223577,147.061106],[23.408849,146.7701],[23.565686,146.461977],[23.694791,146.135886],[23.792081,145.803741],[23.859844,145.456653],[23.895654,145.099237],[23.029116,143.960692],[22.261931,143.004924],[20.879311,141.344826],[20.570882,141.331112],[20.254875,141.347876],[19.941011,141.395825],[19.639355,141.472712],[19.347444,141.57741],[19.06977,141.70737],[18.821264,141.851832],[18.577954,142.022965],[18.34421,142.153817],[18.062248,142.207349],[17.694726,142.230294],[17.319958,142.29782],[16.96134,142.212333],[16.616156,142.169715],[16.26056,142.164862],[15.902188,142.198939],[15.726687,142.095196],[14.442258,143.955951],[13.86284,145.036902],[13.793939,145.214881],[13.618335,145.587191],[12.230341,148.078889]]]],"type":"MultiPolygon"},"properties":{"name":"Northern Mariana Islands","source_feature_id":"marineregions:MP"},"type":"Feature"}
