{"geometry":{"coordinates":[[[[16.019417,-57.551861],[16.240415,-57.533639],[16.485863,-57.533646],[16.366904,-57.910183],[16.230833,-57.875],[14.488611,-62.813889],[14.080556,-62.813889],[14.154444,-62.227778],[14.187778,-61.399444],[14.2725,-61.003889],[14.204444,-60.679722],[14.114167,-59.999722],[14.404444,-59.706111],[15.18,-58.866944],[15.759167,-58.161944],[16.019417,-57.551861]]]],"type":"MultiPolygon"},"properties":{"name":"Martinique","source_feature_id":"marineregions:MQ"},"type":"Feature"}
