{"geometry":{"coordinates":[[[[-12.419,14.859],[-12.495,15.016],[-12.693,15.084],[-12.896,15.246],[-12.834,15.283],[-12.944,15.356],[-12.964,15.501],[-13.068,15.482],[-13.088,15.582],[-13.23,15.615],[-13.253,15.671],[-13.208,15.695],[-13.293,15.77],[-13.378,16.057],[-13.46,16.109],[-13.499,16.079],[-13.486,16.148],[-13.682,16.095],[-13.714,16.182],[-13.849,16.107],[-13.879,16.198],[-13.973,16.222],[-13.966,16.329],[-14.2,16.53],[-14.257,16.513],[-14.28,16.585],[-14.334,16.569],[-14.335,16.641],[-14.935,16.629],[-14.986,16.692],[-15.034,16.63],[-15.098,16.677],[-15.119,16.578],[-15.404,16.534],[-15.469,16.591],[-15.518,16.519],[-15.698,16.47],[-15.884,16.515],[-16.051,16.477],[-16.117,16.555],[-16.282,16.511],[-16.477,16.064],[-17.469,16.067],[-17.377,16.798],[-17.0,17.754],[-16.989,18.143],[-17.092,18.599],[-17.294,18.826],[-17.436,19.139],[-17.491,20.007],[-17.677,20.125],[-17.884,20.359],[-17.049,20.765],[-17.064,20.897],[-16.946,21.331],[-12.998,21.332],[-13.066,22.389],[-13.151,22.761],[-13.103,22.881],[-13.015,23.009],[-12.655,23.233],[-12.377,23.285],[-12.152,23.414],[-12.001,23.415],[-12.0,26.001],[-8.667,26.0],[-8.667,27.365],[-4.814,25.0],[-6.572,25.0],[-5.606,16.504],[-5.333,16.333],[-5.501,15.502],[-9.331,15.504],[-9.333,15.705],[-9.446,15.609],[-9.403,15.441],[-9.733,15.402],[-10.163,15.48],[-10.654,15.401],[-10.72,15.441],[-10.714,15.369],[-10.822,15.284],[-10.912,15.063],[-11.41,15.638],[-11.512,15.644],[-11.566,15.54],[-11.708,15.537],[-11.74,15.459],[-11.845,15.094],[-11.787,15.027],[-11.799,14.894],[-12.055,14.72],[-12.242,14.765],[-12.419,14.859]]]],"type":"MultiPolygon"},"properties":{"name":"Mauritania","source_feature_id":"marineregions:MR"},"type":"Feature"}
