{"geometry":{"coordinates":[[[[-62.762974,15.962711],[-62.924114,16.107585],[-63.044601,16.338034],[-62.859324,16.506468],[-62.808794,16.556998],[-62.758264,16.607528],[-62.709716,16.628334],[-62.640361,16.658058],[-62.609456,16.686975],[-62.372418,16.788582],[-62.268092,16.863696],[-62.208188,16.885142],[-62.123962,16.869462],[-62.064141,16.845727],[-61.951793,16.782544],[-61.831881,16.691745],[-61.882836,16.621104],[-62.078528,16.415468],[-62.393888,16.145627],[-62.657204,15.950638],[-62.688084,15.919758],[-62.762974,15.962711]]]],"type":"MultiPolygon"},"properties":{"name":"Montserrat","source_feature_id":"marineregions:MS"},"type":"Feature"}
