{"geometry":{"coordinates":[[[[13.609414,35.285663],[13.609414,35.348545],[13.609414,35.357528],[13.618397,35.411427],[13.618397,35.42041],[13.618397,35.429393],[13.600431,35.609055],[13.600431,35.618038],[13.600431,35.627021],[13.519583,36.022278],[13.447718,36.336687],[13.456701,36.480417],[13.501617,36.480417],[13.519583,36.4894],[13.833992,36.516349],[13.851958,36.516349],[13.869925,36.516349],[14.148401,36.4894],[14.17535,36.480417],[14.2023,36.471434],[14.247215,36.462451],[14.265181,36.462451],[14.283148,36.453467],[14.310097,36.444484],[14.328063,36.444484],[14.346029,36.435501],[14.390945,36.426518],[14.399928,36.426518],[14.417894,36.426518],[14.561624,36.372619],[14.57959,36.363636],[14.60654,36.34567],[14.615523,36.34567],[14.624506,36.34567],[14.687388,36.318721],[14.696371,36.309738],[14.705354,36.309738],[14.732303,36.300755],[14.732303,36.291771],[14.741286,36.291771],[14.768236,36.282788],[14.777219,36.282788],[14.777219,36.273805],[14.893999,36.22889],[14.911966,36.219907],[14.920949,36.219907],[15.055695,36.157025],[15.181459,36.103126],[15.504851,35.968379],[15.585699,35.932447],[15.67553,35.896515],[15.648581,35.653971],[15.5318,35.411427],[15.298239,35.168883],[15.037729,35.01617],[14.624506,34.917355],[14.193317,34.944305],[13.977722,34.998203],[13.699245,35.141933],[13.609414,35.249731],[13.609414,35.285663]]]],"type":"MultiPolygon"},"properties":{"name":"Malta","source_feature_id":"marineregions:MT"},"type":"Feature"}
