{"geometry":{"coordinates":[[[[56.369026,-20.310816],[56.46784,-19.969457],[56.61157,-19.699964],[56.773266,-19.484369],[56.961912,-19.304707],[57.213439,-19.160977],[57.393101,-19.107079],[57.752425,-19.089112],[58.093784,-19.187927],[58.246497,-19.277758],[58.51599,-19.574201],[58.65972,-19.834711],[58.740568,-20.104204],[58.749551,-20.292849],[58.668703,-20.67014],[58.435142,-21.029465],[58.156665,-21.254042],[57.878189,-21.36184],[57.653611,-21.406755],[57.213439,-21.397772],[56.934962,-21.307941],[56.782249,-21.209127],[56.458857,-20.598275],[56.369026,-20.310816]]],[[[59.351419,-17.714696],[59.001078,-17.597916],[58.785483,-17.418254],[58.677686,-17.274524],[58.560905,-16.942149],[58.551922,-16.762487],[58.713618,-16.169601],[58.830399,-15.927057],[58.938196,-15.79231],[59.234639,-15.594682],[59.405318,-15.540783],[59.773626,-15.5318],[59.953288,-15.576716],[60.267697,-15.774344],[60.39346,-15.918074],[60.582106,-16.304348],[60.627021,-16.475027],[60.609055,-16.825368],[60.456342,-17.139777],[60.141933,-17.490119],[59.98922,-17.597916],[59.692778,-17.705713],[59.351419,-17.714696]]],[[[57.509881,-10.186849],[57.527848,-10.366511],[57.491915,-10.627021],[57.375135,-10.869565],[57.258354,-11.013295],[57.04276,-11.174991],[56.791232,-11.264822],[56.431908,-11.264822],[56.261229,-11.210923],[56.027668,-11.076177],[55.848006,-10.878548],[55.758175,-10.716852],[55.695293,-10.465325],[55.731225,-10.106001],[55.848006,-9.863457],[55.964786,-9.72871],[56.261229,-9.531082],[56.512756,-9.4682],[56.701401,-9.4682],[57.04276,-9.567014],[57.186489,-9.665828],[57.42005,-9.944305],[57.509881,-10.186849]]],[[[64.31908,-19.726913],[64.283148,-19.996407],[64.220266,-20.158103],[64.049587,-20.382681],[63.735178,-20.589292],[63.465685,-20.661157],[63.268056,-20.661157],[62.98958,-20.598275],[62.675171,-20.400647],[62.468559,-20.095221],[62.41466,-19.924542],[62.405677,-19.655049],[62.513475,-19.322673],[62.747036,-19.05318],[62.98958,-18.918433],[63.348904,-18.846568],[63.627381,-18.882501],[63.79806,-18.945383],[64.022637,-19.098096],[64.238232,-19.385555],[64.31908,-19.726913]]],[[[71.846928,-6.512756],[72.188286,-6.35106],[72.367948,-6.315128],[72.637442,-6.333094],[72.888969,-6.431908],[73.086597,-6.575638],[73.338124,-6.925979],[73.401006,-7.276321],[73.392023,-7.482932],[73.320158,-7.752425],[73.203378,-7.950054],[73.005749,-8.147682],[72.637442,-8.318361],[72.367948,-8.336328],[72.017607,-8.246497],[71.73913,-8.021919],[71.595401,-7.797341],[71.47862,-7.518865],[71.442688,-7.258354],[71.460654,-7.087675],[71.595401,-6.7553],[71.846928,-6.512756]]]],"type":"MultiPolygon"},"properties":{"name":"Republic of Mauritius","source_feature_id":"marineregions:MU"},"type":"Feature"}
