{"geometry":{"coordinates":[[[[73.470625,7.663717],[73.975925,7.175261],[74.076985,6.653117],[74.363322,5.996227],[74.363322,5.642517],[74.110672,4.935097],[74.329635,4.665604],[74.430695,4.328737],[74.397009,3.924497],[74.262262,3.655004],[74.447539,3.18339],[74.447539,2.644404],[74.279105,2.341223],[74.430695,1.852767],[74.363322,1.5159],[74.178045,1.229563],[74.295949,0.993757],[74.413852,0.25265],[74.312792,-0.084217],[74.329635,-0.40424],[74.228575,-0.741107],[73.723275,-1.397997],[73.403252,-1.56643],[73.066385,-1.600117],[72.645302,-1.448527],[72.358965,-1.128503],[72.257905,-0.791637],[72.392652,-0.218963],[72.156845,0.134747],[72.106315,0.673733],[72.426338,1.195877],[72.729519,1.36431],[72.510555,1.56643],[72.022098,2.408597],[72.055785,3.014957],[71.937882,3.301294],[72.038942,3.907654],[72.325278,4.227677],[72.594772,4.34558],[72.257905,4.884567],[72.123158,5.60883],[72.257905,6.198347],[71.988412,6.87208],[72.140002,7.478441],[72.443182,7.764777],[72.712675,7.714247],[73.319035,7.646874],[73.470625,7.663717]]]],"type":"MultiPolygon"},"properties":{"name":"Maldives","source_feature_id":"marineregions:MV"},"type":"Feature"}
