{"geometry":{"coordinates":[[[[11.821775,-17.265541],[11.938556,-17.184693],[12.15415,-17.157743],[12.234998,-17.238591],[12.594323,-17.238591],[12.980596,-16.978081],[13.348904,-16.978081],[13.474668,-17.022997],[13.528566,-17.139777],[13.887891,-17.355372],[13.959756,-17.43622],[14.220266,-17.391304],[18.424362,-17.391304],[18.684872,-17.687747],[18.900467,-17.822494],[19.143011,-17.804527],[19.331656,-17.849443],[19.762846,-17.912325],[19.915559,-17.858426],[20.104204,-17.912325],[20.328782,-17.858426],[20.544377,-17.98419],[20.804887,-18.038088],[20.984549,-17.95724],[21.21811,-17.930291],[21.424722,-18.029105],[22.502695,-17.822494],[23.427955,-17.633848],[24.245419,-17.472152],[24.88322,-17.526051],[25.044916,-17.588933],[25.098814,-17.705713],[25.26051,-17.795544],[24.820338,-17.849443],[24.667625,-17.948257],[24.59576,-18.056055],[24.496946,-18.056055],[24.371182,-17.948257],[24.19152,-18.020122],[23.922027,-18.208768],[23.823212,-18.36148],[23.571685,-18.487244],[23.52677,-18.271649],[23.320158,-18.083004],[23.311175,-18.002156],[23.086597,-18.002156],[21.469637,-18.316565],[21.002515,-18.316565],[20.993532,-19.178944],[20.993532,-20.867769],[21.002515,-21.999641],[20.00539,-21.999641],[19.996407,-23.320158],[19.996407,-24.766439],[19.996407,-28.422566],[19.816745,-28.512397],[19.610133,-28.512397],[19.493352,-28.683076],[19.241825,-28.799856],[19.286741,-28.907654],[19.125045,-28.970535],[18.972332,-28.871721],[18.720805,-28.835789],[18.523176,-28.889687],[18.181818,-28.916637],[17.912325,-28.763924],[17.615882,-28.763924],[17.597916,-28.692059],[17.427237,-28.727991],[17.427237,-28.566295],[17.328423,-28.476464],[17.409271,-28.359684],[17.346389,-28.23392],[17.211642,-28.251886],[17.193676,-28.11714],[17.076895,-28.036292],[16.897233,-28.072224],[16.88825,-28.180022],[16.753503,-28.269853],[16.807402,-28.350701],[16.735537,-28.503414],[16.663672,-28.476464],[16.492993,-28.566295],[16.277398,-28.844772],[15.67553,-29.222063],[15.181459,-28.799856],[14.840101,-28.413582],[14.46281,-27.838663],[14.355013,-27.632052],[13.968739,-26.401365],[13.950773,-26.140855],[13.851958,-25.826446],[13.833992,-25.107797],[13.717212,-24.901186],[13.564499,-24.487963],[13.501617,-24.146604],[13.5106,-23.688466],[13.492634,-23.365074],[13.429752,-23.068631],[13.483651,-22.664391],[13.151276,-22.242185],[12.96263,-21.873877],[12.639238,-21.406755],[12.387711,-20.849802],[12.306863,-20.607258],[12.190083,-20.427596],[11.642113,-19.385555],[11.381603,-19.134028],[11.219907,-18.918433],[11.112109,-18.684872],[10.887531,-18.316565],[10.788717,-17.777578],[10.7977,-17.247575],[11.408552,-17.247575],[11.821775,-17.265541]]]],"type":"MultiPolygon"},"properties":{"name":"Namibia","source_feature_id":"marineregions:NA"},"type":"Feature"}
