{"geometry":{"coordinates":[[[[-25.615284,170.553492],[-21.642882,170.059278],[-21.44985,169.439814],[-20.663731,168.781329],[-20.405305,168.593829],[-20.031359,168.231757],[-19.561742,167.836816],[-19.463901,167.736327],[-19.333831,167.549537],[-19.123741,167.328567],[-18.983946,167.152225],[-18.659481,166.883429],[-18.386938,166.604317],[-18.060407,166.235419],[-17.83633,166.126995],[-17.539866,165.949995],[-17.224382,165.692066],[-16.852734,165.306065],[-16.479888,164.828079],[-16.295866,164.565976],[-15.498513,163.937321],[-14.787536,163.308597],[-14.834167,163.166667],[-16.126944,160.248333],[-15.735278,158.760833],[-16.424444,158.380278],[-18.540278,156.945556],[-18.931667,156.624722],[-19.286667,156.255556],[-20.141111,156.826111],[-20.541111,157.0525],[-21.215833,157.171389],[-21.789167,157.243333],[-22.175278,157.217778],[-22.527222,157.311944],[-23.248333,157.801111],[-25.146667,158.610833],[-25.20182,158.828642],[-25.2336,159.087548],[-25.248937,159.388697],[-25.242827,159.673785],[-25.217514,159.950392],[-25.173577,160.220199],[-25.106635,160.507055],[-25.020768,160.794849],[-24.927863,161.042677],[-24.820565,161.277485],[-24.691735,161.513337],[-24.55421,161.726859],[-24.403352,161.928559],[-24.234133,162.123055],[-24.050983,162.304051],[-23.864937,162.462071],[-24.248715,162.980098],[-24.53109,163.47764],[-24.895054,163.83421],[-25.127945,164.103784],[-25.32246,164.303595],[-25.680206,164.763498],[-25.843627,165.020835],[-25.988917,165.297528],[-26.105127,165.570512],[-26.201438,165.857374],[-25.845,168.738333],[-25.930607,169.429842],[-25.880892,169.723475],[-25.771185,170.147539],[-25.615284,170.553492]]]],"type":"MultiPolygon"},"properties":{"name":"New Caledonia","source_feature_id":"marineregions:NC"},"type":"Feature"}
