{"geometry":{"coordinates":[[[[2.391754,11.925081],[2.408597,11.925081],[2.408597,11.908238],[2.391754,11.908238],[2.391754,11.925081]]],[[[12.784091,13.373608],[12.784091,13.390451],[12.800934,13.390451],[12.800934,13.373608],[12.784091,13.373608]]],[[[1.250294,15.205656],[1.503956,15.291948],[3.385403,15.407874],[3.511059,15.454029],[3.814586,15.720089],[3.95859,15.944346],[4.186075,16.576456],[4.24298,17.247508],[4.24452,19.134028],[5.562725,19.391559],[5.814386,19.483425],[7.701491,20.99027],[11.992454,23.496452],[13.443938,23.178232],[14.117218,22.734876],[14.382931,22.733154],[15.007411,22.991152],[15.23499,21.537646],[15.554749,20.664537],[15.856161,20.400432],[15.90238,20.277448],[15.730085,19.773046],[15.603658,18.843704],[15.538349,16.96912],[15.371496,16.610967],[14.466115,15.815262],[13.901787,15.067347],[13.525726,14.36534],[13.643101,13.710474],[13.351122,13.668383],[13.238861,13.575728],[12.784091,13.390451],[12.480487,13.127416],[12.351187,13.097447],[11.450944,13.355739],[10.781341,13.364377],[10.126869,13.217943],[9.575449,12.844856],[9.174695,12.829234],[8.781133,12.908434],[8.06846,13.282757],[7.936425,13.305038],[7.172116,13.063228],[6.909374,13.079308],[6.455719,13.568807],[5.690951,13.813798],[5.559469,13.83987],[4.630202,13.732481],[4.280468,13.53921],[4.034463,12.921265],[3.708024,12.497222],[3.604474,11.706117],[3.58763,11.706117],[2.867142,12.357927],[2.780736,12.362933],[2.445376,12.249941],[2.395379,12.180594],[2.422104,12.005502],[2.391754,11.925081],[2.37491,11.925081],[2.158572,12.266962],[2.20586,12.527584],[2.139641,12.641128],[2.015657,12.68553],[1.614874,12.665084],[1.378934,12.79496],[1.07459,13.059416],[1.02071,13.182108],[1.069939,13.302228],[1.183936,13.371647],[0.636822,13.756552],[0.461288,13.959799],[0.211877,14.586167],[0.218963,14.990568],[0.235807,15.007411],[0.90433,14.998301],[1.250294,15.205656]],[[13.238861,13.592571],[13.222018,13.592571],[13.222018,13.575728],[13.238861,13.575728],[13.238861,13.592571]]]],"type":"MultiPolygon"},"properties":{"name":"Niger","source_feature_id":"marineregions:NE"},"type":"Feature"}
