{"geometry":{"coordinates":[[[[168.154869,-28.153072],[168.433345,-28.242903],[168.595041,-28.341718],[168.79267,-28.530363],[168.918433,-28.763924],[168.963349,-28.934603],[168.954366,-29.204096],[168.810636,-29.536471],[168.53216,-29.787999],[168.262666,-29.904779],[167.867409,-29.949695],[167.570967,-29.886813],[167.229608,-29.707151],[166.996047,-29.419691],[166.915199,-29.168164],[166.906216,-28.988502],[167.005031,-28.656126],[167.238591,-28.37765],[167.481135,-28.224937],[167.768595,-28.144089],[168.154869,-28.153072]]]],"type":"MultiPolygon"},"properties":{"name":"Norfolk Island","source_feature_id":"marineregions:NF"},"type":"Feature"}
