{"geometry":{"coordinates":[[[[2.7129,6.342077],[2.7129,6.530722],[2.793748,6.7553],[2.7129,6.952928],[2.766798,7.132591],[2.739849,7.42005],[2.793748,7.491915],[2.721883,7.590729],[2.730866,7.779375],[2.676967,7.896155],[2.757815,8.192598],[2.694934,8.354294],[2.757815,8.480057],[2.748832,8.749551],[2.784765,9.072943],[3.09019,9.099892],[3.162055,9.288538],[3.144089,9.486166],[3.359684,9.710744],[3.332734,9.818541],[3.52138,9.863457],[3.611211,9.980237],[3.656126,10.168883],[3.566295,10.303629],[3.602228,10.42041],[3.78189,10.42041],[3.835789,10.716852],[3.736974,10.833633],[3.772907,10.914481],[3.692059,11.130075],[3.476464,11.453467],[3.602228,11.696011],[3.683076,11.758893],[3.620194,11.929572],[3.683076,11.983471],[3.63816,12.136184],[3.656126,12.531441],[3.943586,12.765002],[4.096299,12.98958],[4.141215,13.142292],[4.141215,13.474668],[4.204096,13.474668],[4.464607,13.699245],[4.868847,13.789077],[4.904779,13.744161],[5.28207,13.744161],[5.353935,13.842975],[5.524614,13.887891],[5.83004,13.753144],[6.153432,13.65433],[6.306144,13.672296],[6.503773,13.573482],[6.692418,13.348904],[6.845131,13.079411],[6.943945,13.007546],[7.114625,13.016529],[7.213439,13.124326],[7.384118,13.097377],[7.815307,13.348904],[8.11175,13.295005],[8.417176,13.061444],[8.507007,13.070428],[8.65972,12.935681],[8.974129,12.836867],[9.620913,12.809917],[9.674811,12.827884],[9.98922,13.169242],[10.204815,13.277039],[10.465325,13.286022],[10.671937,13.375853],[11.219907,13.384837],[11.525332,13.357887],[11.875674,13.259073],[12.127201,13.115343],[12.208049,13.124326],[12.486525,13.070428],[12.540424,13.205174],[12.711103,13.312972],[12.863816,13.474668],[12.872799,13.474668],[12.863816,13.483651],[13.241107,13.564499],[13.36687,13.717212],[13.636364,13.717212],[14.085519,13.088394],[14.193317,12.450593],[14.301114,12.360762],[14.426877,12.369745],[14.678405,12.15415],[14.651455,11.947539],[14.552641,11.713978],[14.642472,11.660079],[14.615523,11.516349],[14.2023,11.255839],[13.986705,11.318721],[13.555516,10.618038],[13.573482,10.528207],[13.465685,10.267697],[13.474668,10.168883],[13.25009,10.043119],[13.232124,9.908372],[13.303989,9.827524],[13.214157,9.558031],[12.971613,9.4682],[12.890765,9.072943],[12.809917,8.92023],[12.782968,8.740568],[12.684154,8.650737],[12.432627,8.623787],[12.468559,8.533956],[12.252964,8.417176],[12.226015,7.994969],[12.028387,7.734459],[12.028387,7.518865],[11.812792,7.249371],[11.875674,7.105641],[11.713978,7.060726],[11.552282,6.854114],[11.552282,6.665469],[11.426518,6.530722],[11.094143,6.521739],[11.094143,6.683435],[10.914481,6.710384],[10.815667,6.845131],[10.833633,6.943945],[10.600072,7.069709],[10.53719,6.934962],[10.213798,6.890047],[10.150916,7.04276],[9.863457,6.782249],[9.782609,6.800216],[9.701761,6.512756],[9.4682,6.458857],[9.432267,6.315128],[9.342436,6.35106],[9.279554,6.20733],[8.839382,5.821056],[8.884298,5.794107],[8.839382,5.695293],[8.911247,5.54258],[8.839382,5.452749],[8.794466,5.120374],[8.542939,4.805965],[8.542939,4.698167],[8.408193,4.527488],[8.327345,4.06935],[7.815307,3.710025],[7.815307,3.647143],[7.473949,3.52138],[7.069709,3.49443],[6.854114,3.440532],[6.620553,3.440532],[6.386992,3.395616],[6.054617,3.37765],[5.785124,3.431549],[5.596479,3.512397],[5.192239,3.78189],[4.868847,4.096299],[4.653252,4.518505],[4.500539,4.958678],[4.275961,5.318002],[4.033417,5.506648],[3.458498,5.506648],[2.820697,5.470715],[2.793748,5.677327],[2.7129,6.342077]]]],"type":"MultiPolygon"},"properties":{"name":"Nigeria","source_feature_id":"marineregions:NG"},"type":"Feature"}
