{"geometry":{"coordinates":[[[[5.76042,50.951087],[5.743577,50.96793],[5.81095,51.085834],[5.827794,51.085834],[5.81095,51.102677],[5.50777,51.304797],[4.379267,51.456387],[3.94134,51.203737],[3.43604,51.237424],[3.301294,51.456387],[2.543344,51.87747],[3.065487,52.416457],[3.18339,52.618577],[3.250764,53.224937],[3.621317,53.713394],[4.008714,53.982887],[4.480327,54.185007],[5.591987,54.370284],[5.996227,54.185007],[6.41731,53.612334],[7.192104,53.325997],[7.208947,53.005974],[7.057357,52.63542],[6.737334,52.652264],[6.703647,52.48383],[7.074201,52.349084],[6.737334,51.894314],[5.945697,51.810097],[6.232034,51.47323],[6.16466,51.153207],[5.91201,50.984774],[6.01307,50.748967],[5.693047,50.748967],[5.743577,50.951087],[5.76042,50.951087]]]],"type":"MultiPolygon"},"properties":{"name":"Netherlands","source_feature_id":"marineregions:NL"},"type":"Feature"}
