{"geometry":{"coordinates":[[[[80.965909,28.448392],[80.607178,28.640636],[80.412505,28.632021],[80.158006,28.801357],[80.101483,28.884088],[80.103953,28.984987],[80.275847,29.232566],[80.293738,29.434871],[80.459567,29.800639],[80.847326,30.127819],[81.033282,30.200099],[81.050126,30.183255],[81.104836,30.096067],[81.197846,30.058281],[81.286761,30.109455],[81.45678,30.364495],[81.550678,30.405488],[81.959666,30.351689],[82.130035,30.248784],[82.239894,30.081591],[82.51846,29.94986],[82.757623,29.756966],[83.234565,29.567373],[83.507834,29.259768],[83.596846,29.212064],[83.887381,29.300719],[84.087228,29.273192],[84.162357,29.202642],[84.271689,28.918125],[84.351139,28.852918],[84.80991,28.616852],[85.11385,28.642651],[85.165353,28.360242],[85.25514,28.312],[85.66632,28.320728],[85.755252,28.272369],[86.010922,27.952102],[86.19788,28.007974],[86.393834,27.948742],[86.663587,28.085663],[87.228497,27.842363],[87.640836,27.831856],[87.937673,27.91077],[88.14117,27.875719],[88.161728,27.777344],[88.062893,27.484393],[88.02162,27.177222],[88.161546,26.793643],[88.093449,26.494209],[88.023812,26.421829],[87.820049,26.445722],[87.306647,26.400124],[87.20626,26.417542],[87.031883,26.526053],[86.734432,26.459166],[86.141061,26.630541],[85.83183,26.621392],[85.6215,26.838481],[85.320276,26.775631],[85.220105,26.801567],[84.755363,27.020977],[84.68525,27.092781],[84.613986,27.283253],[84.528284,27.339368],[84.138586,27.472369],[83.841708,27.398589],[83.53929,27.460286],[83.345132,27.395453],[82.945114,27.481436],[82.687418,27.646507],[82.391257,27.727286],[82.119075,27.875549],[81.717739,27.962464],[81.033282,28.414705],[80.982752,28.448392],[80.982752,28.465235],[80.965909,28.465235],[80.965909,28.448392]]],[[[81.016439,28.414705],[81.033282,28.414705],[81.033282,28.397862],[81.016439,28.397862],[81.016439,28.414705]]],[[[80.965909,28.431549],[80.965909,28.448392],[80.982752,28.448392],[80.982752,28.431549],[80.965909,28.431549]]],[[[81.976509,30.351689],[81.959666,30.351689],[81.959666,30.368532],[81.976509,30.368532],[81.976509,30.351689]]]],"type":"MultiPolygon"},"properties":{"name":"Nepal","source_feature_id":"marineregions:NP"},"type":"Feature"}
