{"geometry":{"coordinates":[[[[168.240064,-0.687353],[167.86927,-3.771196],[167.553109,-3.84907],[167.211282,-3.895656],[166.8674,-3.906641],[166.526569,-3.88244],[166.192023,-3.823899],[165.869375,-3.733522],[165.576331,-3.619419],[165.278964,-3.469011],[165.00682,-3.296196],[164.746956,-3.093332],[164.505656,-2.861531],[164.292103,-2.615285],[164.106136,-2.351499],[163.942286,-2.063041],[163.809406,-1.764687],[163.703758,-1.446937],[163.629819,-1.119726],[163.588931,-0.795479],[163.579736,-0.456051],[163.60322,-0.127964],[163.693571,0.341484],[163.849558,0.795265],[164.067388,1.22087],[164.348771,1.61789],[164.695179,1.982524],[165.062544,2.273199],[165.476031,2.513701],[165.924388,2.693851],[168.559858,1.77884],[168.240064,-0.687353]]]],"type":"MultiPolygon"},"properties":{"name":"Nauru","source_feature_id":"marineregions:NR"},"type":"Feature"}
