{"geometry":{"coordinates":[[[[-170.774569,-18.611885],[-170.555605,-18.325548],[-170.033462,-18.072898],[-169.646065,-18.072898],[-169.376572,-18.173958],[-169.039705,-18.477138],[-168.837585,-18.982438],[-168.871272,-19.285618],[-169.039705,-19.622485],[-169.427102,-19.925665],[-169.982932,-20.043568],[-170.353485,-19.942508],[-170.589292,-19.774075],[-170.841942,-19.403521],[-170.892472,-18.948751],[-170.774569,-18.611885]]]],"type":"MultiPolygon"},"properties":{"name":"Niue","source_feature_id":"marineregions:NU"},"type":"Feature"}
