{"geometry":{"coordinates":[[[[57.2809,24.982602],[57.618342,24.762262],[57.710594,24.719616],[58.165712,24.703004],[58.402704,24.664102],[58.596227,24.657897],[58.81027,24.628788],[59.193555,24.525739],[59.472899,24.411451],[59.801449,24.18438],[60.024565,24.073656],[60.265086,23.922526],[60.400691,23.854305],[60.785763,23.700692],[61.288899,23.430126],[62.421389,22.676944],[63.139722,22.083611],[63.369537,21.790924],[63.276294,21.372431],[63.127163,20.96736],[62.968673,20.656477],[62.74352,20.273553],[62.590807,20.047808],[62.438349,19.777772],[62.295897,19.336634],[62.087382,18.910446],[61.926634,18.659713],[61.742752,18.421754],[61.41016,18.041373],[61.096781,17.740325],[60.970623,17.481528],[60.822879,17.234689],[60.65886,17.00647],[60.469882,16.785094],[60.277148,16.593384],[60.056208,16.406346],[59.80829,16.225856],[59.538475,16.062225],[59.312074,15.678147],[59.041007,15.331109],[58.721397,15.016002],[58.363439,14.744353],[58.047547,14.558077],[57.72388,14.409468],[57.451568,14.313298],[57.148056,14.236389],[56.895833,14.191944],[56.665833,14.058889],[56.320833,13.896667],[55.908889,13.764167],[54.857778,14.440556],[54.517778,14.626389],[54.1425,14.77],[53.638611,15.345556],[53.534722,15.811667],[53.10919,16.649483],[52.812283,17.28553],[52.745833,17.294444],[52.782175,17.349733],[52.0,19.0],[55.005227,19.984131],[55.666726,21.99789],[55.213026,22.705881],[55.227767,22.791524],[55.21299,22.937232],[55.229642,23.10428],[55.393551,23.382096],[55.400123,23.392028],[55.415729,23.38382],[55.431686,23.40281],[55.448368,23.460585],[55.570878,23.625787],[55.569215,23.718817],[55.532194,23.758986],[55.535079,23.846995],[55.486098,23.945743],[55.730868,24.056346],[55.77836,24.05537],[55.79308,24.025898],[55.833014,24.013617],[55.910017,24.047828],[56.018373,24.066496],[55.996566,24.125118],[55.961388,24.170694],[55.971829,24.1852],[55.954519,24.223308],[55.833261,24.201765],[55.752687,24.235067],[55.758712,24.26116],[55.790908,24.278154],[55.83538,24.333687],[55.83352,24.409046],[55.764322,24.526119],[55.767923,24.572983],[55.815509,24.615211],[55.793793,24.636841],[55.837805,24.672546],[55.831514,24.780865],[55.81478,24.799232],[55.812532,24.9107],[55.85199,24.965165],[55.910686,24.965653],[55.961003,25.006031],[56.007243,24.994733],[56.045911,24.968413],[56.041701,24.946475],[56.058158,24.948985],[56.041086,24.907562],[56.061844,24.87131],[55.980127,24.89459],[55.978436,24.877993],[56.081531,24.743463],[56.112758,24.737692],[56.200138,24.784416],[56.205785,24.850076],[56.259141,24.859829],[56.280144,24.88369],[56.324525,24.895878],[56.350268,24.933643],[56.324138,24.972267],[56.4386,25.001896],[56.683833,25.016373],[56.881442,25.051698],[57.127392,25.117144],[57.2809,24.982602]]],[[[56.240641,25.289905],[56.233004,25.326823],[56.271274,25.325637],[56.272742,25.350952],[56.304859,25.35033],[56.313868,25.328143],[56.332661,25.327435],[56.292244,25.276548],[56.240641,25.289905]]],[[[56.174253,25.619173],[56.14998,25.685121],[56.166297,25.723001],[56.155299,25.798178],[56.138875,25.811916],[56.160336,25.876772],[56.179172,25.894765],[56.163817,25.947556],[56.196082,25.979565],[56.16209,26.059554],[56.154326,26.069875],[56.121799,26.051046],[56.08457,26.049816],[55.890174,26.083175],[55.704315,26.154606],[55.72807,26.228879],[55.743611,26.258889],[55.870833,26.313889],[56.1125,26.477778],[56.173611,26.547222],[56.241667,26.590278],[56.55,26.704167],[56.683333,26.7375],[56.733333,26.693056],[56.795833,26.5875],[56.8,26.193056],[56.8375,26.051389],[56.830556,25.968056],[56.858333,25.755556],[56.838498,25.649968],[56.661753,25.683123],[56.510261,25.692814],[56.363131,25.662984],[56.264438,25.627091],[56.253494,25.602758],[56.174253,25.619173]]]],"type":"MultiPolygon"},"properties":{"name":"Oman","source_feature_id":"marineregions:OM"},"type":"Feature"}
