{"geometry":{"coordinates":[[[[-82.891,8.111],[-82.94,8.269],[-83.05,8.34],[-82.848,8.465],[-82.828,8.627],[-82.917,8.765],[-82.711,8.93],[-82.933,9.076],[-82.938,9.473],[-82.843,9.499],[-82.856,9.62],[-82.671,9.495],[-82.562,9.576],[-81.93,10.272],[-81.197,9.763],[-80.588,10.015],[-79.921,10.435],[-79.553,10.501],[-79.108,10.439],[-78.753,10.473],[-78.495,10.416],[-77.574,9.986],[-77.165,9.685],[-77.054,9.47],[-77.372,8.659],[-77.371,8.656],[-77.37,8.647],[-77.447,8.472],[-77.362,8.404],[-77.348,8.295],[-77.226,8.135],[-77.231,8.023],[-77.143,7.929],[-77.31,7.889],[-77.348,7.839],[-77.305,7.694],[-77.562,7.511],[-77.728,7.708],[-77.708,7.499],[-77.779,7.467],[-77.889,7.211],[-78.3,6.733],[-78.545,6.598],[-79.08,7.307],[-79.127,7.306],[-79.262,6.992],[-79.437,6.801],[-80.153,6.417],[-80.556,6.328],[-80.911,6.318],[-81.345,6.466],[-81.655,6.423],[-81.902,6.457],[-82.343,6.67],[-82.561,6.891],[-82.715,7.182],[-83.008,7.176],[-83.263,7.252],[-82.896,8.037],[-82.89,8.081],[-82.891,8.089],[-82.891,8.111]]]],"type":"MultiPolygon"},"properties":{"name":"Panama","source_feature_id":"marineregions:PA"},"type":"Feature"}
