{"geometry":{"coordinates":[[[[1.627947,151.424463],[1.959778,150.27529],[2.02003,149.893595],[2.037708,149.512393],[2.007415,149.100287],[1.924893,148.691004],[1.805053,148.32899],[1.587184,147.831208],[1.828177,147.54186],[2.031095,147.233902],[2.17824,146.950895],[2.396328,146.444093],[2.498292,146.11371],[2.565181,145.77636],[2.596615,145.419199],[2.593365,145.092148],[2.553027,144.743125],[2.476355,144.401477],[2.123888,143.386582],[1.696764,141.909184],[1.57129,141.612364],[1.417647,141.329131],[1.237023,141.061717],[1.028247,140.80966],[0.736111,140.819444],[-1.076389,141.4],[-2.141667,141.025],[-2.60421,141.0],[-6.323333,141.000001],[-6.326741,140.959605],[-6.34262,140.969213],[-6.354475,140.960469],[-6.364614,140.977633],[-6.371963,140.945085],[-6.384462,140.942926],[-6.389751,140.982051],[-6.413215,140.942223],[-6.432634,140.954316],[-6.417936,140.924516],[-6.426734,140.916418],[-6.444758,140.938984],[-6.466913,140.925056],[-6.45259,140.954425],[-6.476676,140.946597],[-6.486118,140.960526],[-6.500977,140.921868],[-6.551027,140.9223],[-6.561112,140.936933],[-6.561112,140.89287],[-6.573719,140.888982],[-6.571787,140.910744],[-6.591851,140.904967],[-6.612224,140.842088],[-6.621972,140.877426],[-6.643376,140.856202],[-6.651986,140.874357],[-6.661835,140.860753],[-6.681243,140.868233],[-6.681919,140.846262],[-6.719191,140.845871],[-6.753158,140.901034],[-6.792855,140.870305],[-6.812328,140.886837],[-6.815171,140.917198],[-6.846714,140.898342],[-6.872463,140.916659],[-6.872892,140.939784],[-6.857067,140.952968],[-6.889522,140.940109],[-6.910443,140.953022],[-6.88979,140.967396],[-6.903416,140.988092],[-6.8925,141.019444],[-9.127778,141.019444],[-9.866667,140.483333],[-10.833333,139.2],[-11.15,139.383333],[-10.983333,140.000001],[-9.766667,142.0],[-9.756667,142.058333],[-9.261944,142.058333],[-9.1975,142.1425],[-9.192778,142.235556],[-9.231389,142.273889],[-9.367778,142.494722],[-9.375833,142.557778],[-9.356944,142.591389],[-9.339167,142.695277],[-9.330705,142.826797],[-9.375333,142.851817],[-9.675,142.85],[-9.666667,143.0],[-9.55,143.083333],[-9.55002,143.247317],[-9.498824,143.236131],[-9.463964,143.275458],[-9.463409,143.310375],[-9.483559,143.337443],[-9.514238,143.345832],[-9.55,143.333333],[-9.4,143.5],[-9.366667,143.8],[-9.5,144.25],[-9.85,144.733333],[-12.333333,146.5],[-12.641667,147.141667],[-13.175,148.083333],[-14.239161,151.002837],[-14.633333,152.116667],[-14.75,154.25],[-14.083333,156.616667],[-14.066667,157.0],[-14.085647,157.022058],[-14.067757,157.038341],[-12.436389,157.600833],[-11.373889,157.161111],[-8.135,154.585556],[-7.246666,155.112222],[-6.925833,155.593889],[-6.925833,155.693611],[-6.847222,155.923056],[-6.658333,156.039722],[-6.55,156.035833],[-4.871667,158.235278],[-4.751389,160.480278],[-4.141774,162.803717],[-3.782218,162.736565],[-3.413222,162.625784],[-3.025564,162.460412],[-2.661563,162.24911],[-2.31681,161.988314],[-2.005473,161.684416],[-1.75056,161.379468],[-1.524988,161.033878],[-1.347207,160.671313],[-1.213625,160.286402],[-1.140737,159.967454],[-1.098595,159.640371],[-1.085737,159.340188],[-1.101642,159.022893],[-1.148579,158.704504],[-1.225151,158.396172],[-1.326318,158.106163],[-1.453929,157.826469],[-1.378987,157.464562],[-1.169704,157.308458],[-1.133056,155.861111],[-0.980556,153.910278],[-0.428056,152.907778],[-0.245556,152.664444],[1.627947,151.424463]],[[-9.779008,141.462528],[-9.816412,141.48607],[-9.856876,141.47333],[-9.882164,141.42491],[-9.868758,141.377689],[-9.834237,141.361064],[-9.793675,141.374733],[-9.772531,141.415968],[-9.779008,141.462528]],[[-9.450075,141.594087],[-9.46705,141.642327],[-9.523441,141.654544],[-9.576097,141.61666],[-9.609515,141.62668],[-9.644945,141.613593],[-9.667933,141.579981],[-9.669809,141.546372],[-9.640359,141.51018],[-9.588561,141.513753],[-9.55818,141.485476],[-9.524885,141.481011],[-9.456172,141.541735],[-9.450075,141.594087]],[[-9.311249,144.149356],[-9.341377,144.188276],[-9.334912,144.234451],[-9.363397,144.27772],[-9.41317,144.295057],[-9.451259,144.277268],[-9.465777,144.24657],[-9.459091,144.202125],[-9.41509,144.162467],[-9.414902,144.119244],[-9.396044,144.087277],[-9.362571,144.072801],[-9.32755,144.083389],[-9.307968,144.11305],[-9.311249,144.149356]],[[-9.162559,143.936601],[-9.193491,143.912482],[-9.224388,143.838788],[-9.213488,143.801192],[-9.17919,143.782694],[-9.139236,143.796952],[-9.089778,143.874269],[-9.109828,143.925343],[-9.162559,143.936601]]]],"type":"MultiPolygon"},"properties":{"name":"Papua New Guinea","source_feature_id":"marineregions:PG"},"type":"Feature"}
