{"geometry":{"coordinates":[[[[14.297037,54.1147],[14.611524,54.412393],[14.636858,54.538717],[15.235784,54.586131],[15.588988,54.665807],[15.882626,54.870832],[16.060761,55.18582],[16.155295,55.260258],[16.506468,55.347197],[16.540155,55.364041],[16.994925,55.498787],[17.382321,55.583004],[18.037604,55.727393],[18.709266,55.701745],[18.945571,55.582656],[19.066655,55.347197],[19.352991,54.808211],[19.319305,54.673464],[19.622485,54.471344],[19.639328,54.454501],[21.360638,54.329379],[22.687972,54.353441],[22.789032,54.370284],[22.973298,54.371504],[23.404835,54.195126],[23.469349,54.129017],[23.513295,53.949201],[23.915534,52.961248],[23.839972,52.713746],[23.370456,52.460449],[23.281316,52.36159],[23.2965,52.239236],[23.536006,52.121652],[23.615509,52.016738],[23.574366,51.626758],[23.631198,51.506917],[23.7327,51.255903],[24.003944,50.950481],[24.039557,50.552556],[23.350369,50.128541],[22.825032,49.6946],[22.712384,49.453429],[22.721658,49.182537],[22.826526,49.084139],[22.553225,49.081477],[22.15176,49.18976],[21.923214,49.345675],[21.656404,49.421194],[21.171557,49.427054],[20.920387,49.325591],[20.726356,49.39203],[20.449534,49.399754],[20.18634,49.319044],[20.0809,49.230735],[19.875886,49.214042],[19.809039,49.225632],[19.785284,49.355197],[19.448981,49.582656],[19.077301,49.409385],[18.830848,49.519404],[18.808839,49.60385],[18.497723,49.91088],[18.07009,50.022065],[17.894447,50.003733],[17.809362,50.028153],[17.662961,50.126663],[17.685401,50.273999],[17.335062,50.299841],[17.003043,50.419025],[16.926445,50.391859],[16.959184,50.232185],[16.711776,50.136148],[16.625825,50.14832],[16.272653,50.411026],[16.295628,50.485409],[16.364216,50.541375],[16.356888,50.619194],[16.010297,50.647106],[15.416674,50.811845],[15.210966,50.976331],[15.127421,51.003086],[15.041746,50.98999],[14.910214,50.876289],[14.822134,50.86687],[14.96908,51.092449],[14.978602,51.356422],[14.713502,51.659161],[14.67269,51.786003],[14.711516,52.050059],[14.567536,52.561201],[14.253961,52.807972],[14.217882,52.929099],[14.369219,53.151095],[14.395509,53.281463],[14.232618,53.932357],[14.249461,53.982887],[14.297037,54.1147]],[[22.704815,49.182537],[22.704815,49.165693],[22.721658,49.165693],[22.721658,49.182537],[22.704815,49.182537]]]],"type":"MultiPolygon"},"properties":{"name":"Poland","source_feature_id":"marineregions:PL"},"type":"Feature"}
