{"geometry":{"coordinates":[[[[-56.105,47.100556],[-56.129722,46.931111],[-56.099444,46.86],[-55.9825,46.802778],[-55.903333,46.646111],[-56.005556,46.589722],[-56.150444,46.554778],[-56.157222,43.416111],[-56.398028,43.417917],[-56.404333,46.367722],[-56.672778,46.450556],[-56.77,46.501944],[-56.871389,46.582222],[-56.944722,46.671667],[-56.98675,46.798472],[-57.058611,46.886111],[-57.096778,46.982944],[-56.868417,47.129611],[-56.662528,47.216389],[-56.494444,47.365],[-56.255,47.305278],[-56.105,47.100556]]]],"type":"MultiPolygon"},"properties":{"name":"Saint-Pierre and Miquelon","source_feature_id":"marineregions:PM"},"type":"Feature"}
