{"geometry":{"coordinates":[[[[-127.975656,-25.265002],[-128.346209,-25.315532],[-128.885196,-25.147098],[-129.137846,-24.911292],[-129.306279,-24.574425],[-129.339966,-24.288088],[-129.238906,-23.951222],[-128.851509,-23.546982],[-128.497799,-23.429078],[-128.026186,-23.462765],[-127.739849,-23.597512],[-127.369296,-24.035438],[-127.301922,-24.422835],[-127.369296,-24.726015],[-127.638789,-25.096568],[-127.975656,-25.265002]]]],"type":"MultiPolygon"},"properties":{"name":"Pitcairn","source_feature_id":"marineregions:PN"},"type":"Feature"}
