{"geometry":{"coordinates":[[[[-66.147832,17.048543],[-66.446753,17.047782],[-66.633124,17.073545],[-66.787821,17.050798],[-66.976675,17.047362],[-67.22613,17.066753],[-67.408635,17.100029],[-67.580873,17.167033],[-67.790376,17.292368],[-67.922685,17.417626],[-68.026957,17.565343],[-68.099091,17.729806],[-68.122153,17.816344],[-68.139539,18.025566],[-68.201437,18.251702],[-68.095946,18.404286],[-67.880729,18.578892],[-67.788792,18.862315],[-67.725445,19.00223],[-67.598495,19.213654],[-67.554303,19.320368],[-67.284164,19.399941],[-67.027397,19.425039],[-66.74041,19.394421],[-65.976836,19.365654],[-65.658238,19.322532],[-65.341442,19.241254],[-65.338069,19.019305],[-65.262042,18.667487],[-65.157719,18.398033],[-65.129558,18.195006],[-65.031304,18.070557],[-65.015381,18.00814],[-65.301313,17.728861],[-65.447541,17.548889],[-65.530939,17.428944],[-65.632379,17.131618],[-65.788845,17.087849],[-66.147832,17.048543]]]],"type":"MultiPolygon"},"properties":{"name":"Puerto Rico","source_feature_id":"marineregions:PR"},"type":"Feature"}
