{"geometry":{"coordinates":[[[[34.024975,31.601891],[34.027256,31.624726],[34.161785,31.752666],[34.204709,31.766277],[34.377246,31.648626],[34.461462,31.581252],[34.478306,31.564409],[34.488993,31.582302],[34.511002,31.577023],[34.546233,31.547372],[34.550265,31.525691],[34.390269,31.395719],[34.376887,31.37708],[34.355595,31.288604],[34.301752,31.245136],[34.259342,31.227542],[34.242499,31.294916],[34.225656,31.328602],[34.208812,31.362289],[34.034406,31.580772],[34.024975,31.601891]]],[[[35.526173,32.044344],[35.550505,31.764891],[35.480567,31.590438],[35.472063,31.497036],[35.341469,31.44318],[35.216083,31.377413],[35.147402,31.360352],[34.95942,31.345826],[34.914515,31.35899],[34.893718,31.399339],[34.897211,31.422445],[34.935603,31.481817],[34.947173,31.551324],[34.978716,31.61426],[35.030425,31.662258],[35.211368,31.769204],[35.208589,31.79157],[35.189549,31.80494],[35.076021,31.834571],[35.007976,31.817937],[34.96617,31.837137],[34.968207,31.858271],[35.012151,31.873971],[35.020657,31.89409],[34.994298,31.958712],[34.997739,32.028942],[34.985993,32.122457],[34.967101,32.189387],[35.013908,32.240833],[35.020462,32.310145],[35.066409,32.442812],[35.181438,32.523572],[35.226571,32.532638],[35.294126,32.512302],[35.364679,32.516383],[35.402422,32.490036],[35.420307,32.42296],[35.440332,32.411368],[35.556279,32.389732],[35.567458,32.22669],[35.563228,32.179984],[35.526173,32.044344]]]],"type":"MultiPolygon"},"properties":{"name":"Palestine","source_feature_id":"marineregions:PS"},"type":"Feature"}
