{"geometry":{"coordinates":[[[[130.283193,2.72862],[130.283193,3.318137],[130.535843,3.722377],[131.108516,3.958184],[131.495913,3.907654],[131.967526,3.503414],[132.085429,3.149704],[132.051743,2.795994],[131.815936,2.391754],[131.529599,2.189633],[131.074829,2.12226],[130.518999,2.358067],[130.283193,2.72862]]],[[[135.033013,8.539571],[135.47094,8.118487],[135.572,7.714247],[135.42041,6.989984],[135.26882,6.77102],[134.830893,6.501527],[134.224533,6.501527],[133.719233,6.956297],[133.60133,7.360537],[133.65186,7.815307],[133.820293,8.135331],[134.10663,8.438511],[134.696146,8.623787],[135.033013,8.539571]]]],"type":"MultiPolygon"},"properties":{"name":"Palau","source_feature_id":"marineregions:PW"},"type":"Feature"}
