{"geometry":{"coordinates":[[[[-58.263675,-26.714637],[-58.106752,-26.202082],[-57.628775,-25.552931],[-57.630996,-25.419812],[-57.777747,-25.194962],[-58.005337,-25.050476],[-59.135469,-24.597838],[-59.808835,-24.143578],[-60.967793,-23.781868],[-62.03666,-22.957541],[-62.32243,-22.501367],[-62.640361,-22.250045],[-62.31224,-21.227566],[-62.223019,-20.564092],[-61.842365,-19.709334],[-61.750827,-19.612552],[-60.044833,-19.285287],[-59.242605,-19.32755],[-58.860445,-19.450984],[-58.383576,-19.697674],[-58.192351,-19.883437],[-58.143191,-20.144628],[-58.160034,-20.144628],[-58.176877,-20.161471],[-57.87422,-20.908154],[-57.952447,-21.980887],[-57.890499,-22.095773],[-56.959074,-22.255207],[-56.69105,-22.234051],[-56.439216,-22.146063],[-55.928851,-22.314604],[-55.814111,-22.384439],[-55.676793,-22.612272],[-55.487106,-23.674921],[-55.373288,-23.918052],[-55.121273,-23.979299],[-54.595363,-23.872789],[-54.373452,-24.012776],[-54.303521,-24.270082],[-54.316136,-24.540087],[-54.589247,-25.585025],[-54.666288,-26.254169],[-54.756725,-26.508106],[-54.92952,-26.715241],[-55.488933,-27.086537],[-55.64671,-27.305135],[-55.761273,-27.370425],[-56.030506,-27.354488],[-56.536074,-27.507118],[-57.203321,-27.447048],[-57.997687,-27.286115],[-58.534366,-27.246329],[-58.591426,-27.139819],[-58.513744,-27.033552],[-58.263675,-26.714637]],[[-58.513744,-27.050395],[-58.496901,-27.050395],[-58.496901,-27.033552],[-58.513744,-27.033552],[-58.513744,-27.050395]]]],"type":"MultiPolygon"},"properties":{"name":"Paraguay","source_feature_id":"marineregions:PY"},"type":"Feature"}
