{"geometry":{"coordinates":[[[[50.782654,25.585025],[51.11952,27.050395],[51.389014,27.016709],[51.742724,26.932492],[52.197494,26.561939],[52.500674,26.174542],[52.568047,25.871362],[52.601734,25.079725],[52.500674,25.012352],[52.298554,25.029195],[52.264867,24.810232],[51.709037,24.709172],[51.591134,24.726015],[51.439544,24.641798],[51.304797,24.507052],[50.934244,24.540738],[50.66475,25.113412],[50.56369,25.585025],[50.782654,25.585025]]]],"type":"MultiPolygon"},"properties":{"name":"Qatar","source_feature_id":"marineregions:QA"},"type":"Feature"}
