{"geometry":{"coordinates":[[[[-23.801389,58.239722],[-22.008889,57.244444],[-21.305278,56.835833],[-20.598611,56.462222],[-20.0825,56.294167],[-19.013611,55.845833],[-18.286389,55.505556],[-18.8,52.8],[-20.4,52.0],[-21.9,51.8],[-22.110381,51.815808],[-22.184496,51.841667],[-22.559832,52.001171],[-22.803264,52.126913],[-23.0179,52.26117],[-23.279871,52.451494],[-23.479967,52.623336],[-23.665891,52.810315],[-23.88445,53.07298],[-24.085519,53.369873],[-24.278813,53.727133],[-24.436426,54.078066],[-24.56744,54.464327],[-24.656719,54.83257],[-24.711643,55.184683],[-24.735697,55.55149],[-24.727992,55.910728],[-24.688579,56.259695],[-24.603811,56.686864],[-24.502636,57.032132],[-24.368931,57.368255],[-24.200977,57.693835],[-23.983495,58.02515],[-23.801389,58.239722]]]],"type":"MultiPolygon"},"properties":{"name":"R\u00e9union","source_feature_id":"marineregions:RE"},"type":"Feature"}
