{"geometry":{"coordinates":[[[[28.397862,45.291727],[28.431549,45.291727],[28.448392,45.291727],[28.448392,45.274883],[28.482079,45.274883],[28.498922,45.274883],[28.515765,45.25804],[28.532609,45.25804],[28.549452,45.25804],[28.566295,45.241197],[28.650512,45.241197],[28.667355,45.224353],[28.701042,45.224353],[28.717885,45.224353],[28.734729,45.224353],[28.751572,45.224353],[28.785259,45.241197],[28.802102,45.241197],[28.785259,45.25804],[28.768415,45.25804],[28.751572,45.274883],[28.802102,45.30857],[28.903162,45.291727],[28.920005,45.291727],[28.920005,45.274883],[28.936849,45.274883],[28.953692,45.274883],[28.953692,45.291727],[28.953692,45.30857],[28.970535,45.325413],[28.987379,45.325413],[29.004222,45.342257],[29.037909,45.3591],[29.054752,45.3591],[29.071595,45.3591],[29.088439,45.375943],[29.105282,45.375943],[29.122125,45.375943],[29.138969,45.392787],[29.172655,45.392787],[29.189499,45.392787],[29.189499,45.40963],[29.206342,45.40963],[29.223185,45.426473],[29.240029,45.426473],[29.256872,45.426473],[29.273715,45.426473],[29.290559,45.426473],[29.307402,45.426473],[29.324245,45.443317],[29.341089,45.443317],[29.357932,45.426473],[29.374775,45.426473],[29.391619,45.443317],[29.492679,45.426473],[29.543209,45.40963],[29.560052,45.392787],[29.576895,45.392787],[29.644269,45.342257],[29.661112,45.325413],[29.661112,45.30857],[29.677955,45.291727],[30.435905,44.95486],[30.692798,44.853585],[30.780465,44.750031],[30.775176,44.614405],[30.523245,44.288307],[29.9465,43.914644],[29.812702,43.674766],[29.167623,43.681583],[28.310989,43.758464],[27.823491,43.974715],[27.090585,44.130688],[26.241371,44.002601],[25.576289,43.660479],[24.615166,43.728547],[24.186749,43.702502],[23.553478,43.821046],[23.017613,43.821816],[22.923351,43.868583],[22.953205,44.068976],[22.671128,44.213753],[22.509623,44.416475],[22.539392,44.49424],[22.681068,44.574497],[22.614746,44.631741],[22.445655,44.674834],[22.359669,44.660454],[22.141999,44.518411],[21.907569,44.63288],[21.570755,44.729461],[21.422535,44.821092],[21.47297,44.888458],[21.434416,45.041665],[21.474962,45.118969],[21.435226,45.192717],[21.022545,45.343457],[20.874329,45.437884],[20.818378,45.505518],[20.756174,45.75329],[20.262531,46.11705],[20.262531,46.133893],[20.638127,46.168511],[21.171957,46.331537],[21.31711,46.571148],[21.461636,46.690115],[22.135234,47.599671],[22.371309,47.754839],[22.648805,47.808409],[22.890092,47.952973],[23.136833,48.05426],[23.271243,48.052368],[24.604886,47.914676],[24.972402,47.761901],[25.481159,47.926054],[26.015424,47.987397],[26.629312,48.256153],[26.839266,48.229621],[26.966179,48.13825],[27.051725,48.082297],[27.117769,48.003503],[27.117769,47.98666],[27.134612,47.98666],[27.151455,47.98666],[27.293533,47.679708],[27.547781,47.45737],[27.593505,47.355665],[27.734058,47.264318],[27.835618,47.129871],[28.070696,46.978077],[28.220776,46.677064],[28.241551,46.509208],[28.231479,46.398087],[28.128369,46.201267],[28.111525,46.201267],[28.111525,46.184423],[28.128369,46.184423],[28.100999,46.014749],[28.148292,45.732024],[28.138552,45.563268],[28.212585,45.477003],[28.212585,45.46016],[28.229429,45.46016],[28.246272,45.46016],[28.263115,45.46016],[28.263115,45.443317],[28.279959,45.443317],[28.279959,45.426473],[28.279959,45.40963],[28.279959,45.392787],[28.296802,45.375943],[28.313645,45.342257],[28.330489,45.342257],[28.330489,45.325413],[28.347332,45.325413],[28.364175,45.30857],[28.381019,45.30857],[28.397862,45.30857],[28.397862,45.304359],[28.397862,45.291727]],[[28.751572,45.20751],[28.768415,45.20751],[28.785259,45.20751],[28.785259,45.224353],[28.751572,45.224353],[28.751572,45.20751]],[[28.785259,45.190667],[28.785259,45.173823],[28.802102,45.173823],[28.802102,45.190667],[28.802102,45.20751],[28.785259,45.20751],[28.785259,45.190667]],[[29.307402,44.988547],[29.307402,44.971703],[29.324245,44.971703],[29.324245,44.988547],[29.307402,44.988547]],[[29.307402,45.00539],[29.290559,45.00539],[29.307402,44.988547],[29.307402,45.00539]],[[28.953692,45.140137],[28.936849,45.15698],[28.936849,45.140137],[28.953692,45.140137]],[[29.206342,45.10645],[29.189499,45.10645],[29.206342,45.089607],[29.206342,45.10645]],[[29.341089,44.988547],[29.341089,44.971703],[29.341089,44.95486],[29.357932,44.95486],[29.357932,44.971703],[29.341089,44.988547]]],[[[28.145212,46.184423],[28.128369,46.184423],[28.128369,46.201267],[28.145212,46.184423]]],[[[27.151455,48.003503],[27.168299,47.98666],[27.151455,47.98666],[27.151455,48.003503]]],[[[27.117769,48.003503],[27.117769,48.020347],[27.134612,48.020347],[27.134612,48.003503],[27.117769,48.003503]]],[[[26.966179,48.13825],[26.966179,48.155093],[26.983022,48.155093],[26.983022,48.13825],[26.966179,48.13825]]]],"type":"MultiPolygon"},"properties":{"name":"Romania","source_feature_id":"marineregions:RO"},"type":"Feature"}
