{"geometry":{"coordinates":[[[[20.262531,46.11705],[20.818361,45.780183],[20.767831,45.61175],[21.087855,45.291727],[21.525782,45.15698],[21.374192,44.870643],[21.626842,44.668523],[21.997395,44.634837],[22.115298,44.466403],[22.469008,44.719053],[22.755345,44.533777],[22.469008,44.483246],[22.671128,44.213753],[22.418478,44.011633],[22.351105,43.809513],[22.553225,43.455803],[22.755345,43.38843],[22.991152,43.118936],[22.687972,42.866286],[22.435322,42.815756],[22.519538,42.394673],[22.367948,42.3273],[21.761588,42.259926],[21.458408,42.293613],[21.273132,42.091493],[21.104698,42.209396],[20.599398,41.87253],[20.515181,42.22624],[20.262531,42.310456],[20.077255,42.563106],[20.043568,42.78207],[20.346748,42.899973],[19.673015,43.169466],[19.218245,43.523176],[19.538268,43.657923],[19.235088,44.011633],[19.622485,44.04532],[19.100341,44.382186],[19.369835,44.887487],[19.016125,44.8538],[19.117185,45.123293],[19.386678,45.15698],[18.982438,45.3591],[18.898221,45.91493],[19.285618,45.999147],[19.706701,46.184423],[20.245688,46.11705],[20.262531,46.11705]]]],"type":"MultiPolygon"},"properties":{"name":"Serbia","source_feature_id":"marineregions:RS"},"type":"Feature"}
