{"geometry":{"coordinates":[[[[-1.048937,30.443483],[-1.064633,30.427194],[-1.061329,30.351531],[-1.101218,30.338193],[-1.132729,30.345039],[-1.147385,30.305439],[-1.209311,30.277753],[-1.268921,30.216357],[-1.278191,30.190258],[-1.267548,30.175148],[-1.348057,30.160209],[-1.353207,30.138917],[-1.382561,30.117625],[-1.372948,30.076243],[-1.39595,30.051686],[-1.428223,30.050827],[-1.4114,30.017858],[-1.46101,29.967717],[-1.481266,29.910535],[-1.44762,29.886151],[-1.355095,29.875505],[-1.355438,29.854728],[-1.315613,29.836356],[-1.309605,29.818498],[-1.368484,29.791024],[-1.340504,29.721481],[-1.389599,29.660181],[-1.387367,29.557274],[-1.411057,29.518811],[-1.505998,29.450077],[-1.510277,29.358768],[-1.591644,29.3112],[-1.62941,29.264831],[-1.66975,29.242334],[-1.699624,29.243375],[-1.861668,29.134478],[-1.909561,29.121081],[-2.109375,29.175842],[-2.17083,29.156808],[-2.285156,29.085794],[-2.293053,29.007861],[-2.369442,28.962504],[-2.371845,28.908897],[-2.426262,28.869036],[-2.490187,28.893579],[-2.532864,28.86218],[-2.567024,28.895516],[-2.64101,28.905998],[-2.66161,28.897216],[-2.702916,28.967181],[-2.699547,28.996034],[-2.744179,29.040717],[-2.710855,29.056551],[-2.669227,29.046991],[-2.649937,29.061626],[-2.623501,29.052518],[-2.604103,29.063001],[-2.592087,29.087745],[-2.60891,29.130018],[-2.59479,29.16175],[-2.615572,29.174316],[-2.629101,29.221905],[-2.619231,29.264544],[-2.653713,29.303108],[-2.64925,29.325448],[-2.737656,29.354835],[-2.763533,29.338886],[-2.838871,29.370714],[-2.797716,29.437382],[-2.827435,29.537527],[-2.813358,29.548871],[-2.807307,29.618385],[-2.787995,29.657957],[-2.817993,29.723588],[-2.811041,29.752978],[-2.766623,29.770117],[-2.756452,29.79435],[-2.781172,29.837402],[-2.758255,29.885867],[-2.686672,29.924534],[-2.64174,29.936904],[-2.558671,29.921491],[-2.499347,29.943217],[-2.482352,29.967959],[-2.413859,29.962417],[-2.369313,29.943218],[-2.319875,29.965382],[-2.353821,30.037784],[-2.393474,30.06407],[-2.437763,30.133659],[-2.425747,30.186404],[-2.381973,30.214752],[-2.345581,30.21733],[-2.37133,30.255814],[-2.37339,30.291398],[-2.347941,30.372641],[-2.316656,30.389263],[-2.310476,30.409107],[-2.330303,30.435779],[-2.319489,30.461164],[-2.368369,30.472573],[-2.367661,30.487928],[-2.402122,30.514385],[-2.419353,30.571788],[-2.399762,30.61313],[-2.41298,30.656362],[-2.355859,30.715893],[-2.391028,30.768336],[-2.358241,30.824682],[-2.313566,30.85754],[-2.205291,30.84401],[-2.078648,30.899588],[-2.011528,30.848915],[-2.023029,30.817137],[-1.986122,30.814733],[-1.969471,30.828133],[-1.939087,30.814735],[-1.94561,30.784677],[-1.859221,30.838163],[-1.837807,30.818171],[-1.827507,30.829163],[-1.754551,30.831223],[-1.732235,30.813706],[-1.722278,30.828475],[-1.683869,30.82322],[-1.637306,30.849427],[-1.615334,30.839466],[-1.618767,30.820232],[-1.585293,30.774379],[-1.572933,30.787431],[-1.532764,30.773349],[-1.501004,30.725044],[-1.478519,30.740017],[-1.399727,30.742853],[-1.407838,30.707437],[-1.382604,30.660688],[-1.383119,30.630037],[-1.348872,30.615098],[-1.337282,30.568179],[-1.251411,30.551608],[-1.171718,30.508983],[-1.155882,30.470315],[-1.121764,30.476496],[-1.118674,30.46027],[-1.089706,30.451385],[-1.057804,30.473107],[-1.048937,30.443483]]]],"type":"MultiPolygon"},"properties":{"name":"Rwanda","source_feature_id":"marineregions:RW"},"type":"Feature"}
