{"geometry":{"coordinates":[[[[40.809846,17.563075],[40.40527,18.268922],[40.152299,18.899472],[39.799643,19.309305],[39.207418,19.64186],[38.999244,19.816665],[38.423932,20.574834],[38.166996,21.054168],[38.03925,21.839866],[38.05254,22.237505],[37.998474,22.496158],[37.625806,23.196172],[37.417127,23.358458],[37.173239,23.462765],[36.963143,23.793813],[36.490231,24.250656],[36.225067,24.705553],[35.901599,25.121517],[35.573123,25.837675],[35.506491,26.240544],[35.397737,26.490485],[35.239545,26.712531],[34.933076,26.983022],[34.706964,27.312169],[34.488817,27.946194],[34.882546,29.374775],[36.023742,29.210249],[36.178243,29.265389],[36.450332,29.451646],[36.714095,29.767328],[36.847571,29.862529],[37.330695,29.964467],[37.482021,30.02654],[37.675447,30.290502],[37.92642,30.497571],[37.918127,30.57713],[37.113621,31.4038],[37.094569,31.480093],[37.236278,31.553434],[38.913855,31.984571],[39.194439,32.153926],[40.380565,31.932983],[42.062851,31.101272],[44.692382,29.247202],[45.619634,29.123982],[46.554977,29.105282],[47.451578,28.988057],[47.545082,28.8923],[47.627436,28.635901],[47.682626,28.564352],[47.762433,28.524974],[48.44143,28.532609],[48.44143,28.549452],[48.475117,28.566295],[48.59302,28.633669],[48.660393,28.667355],[48.69408,28.701042],[49.215479,28.852794],[49.347621,28.828499],[50.006842,27.973418],[50.61422,27.437792],[50.76581,27.303045],[50.782654,27.286202],[50.900557,27.168299],[50.887082,27.151455],[50.76581,26.999865],[50.571979,26.633991],[50.536649,26.600726],[50.428972,26.543958],[50.397233,26.507758],[50.380128,26.436984],[50.323653,26.302653],[50.306521,26.182252],[50.280849,26.08847],[50.295789,25.918854],[50.31316,25.87367],[50.358481,25.816446],[50.429596,25.689388],[50.56369,25.585025],[50.631478,25.380399],[50.699725,25.064909],[50.774962,24.921792],[50.843285,24.717671],[50.92468,24.578344],[51.007934,24.510833],[51.166116,24.485417],[51.31822,24.535338],[51.439544,24.641798],[51.47323,24.641798],[51.591134,24.658642],[51.67535,24.675485],[51.558828,24.424972],[51.581062,24.241237],[51.653381,24.069716],[52.484282,23.06573],[52.634228,22.957036],[54.941464,22.661918],[55.212451,22.704815],[55.565199,22.132687],[55.607654,21.869392],[55.013701,20.086238],[54.682929,19.870109],[51.995374,18.999281],[50.802421,18.788725],[49.330084,18.63341],[48.942102,18.525034],[48.335654,18.233629],[48.120797,18.072326],[47.39456,17.107302],[47.159174,16.988547],[47.027201,17.007563],[46.690652,17.226187],[46.558568,17.250035],[45.887086,17.273255],[44.960066,17.432577],[43.887331,17.367074],[43.374168,17.505372],[43.283878,17.413903],[43.179263,17.026474],[43.214294,16.760791],[43.17112,16.637419],[42.962882,16.468067],[41.636723,16.287504],[41.143925,16.321095],[40.929303,16.439095],[40.828243,16.607528],[40.819821,16.632793],[40.740482,17.029782],[40.809846,17.563075]]]],"type":"MultiPolygon"},"properties":{"name":"Saudi Arabia","source_feature_id":"marineregions:SA"},"type":"Feature"}
