{"geometry":{"coordinates":[[[[158.384352,-9.705459],[158.237186,-9.728053],[158.054455,-9.721436],[157.859957,-9.671831],[157.6925,-9.696848],[157.516389,-9.689362],[157.056038,-9.569518],[156.846286,-9.463276],[156.714579,-9.36216],[156.474026,-9.091879],[156.328681,-9.061737],[156.164712,-8.99436],[156.017094,-8.896558],[155.891464,-8.772074],[155.7926,-8.62567],[155.67123,-8.335573],[155.635999,-8.154401],[155.635313,-8.018169],[155.404829,-7.961427],[155.183991,-7.847221],[155.048415,-7.739528],[154.916346,-7.577053],[155.112222,-7.246666],[155.593889,-6.925833],[155.693611,-6.925833],[155.923056,-6.847222],[156.039722,-6.658333],[156.035833,-6.55],[156.988417,-5.823111],[157.077735,-5.870862],[157.240773,-5.989545],[157.569675,-6.166285],[157.76732,-6.344165],[157.897984,-6.528326],[158.132231,-6.701423],[158.29245,-6.655661],[158.470562,-6.64062],[158.648166,-6.660835],[159.017572,-6.745463],[159.192927,-6.824629],[159.508441,-7.060363],[159.866815,-7.23596],[160.240363,-7.497228],[160.336139,-7.462029],[160.506083,-7.428513],[160.70055,-7.411081],[160.869137,-7.417685],[161.112496,-7.485409],[161.327778,-7.617464],[161.447333,-7.736379],[161.695732,-8.033977],[161.79493,-8.179344],[161.885014,-8.420428],[161.956404,-8.528619],[162.03239,-8.71213],[162.155703,-8.855109],[162.346983,-9.192412],[162.413213,-9.344012],[162.440314,-9.44918],[162.520454,-9.503863],[162.650508,-9.625864],[162.727574,-9.726068],[162.817428,-9.883033],[162.932027,-10.02858],[163.013966,-10.082045],[163.146716,-10.201654],[163.274962,-10.373584],[163.351469,-10.534685],[163.394661,-10.707491],[163.402811,-10.885316],[163.375541,-11.061271],[163.270775,-11.306837],[163.117475,-11.520012],[162.903683,-11.686093],[162.64966,-11.78278],[162.469005,-11.804162],[162.287625,-11.78989],[162.071426,-11.726327],[161.881759,-11.696335],[161.664052,-11.636289],[161.460683,-11.561798],[161.493829,-11.804339],[161.474594,-11.983475],[161.451474,-12.070735],[161.379338,-12.236295],[161.331027,-12.312941],[161.212295,-12.450141],[161.068124,-12.561406],[160.988258,-12.605876],[160.738188,-12.707009],[160.547762,-12.735274],[160.451332,-12.734551],[160.261369,-12.703433],[160.002542,-12.608273],[159.803225,-12.48058],[159.588679,-12.386045],[159.438536,-12.292104],[159.25487,-12.102436],[159.182946,-11.986878],[159.107036,-11.817413],[159.067851,-11.63626],[159.066967,-11.451038],[159.104346,-11.269521],[159.155479,-11.121984],[159.238936,-10.969251],[159.350302,-10.835048],[159.485463,-10.724296],[159.601308,-10.65938],[159.414742,-10.584133],[159.176815,-10.425027],[158.979387,-10.214939],[158.830952,-9.981572],[158.656671,-9.914767],[158.573854,-9.86713],[158.384352,-9.705459]]],[[[167.740284,-12.088268],[167.640967,-12.236117],[167.514122,-12.362009],[167.364622,-12.461072],[167.265126,-12.505702],[166.123314,-12.280259],[165.937904,-12.016385],[165.870488,-11.855997],[165.845902,-11.752887],[165.562955,-11.711923],[165.39752,-11.64646],[165.181298,-11.492389],[165.019451,-11.283362],[164.948729,-11.122119],[164.896575,-10.947352],[164.866007,-10.716452],[164.869254,-10.625847],[164.903069,-10.447869],[164.971984,-10.280117],[165.044634,-10.153302],[165.157206,-10.015949],[165.294522,-9.9029],[165.451334,-9.818461],[165.709889,-9.752143],[166.075603,-9.758505],[166.23126,-9.780708],[166.454739,-9.8367],[166.691743,-9.956652],[166.883939,-10.139215],[166.978904,-10.288254],[167.042949,-10.452695],[167.075639,-10.702215],[167.304872,-10.791169],[167.453048,-10.893788],[167.635295,-11.089071],[167.735765,-11.235937],[167.827706,-11.485256],[167.846321,-11.661531],[167.808285,-11.924175],[167.740284,-12.088268]]],[[[158.59897,-5.928042],[158.492681,-5.694668],[158.457225,-5.50851],[158.458695,-5.328993],[158.509849,-5.114627],[158.530737,-4.855837],[160.296984,-4.761209],[160.304691,-4.792455],[160.451688,-4.956479],[160.538485,-5.113724],[160.592593,-5.285068],[160.614432,-5.482789],[160.601069,-5.651119],[160.556684,-5.814022],[160.435561,-6.035862],[160.322528,-6.16121],[160.176595,-6.271614],[160.016484,-6.348469],[159.844411,-6.392462],[159.605136,-6.41618],[159.429068,-6.409489],[159.257664,-6.368701],[158.981876,-6.261176],[158.833786,-6.175223],[158.704604,-6.062828],[158.59897,-5.928042]]]],"type":"MultiPolygon"},"properties":{"name":"Solomon Islands","source_feature_id":"marineregions:SB"},"type":"Feature"}
