{"geometry":{"coordinates":[[[[54.580005,-5.019485],[54.517004,-4.858744],[54.485639,-4.688919],[54.487031,-4.516208],[54.55005,-4.265482],[54.630421,-4.112773],[54.801184,-3.919231],[55.018909,-3.767959],[55.185611,-3.696107],[55.363249,-3.65925],[55.544632,-3.65888],[55.722417,-3.695012],[55.889408,-3.766183],[56.038841,-3.86951],[56.164658,-4.00081],[56.301719,-4.209513],[56.386755,-4.382796],[56.433221,-4.57025],[56.442281,-4.848184],[56.412745,-5.023669],[56.349488,-5.189949],[56.25494,-5.340575],[56.132746,-5.469703],[55.987636,-5.572315],[55.825239,-5.644425],[55.651864,-5.683227],[55.474252,-5.687213],[55.299313,-5.656226],[55.133851,-5.591473],[55.008431,-5.51618],[54.870583,-5.407333],[54.672364,-5.165272],[54.580005,-5.019485]]]],"type":"MultiPolygon"},"properties":{"name":"Seychelles","source_feature_id":"marineregions:SC"},"type":"Feature"}
