{"geometry":{"coordinates":[[[[25.365,10.371],[25.339,10.379],[25.323,10.354],[25.275,10.36],[25.278,10.351],[25.273,10.333],[25.216,10.36],[25.181,10.318],[25.142,10.336],[25.061,10.269],[25.03,10.16],[25.079,10.089],[24.983,9.901],[24.72,9.744],[24.754,9.519],[24.596,9.377],[24.626,9.321],[24.543,9.063],[24.579,8.924],[24.227,8.644],[24.256,8.708],[24.0,8.7],[23.811,8.777],[23.739,8.715],[23.628,8.76],[23.517,8.725],[23.589,9.006],[23.525,8.966],[23.444,9.025],[23.466,9.16],[23.657,9.288],[23.666,9.892],[23.306,10.477],[23.008,10.715],[22.875,10.932],[22.979,11.308],[22.943,11.427],[22.785,11.412],[22.56,11.635],[22.647,12.068],[22.471,12.033],[22.492,12.185],[22.367,12.443],[22.476,12.633],[22.203,12.757],[22.15,12.664],[21.941,12.643],[21.815,12.814],[21.941,13.069],[22.136,13.171],[22.29,13.352],[22.084,13.771],[22.222,13.949],[22.582,14.191],[22.428,14.295],[22.446,14.487],[22.381,14.517],[22.409,14.606],[22.717,14.697],[22.665,14.862],[22.76,14.907],[22.751,14.969],[22.935,15.102],[23.006,15.233],[22.929,15.554],[23.114,15.716],[23.346,15.684],[23.637,15.764],[23.998,15.703],[23.998,19.501],[23.998,19.999],[24.998,19.999],[24.999,21.999],[31.29,22.0],[31.346,22.167],[31.465,22.231],[31.523,22.176],[31.408,22.0],[33.164,22.0],[33.554,21.725],[34.001,21.771],[34.07,21.964],[36.881,22.0],[37.815,21.89],[38.095,21.319],[38.199,20.872],[38.147,20.218],[38.254,19.446],[39.333,18.612],[39.53,18.173],[39.541,18.046],[39.443,18.044],[39.092,18.04],[38.836,18.104],[38.598,18.027],[38.595,18.026],[38.453,17.9],[38.348,17.652],[38.282,17.639],[38.242,17.55],[38.166,17.595],[38.098,17.517],[38.0,17.566],[37.954,17.467],[37.793,17.5],[37.763,17.383],[37.516,17.339],[37.509,17.202],[37.404,17.055],[37.002,17.079],[37.031,16.8],[36.9,16.675],[36.88,16.531],[36.967,16.433],[36.959,16.287],[36.704,15.739],[36.585,15.334],[36.433,15.167],[36.559,14.256],[36.456,13.977],[36.498,13.836],[36.144,12.947],[36.161,12.689],[36.007,12.721],[35.7,12.665],[35.342,12.034],[35.087,11.807],[35.044,11.734],[35.078,11.533],[34.923,11.24],[35.001,11.187],[34.946,10.952],[34.981,10.911],[34.784,10.708],[34.795,10.754],[34.603,10.905],[34.465,10.814],[34.299,10.579],[34.348,10.169],[34.234,10.054],[34.108,9.499],[33.9,9.499],[33.888,9.546],[33.993,9.911],[33.966,10.154],[33.901,10.162],[33.483,10.658],[33.219,10.735],[33.266,10.829],[33.135,11.626],[33.296,12.216],[32.731,12.236],[32.744,11.947],[32.107,11.945],[32.376,11.712],[32.393,11.22],[32.471,11.043],[31.995,10.654],[31.787,10.302],[31.275,9.758],[30.826,9.722],[30.521,9.966],[29.942,10.288],[29.541,10.083],[29.538,9.75],[29.078,9.75],[28.806,9.488],[28.769,9.348],[28.039,9.343],[27.907,9.61],[27.137,9.624],[26.704,9.488],[26.396,9.566],[26.314,9.637],[26.212,9.911],[25.931,10.182],[25.93,10.386],[25.76,10.439],[25.366,10.371],[25.365,10.369],[25.364,10.37],[25.365,10.371]]]],"type":"MultiPolygon"},"properties":{"name":"Sudan","source_feature_id":"marineregions:SD"},"type":"Feature"}
