{"geometry":{"coordinates":[[[[20.750988,69.035214],[20.993532,68.900467],[21.388789,68.76572],[21.424722,68.693856],[21.62235,68.666906],[21.748114,68.586058],[21.891843,68.586058],[22.044556,68.478261],[22.349982,68.478261],[22.799138,68.397413],[23.149479,68.2447],[23.149479,68.136903],[23.311175,68.145886],[23.38304,68.056055],[23.661516,67.939274],[23.490837,67.867409],[23.490837,67.660798],[23.562702,67.615882],[23.409989,67.463169],[23.751347,67.43622],[23.733381,67.283507],[23.562702,67.265541],[23.553719,67.17571],[23.993891,66.825368],[23.886094,66.77147],[23.877111,66.573841],[23.64355,66.439095],[23.652533,66.286382],[23.742364,66.187567],[23.922027,66.160618],[23.939993,66.070787],[24.119655,65.927057],[24.182537,65.711462],[24.137621,65.513834],[21.496586,63.663313],[20.939633,63.519583],[20.697089,63.483651],[20.400647,63.330938],[19.529285,62.70212],[19.232842,60.68092],[19.160977,60.375494],[19.080129,60.195832],[20.14912,59.44125],[20.481495,58.848365],[20.472512,58.7765],[20.454545,58.63277],[20.436579,58.480057],[20.373697,58.201581],[20.391664,58.021919],[20.418613,57.914121],[20.068272,57.56378],[20.032339,57.447],[19.673015,56.970895],[19.421488,56.584621],[19.19691,56.198347],[18.981315,56.126482],[18.559109,56.045634],[18.065038,56.027668],[17.768595,55.713259],[17.382321,55.587496],[16.996047,55.497664],[16.510959,55.353935],[15.046712,55.695293],[14.46281,55.309019],[13.995688,54.958678],[13.663313,55.021559],[13.160259,55.012576],[13.151276,55.003593],[12.675171,55.246137],[12.612289,55.434783],[12.899748,55.641394],[12.648221,55.919871],[12.657204,56.045634],[12.477542,56.171398],[12.091268,56.306144],[12.145167,56.49479],[12.091268,56.584621],[11.399569,57.447],[11.049227,57.815307],[10.546173,58.129716],[10.034136,58.264463],[10.141933,58.507007],[10.591089,58.758534],[10.636004,58.893281],[11.067194,58.974129],[11.130075,59.072943],[11.34567,59.117858],[11.462451,59.001078],[11.453467,58.893281],[11.651096,58.911247],[11.767876,59.081926],[11.821775,59.342436],[11.704995,59.620913],[11.938556,59.692778],[11.839741,59.836507],[11.956522,59.899389],[12.172116,59.890406],[12.342796,59.962271],[12.540424,60.195832],[12.495508,60.321595],[12.603306,60.402443],[12.603306,60.510241],[12.396694,60.734819],[12.333812,60.896515],[12.217032,61.013295],[12.684154,61.058211],[12.872799,61.354653],[12.567373,61.570248],[12.41466,61.561265],[12.136184,61.722961],[12.29788,62.252964],[12.055336,62.612289],[12.136184,62.747036],[12.073302,62.899748],[12.217032,62.998563],[11.983471,63.259073],[12.190083,63.465685],[12.145167,63.591448],[12.684154,63.977722],[12.926698,64.05857],[13.205174,64.094502],[13.968739,64.004671],[14.157384,64.193317],[14.112469,64.46281],[13.65433,64.57959],[14.049587,64.920949],[14.328063,65.118577],[14.372979,65.235358],[14.507725,65.307222],[14.543658,65.711462],[14.624506,65.810277],[14.516709,66.133669],[15.037729,66.151635],[15.486885,66.286382],[15.379087,66.48401],[15.621631,66.591807],[16.034854,66.906216],[16.394179,67.049946],[16.403162,67.202659],[16.097736,67.43622],[16.160618,67.517068],[16.421128,67.535034],[16.62774,67.741646],[16.74452,67.912325],[17.166727,68.047072],[17.283507,68.118936],[17.903342,67.966223],[18.154869,68.199784],[18.10097,68.406396],[18.12792,68.541143],[18.406396,68.577075],[18.621991,68.50521],[18.990298,68.514193],[19.924542,68.352497],[20.229968,68.487244],[19.942508,68.559109],[20.203018,68.666906],[20.337765,68.810636],[20.310816,68.927416],[20.059289,69.044197],[20.55336,69.062163],[20.750988,69.035214]]]],"type":"MultiPolygon"},"properties":{"name":"Sweden","source_feature_id":"marineregions:SE"},"type":"Feature"}
