{"geometry":{"coordinates":[[[[104.068161,1.265049],[104.021517,1.25732],[103.885428,1.216148],[103.844495,1.192452],[103.800728,1.174532],[103.754793,1.141032],[103.737366,1.134627],[103.720226,1.141907],[103.651769,1.192504],[103.585848,1.196128],[103.552821,1.21272],[103.572181,1.254606],[103.608001,1.297863],[103.658065,1.408793],[103.682988,1.436701],[103.698647,1.447152],[103.764081,1.451561],[103.8131,1.478688],[103.839192,1.469541],[103.874535,1.438882],[103.891586,1.431713],[103.938816,1.431631],[103.963605,1.418913],[103.972723,1.41868],[104.007885,1.431582],[104.055113,1.431683],[104.072367,1.425139],[104.085492,1.411873],[104.091046,1.394559],[104.081449,1.378456],[104.062326,1.358002],[104.061819,1.348892],[104.08698,1.298113],[104.091807,1.280093],[104.068161,1.265049]]]],"type":"MultiPolygon"},"properties":{"name":"Singapore","source_feature_id":"marineregions:SG"},"type":"Feature"}
