{"geometry":{"coordinates":[[[[13.387,45.565],[13.471,45.587],[13.474,45.588],[13.485,45.591],[13.505,45.596],[13.511,45.598],[13.513,45.599],[13.523,45.601],[13.56,45.611],[13.606,45.624],[13.63,45.63],[13.726,45.595],[13.736,45.597],[13.746,45.598],[13.752,45.597],[13.784,45.583],[13.841,45.582],[13.917,45.636],[13.786,45.749],[13.595,45.81],[13.643,45.983],[13.479,46.0],[13.67,46.179],[13.419,46.21],[13.378,46.294],[13.689,46.443],[13.714,46.523],[14.086,46.486],[14.173,46.432],[14.43,46.445],[14.564,46.372],[14.596,46.436],[14.818,46.508],[14.865,46.605],[14.972,46.594],[15.042,46.649],[15.507,46.618],[15.59,46.687],[15.836,46.722],[16.043,46.652],[15.995,46.825],[16.12,46.87],[16.348,46.842],[16.312,46.784],[16.428,46.694],[16.393,46.635],[16.64,46.464],[16.619,46.461],[16.591,46.473],[16.576,46.464],[16.346,46.537],[16.263,46.479],[16.301,46.386],[16.062,46.388],[16.072,46.344],[15.784,46.258],[15.774,46.211],[15.647,46.217],[15.606,46.112],[15.732,46.044],[15.671,45.847],[15.267,45.716],[15.354,45.717],[15.397,45.646],[15.277,45.606],[15.387,45.488],[15.346,45.456],[15.167,45.422],[14.932,45.529],[14.819,45.46],[14.58,45.673],[14.399,45.49],[14.276,45.513],[14.201,45.468],[14.028,45.52],[13.993,45.453],[13.607,45.466],[13.524,45.512],[13.498,45.522],[13.452,45.54],[13.387,45.565]]]],"type":"MultiPolygon"},"properties":{"name":"Slovenia","source_feature_id":"marineregions:SI"},"type":"Feature"}
