{"geometry":{"coordinates":[[[[-8.084801,72.071506],[-7.231405,72.044556],[-6.458857,71.927776],[-6.018685,71.819978],[-5.668344,71.676249],[-5.416816,71.523536],[-5.264103,71.352857],[-5.210205,71.10133],[-5.273087,70.93065],[-5.407833,70.750988],[-5.650377,70.589292],[-5.982752,70.445562],[-6.386992,70.319799],[-7.716493,70.041322],[-8.165649,69.978441],[-9.019044,69.933525],[-9.809558,69.969457],[-10.303629,70.041322],[-10.752785,70.140137],[-11.34567,70.355731],[-11.60618,70.517427],[-11.812792,70.768954],[-11.785843,71.038448],[-11.516349,71.289975],[-11.094143,71.496586],[-10.734819,71.604384],[-10.213798,71.810995],[-9.531082,71.954725],[-8.650737,72.053539],[-8.084801,72.071506]]],[[[19.753863,75.40424],[20.445562,75.350341],[21.07438,75.269493],[21.846928,75.080848],[22.215235,74.928135],[22.43083,74.793388],[22.592526,74.59576],[22.601509,74.389148],[21.721164,74.353216],[20.391664,74.245419],[19.547251,74.146604],[18.002156,73.895077],[16.978081,73.670499],[16.448078,73.823212],[16.070787,73.957959],[15.79231,74.110672],[15.567733,74.272368],[15.459935,74.434064],[15.513834,74.685591],[15.837226,74.928135],[16.510959,75.170679],[17.355372,75.323392],[18.002156,75.386274],[18.693856,75.413223],[19.753863,75.40424]]],[[[27.587136,77.075099],[27.299677,77.030183],[26.841538,76.886453],[25.943227,76.688825],[24.775422,76.50018],[24.119655,76.428315],[22.799138,76.374416],[22.02659,76.374416],[21.272009,76.419332],[20.822853,76.464247],[20.52641,76.275602],[20.203018,76.149838],[19.74488,76.006109],[18.873518,75.835429],[17.660798,75.709666],[16.978081,75.682716],[15.93604,75.700683],[15.603665,75.718649],[14.381962,75.862379],[13.77111,75.979159],[13.088394,76.185771],[12.279914,76.401365],[12.03737,76.50018],[11.264822,76.670859],[10.815667,76.823572],[10.438376,76.985268],[10.123967,77.16493],[9.962271,77.299677],[9.87244,77.443406],[8.965146,77.587136],[8.435142,77.7129],[8.174632,77.802731],[7.626662,77.919511],[7.348185,78.000359],[6.916996,78.180022],[6.629536,78.341718],[6.279195,78.49443],[5.982752,78.727991],[5.910888,78.871721],[5.928854,79.0424],[6.153432,79.222063],[5.865972,79.428674],[5.68631,79.671218],[5.65936,79.868847],[5.83004,80.039526],[6.243263,80.228171],[6.782249,80.371901],[7.123608,80.434783],[7.905138,80.54258],[8.345311,80.587496],[9.459217,80.65936],[11.031261,80.713259],[12.064319,80.713259],[12.756019,80.740208],[13.645347,80.83004],[13.91484,80.901904],[14.624506,81.027668],[15.486885,81.135465],[16.448078,81.20733],[17.112828,81.270212],[18.190801,81.342077],[18.76572,81.360043],[19.942508,81.369026],[21.460654,81.333094],[22.008624,81.360043],[23.140496,81.369026],[24.263385,81.35106],[24.802372,81.324111],[25.817463,81.252246],[26.365433,81.189364],[26.61696,81.180381],[27.614086,81.09055],[28.000359,81.036651],[28.629177,81.009702],[29.500539,80.94682],[31.261229,81.072584],[32.384118,81.126482],[33.551922,81.135465],[34.998203,81.099533],[34.998203,79.32986],[34.028027,79.266978],[34.20769,79.168164],[34.351419,78.988502],[34.306504,78.808839],[34.090909,78.63816],[33.713618,78.476464],[33.192598,78.332734],[32.887172,78.269853],[31.827165,78.108157],[30.722242,78.000359],[29.698167,77.964427],[29.105282,77.874596],[29.132231,77.784765],[29.0424,77.605102],[28.790873,77.434423],[28.404599,77.272727],[27.587136,77.075099]]]],"type":"MultiPolygon"},"properties":{"name":"Jan Mayen","source_feature_id":"marineregions:SJ"},"type":"Feature"}
