{"geometry":{"coordinates":[[[[-12.362146,6.37757],[-13.394717,6.79],[-13.65148,7.013154],[-13.783024,7.23284],[-13.886611,7.646998],[-14.077792,8.02906],[-14.1605,8.271453],[-14.165663,8.526146],[-14.081728,8.673488],[-14.013654,8.724847],[-13.727626,8.905292],[-13.073931,9.088298],[-12.899804,9.268965],[-12.755072,9.358178],[-12.531441,9.718604],[-12.489811,9.792785],[-12.350554,9.887869],[-12.095337,9.897507],[-11.771746,10.000268],[-11.262057,9.983455],[-11.016286,9.751309],[-10.722768,9.334002],[-10.687925,9.257744],[-10.712361,9.179617],[-10.584596,8.964583],[-10.511291,8.720978],[-10.678674,8.337451],[-10.508305,8.354112],[-10.291277,8.489041],[-10.274434,8.472197],[-10.335615,8.22456],[-10.544617,8.079065],[-10.666346,7.76135],[-10.83952,7.571978],[-11.236424,7.246679],[-11.433473,6.969939],[-11.503997,6.92261],[-11.520841,6.888924],[-11.685165,6.682542],[-12.009298,6.383624],[-12.135959,6.256962],[-12.362146,6.37757]],[[-12.531441,9.701761],[-12.514598,9.701761],[-12.514598,9.718604],[-12.531441,9.718604],[-12.531441,9.701761]],[[-10.712361,9.196461],[-10.729204,9.179617],[-10.712361,9.179617],[-10.712361,9.196461]],[[-10.695517,8.337451],[-10.695517,8.320607],[-10.695517,8.303764],[-10.695517,8.286921],[-10.678674,8.286921],[-10.678674,8.303764],[-10.678674,8.320607],[-10.678674,8.337451],[-10.695517,8.337451]]]],"type":"MultiPolygon"},"properties":{"name":"Sierra Leone","source_feature_id":"marineregions:SL"},"type":"Feature"}
