{"geometry":{"coordinates":[[[[12.492373,43.909092],[12.491394,43.901539],[12.489488,43.899479],[12.483528,43.898106],[12.472802,43.897762],[12.463029,43.896217],[12.456117,43.895531],[12.451349,43.896904],[12.445867,43.901711],[12.440385,43.904972],[12.437048,43.9048],[12.433234,43.903255],[12.430612,43.903942],[12.42799,43.905315],[12.423938,43.903427],[12.420124,43.902569],[12.414642,43.903084],[12.413688,43.905487],[12.412258,43.909264],[12.410351,43.91613],[12.410351,43.918362],[12.412973,43.924198],[12.413211,43.928146],[12.412258,43.932953],[12.411304,43.936043],[12.411066,43.948746],[12.410589,43.950462],[12.410113,43.952179],[12.411066,43.954239],[12.416787,43.957157],[12.422491,43.958702],[12.427021,43.958874],[12.432982,43.958359],[12.439181,43.960419],[12.442519,43.962479],[12.446811,43.966084],[12.455633,43.970032],[12.463024,43.974666],[12.472085,43.977757],[12.481622,43.981876],[12.487582,43.985481],[12.500458,43.987026],[12.508326,43.98737],[12.512856,43.986168],[12.51071,43.981876],[12.506418,43.968658],[12.505934,43.964023],[12.50808,43.956127],[12.511178,43.951664],[12.516184,43.946342],[12.514754,43.943596],[12.50951,43.940163],[12.501882,43.932094],[12.498307,43.925915],[12.495281,43.920262],[12.493207,43.916388],[12.492373,43.909092]]]],"type":"MultiPolygon"},"properties":{"name":"San Marino","source_feature_id":"marineregions:SM"},"type":"Feature"}
