{"geometry":{"coordinates":[[[[-16.74452,13.061444],[-16.726554,13.115343],[-16.726554,13.10636],[-16.717571,13.115343],[-16.690622,13.169242],[-15.801294,13.169242],[-15.810277,13.348904],[-15.334172,13.357887],[-15.226374,13.420769],[-15.091628,13.600431],[-15.037729,13.519583],[-14.408911,13.25009],[-14.148401,13.22314],[-14.112469,13.286022],[-13.896874,13.312972],[-13.789077,13.438735],[-13.959756,13.582465],[-14.372979,13.465685],[-14.561624,13.65433],[-14.705354,13.618397],[-14.813151,13.753144],[-15.091628,13.825009],[-15.217391,13.753144],[-15.406037,13.753144],[-15.477902,13.591448],[-16.546892,13.591448],[-17.633848,13.591448],[-17.69673,13.780093],[-17.939274,13.887891],[-18.2447,14.166367],[-18.38843,14.390945],[-18.460295,14.651455],[-18.451312,14.920949],[-18.36148,15.172476],[-18.262666,15.325189],[-17.98419,15.549766],[-17.759612,15.630614],[-17.615882,15.810277],[-17.472152,16.070787],[-16.466044,16.070787],[-16.448078,16.19655],[-16.349263,16.268415],[-16.277398,16.519943],[-16.115702,16.555875],[-16.052821,16.475027],[-15.81926,16.510959],[-15.693496,16.475027],[-15.459935,16.591807],[-15.118577,16.573841],[-15.001797,16.636723],[-14.768236,16.654689],[-14.498742,16.609774],[-14.328063,16.636723],[-13.959756,16.313331],[-13.923823,16.2235],[-13.842975,16.106719],[-13.699245,16.178584],[-13.681279,16.097736],[-13.5106,16.124686],[-13.375853,16.052821],[-13.357887,15.954006],[-13.205174,15.693496],[-13.232124,15.612648],[-13.088394,15.585699],[-13.10636,15.495868],[-12.96263,15.504851],[-12.944664,15.352138],[-12.791951,15.145526],[-12.459576,14.98383],[-12.450593,14.893999],[-12.243981,14.768236],[-12.243981,14.759253],[-12.234998,14.732303],[-12.145167,14.633489],[-12.217032,14.552641],[-12.199066,14.408911],[-12.091268,14.363996],[-11.974488,14.184333],[-12.01042,14.049587],[-11.938556,13.923823],[-11.956522,13.789077],[-12.073302,13.717212],[-11.974488,13.537549],[-11.866691,13.465685],[-11.821775,13.303989],[-11.740927,13.411786],[-11.624147,13.39382],[-11.516349,13.142292],[-11.381603,12.96263],[-11.363636,12.729069],[-11.444484,12.675171],[-11.354653,12.504492],[-11.372619,12.423644],[-11.480417,12.450593],[-11.848724,12.396694],[-12.046353,12.432627],[-12.351779,12.306863],[-12.405677,12.387711],[-12.567373,12.369745],[-12.756019,12.432627],[-12.881782,12.549407],[-13.070428,12.486525],[-13.070428,12.648221],[-13.717212,12.675171],[-15.181459,12.684154],[-15.67553,12.423644],[-16.043838,12.477542],[-16.214517,12.459576],[-16.510959,12.351779],[-16.690622,12.360762],[-16.897233,12.243981],[-17.508085,11.884657],[-17.669781,12.234998],[-17.705713,12.41466],[-17.687747,13.061444],[-17.058929,13.061444],[-16.74452,13.061444]]]],"type":"MultiPolygon"},"properties":{"name":"Senegal","source_feature_id":"marineregions:SN"},"type":"Feature"}
