{"geometry":{"coordinates":[[[[41.906216,3.975027],[42.07465,4.177147],[42.563106,4.210834],[42.916816,4.328737],[43.08525,4.615074],[44.028476,4.968784],[44.75274,4.918254],[45.022233,4.95194],[47.346613,7.360537],[48.003503,8.000584],[46.992903,8.000584],[46.21811,8.270077],[43.99479,8.994341],[43.28737,9.617544],[43.253683,9.853351],[43.08525,9.903881],[42.798913,10.341807],[42.714696,10.644987],[42.967346,10.998697],[43.455803,11.756648],[44.14638,11.857708],[44.19691,11.840864],[44.3485,11.739804],[44.382186,11.554527],[44.70221,11.335564],[45.325413,11.638744],[45.746497,11.739804],[46.42023,11.672431],[47.12765,12.042984],[47.818227,12.026141],[48.23931,12.177731],[48.74461,12.228261],[48.980417,12.177731],[49.80574,12.396694],[50.075234,12.666188],[50.4121,12.817778],[50.934244,12.885151],[51.27111,12.767248],[52.062747,11.301877],[52.02906,11.099757],[52.298554,10.577614],[52.248024,10.072314],[52.062747,9.785977],[51.742724,9.550171],[51.692194,9.129087],[50.833184,7.663717],[50.647907,7.478441],[50.496317,7.091044],[50.05839,6.400467],[49.822584,5.70989],[49.367814,4.935097],[48.980417,4.44664],[48.761453,4.0424],[48.18878,3.368667],[46.67288,1.81908],[46.251797,1.5159],[45.392787,1.044287],[44.90433,0.690577],[44.09585,-0.016843],[43.253683,-0.892697],[42.697853,-1.5159],[42.360986,-2.07173],[41.838843,-1.835923],[41.737783,-1.802237],[40.996676,-0.842167],[40.996676,2.82968],[41.333543,3.149704],[41.889373,3.958184],[41.906216,3.975027]]]],"type":"MultiPolygon"},"properties":{"name":"Federal Republic of Somalia","source_feature_id":"marineregions:SO"},"type":"Feature"}
