{"geometry":{"coordinates":[[[[-56.683435,2.012217],[-56.881064,2.299677],[-57.01581,2.650018],[-57.222422,2.901545],[-57.204456,3.072224],[-57.294287,3.144089],[-57.285304,3.350701],[-57.653611,3.368667],[-57.635645,3.512397],[-57.833273,3.674093],[-57.85124,3.817822],[-58.030902,3.961552],[-58.066834,4.150198],[-57.941071,4.32986],[-57.833273,4.644269],[-57.923105,4.805965],[-57.82429,4.931728],[-57.680561,5.003593],[-57.30327,5.012576],[-57.294287,5.174272],[-57.177506,5.165289],[-57.330219,5.353935],[-57.168523,5.605462],[-57.186489,5.749192],[-57.132591,5.892921],[-57.123608,6.135465],[-56.997844,6.225296],[-56.63852,6.863097],[-56.171398,6.800216],[-55.695293,6.890047],[-55.39885,6.863097],[-55.219188,6.89903],[-54.689184,6.881064],[-54.132231,6.791232],[-53.772907,6.683435],[-53.566295,6.566655],[-53.602228,6.503773],[-54.024434,5.632411],[-54.024434,5.515631],[-54.275961,5.273087],[-54.437657,5.021559],[-54.464607,4.743083],[-54.44664,4.527488],[-54.356809,4.060367],[-54.087316,3.674093],[-53.979519,3.611211],[-54.06935,3.287819],[-54.204096,3.180022],[-54.168164,3.009342],[-54.204096,2.775782],[-54.383759,2.470356],[-54.509522,2.335609],[-54.599353,2.344592],[-54.608336,2.335609],[-54.698167,2.335609],[-54.689184,2.45239],[-54.904779,2.488322],[-54.922745,2.614086],[-55.192239,2.506288],[-55.309019,2.533238],[-55.39885,2.45239],[-55.722242,2.398491],[-55.973769,2.524254],[-55.991736,2.407474],[-56.135465,2.272727],[-55.910888,2.039166],[-55.94682,1.850521],[-56.252246,1.87747],[-56.476824,1.958318],[-56.683435,2.012217]]]],"type":"MultiPolygon"},"properties":{"name":"Suriname","source_feature_id":"marineregions:SR"},"type":"Feature"}
