{"geometry":{"coordinates":[[[[35.847,5.14],[35.846,5.14],[35.847,5.141],[35.847,5.14]]],[[[24.543,9.063],[24.626,9.321],[24.596,9.377],[24.754,9.519],[24.72,9.744],[24.983,9.901],[25.079,10.089],[25.03,10.16],[25.061,10.269],[25.142,10.336],[25.181,10.318],[25.216,10.36],[25.273,10.333],[25.278,10.351],[25.275,10.36],[25.323,10.354],[25.339,10.379],[25.366,10.371],[25.76,10.439],[25.93,10.386],[25.931,10.182],[26.212,9.911],[26.314,9.637],[26.396,9.566],[26.704,9.488],[27.137,9.624],[27.907,9.61],[28.039,9.343],[28.769,9.348],[28.806,9.488],[29.078,9.75],[29.538,9.75],[29.541,10.083],[29.942,10.288],[30.521,9.966],[30.826,9.722],[31.275,9.758],[31.787,10.302],[31.995,10.654],[32.471,11.043],[32.393,11.22],[32.376,11.712],[32.107,11.945],[32.744,11.947],[32.731,12.236],[33.296,12.216],[33.135,11.626],[33.266,10.829],[33.219,10.735],[33.483,10.658],[33.901,10.162],[33.966,10.154],[33.993,9.911],[33.888,9.546],[33.9,9.499],[34.108,9.499],[34.141,8.601],[33.77,8.366],[33.619,8.472],[33.22,8.435],[33.17,8.296],[33.193,8.13],[33.085,8.073],[33.0,7.873],[33.047,7.79],[33.248,7.779],[33.324,7.708],[33.464,7.753],[33.57,7.68],[33.674,7.7],[33.876,7.518],[33.96,7.509],[34.037,7.356],[34.016,7.256],[34.19,7.131],[34.197,7.044],[34.333,6.921],[34.449,6.916],[34.471,6.918],[34.527,6.86],[34.531,6.745],[34.641,6.74],[34.768,6.594],[34.89,6.601],[35.014,6.469],[34.957,6.241],[34.997,5.898],[35.126,5.625],[35.307,5.504],[35.302,5.35],[35.504,5.423],[35.717,5.392],[35.861,5.32],[35.846,5.14],[35.824,4.779],[35.95,4.627],[34.376,4.632],[33.99,4.232],[33.512,3.748],[33.179,3.776],[33.028,3.891],[32.72,3.764],[32.416,3.744],[32.196,3.597],[32.202,3.505],[32.086,3.531],[32.054,3.592],[31.952,3.587],[31.821,3.822],[31.529,3.652],[31.188,3.797],[30.982,3.7],[30.859,3.484],[30.862,3.571],[30.771,3.68],[30.735,3.623],[30.564,3.596],[30.553,3.867],[30.211,3.943],[30.16,4.116],[30.063,4.13],[29.958,4.229],[29.951,4.311],[29.799,4.374],[29.829,4.557],[29.657,4.646],[29.488,4.692],[29.443,4.523],[29.237,4.35],[29.028,4.492],[28.836,4.478],[28.785,4.562],[28.67,4.429],[28.38,4.283],[28.352,4.353],[28.207,4.349],[28.114,4.445],[28.077,4.416],[28.045,4.55],[27.893,4.539],[27.79,4.604],[27.763,4.786],[27.711,4.786],[27.679,4.881],[27.532,4.911],[27.451,5.017],[27.464,5.088],[27.251,5.327],[27.288,5.594],[27.24,5.603],[27.2,5.743],[26.915,5.906],[26.829,5.898],[26.83,5.981],[26.753,6.019],[26.556,6.031],[26.518,6.116],[26.448,6.071],[26.533,6.23],[26.474,6.219],[26.484,6.289],[26.313,6.373],[26.288,6.468],[26.414,6.652],[26.262,6.696],[26.176,6.812],[26.088,6.835],[26.04,7.004],[25.817,7.117],[25.826,7.155],[25.48,7.269],[25.287,7.47],[25.197,7.495],[25.169,7.583],[25.289,7.652],[25.286,7.806],[25.175,7.913],[25.084,7.896],[24.965,7.979],[24.857,8.181],[24.559,8.198],[24.477,8.278],[24.358,8.246],[24.206,8.302],[24.15,8.395],[24.27,8.587],[24.227,8.644],[24.579,8.924],[24.543,9.063]],[[25.364,10.37],[25.365,10.369],[25.366,10.371],[25.364,10.37]],[[34.451,6.912],[34.456,6.913],[34.452,6.913],[34.449,6.916],[34.451,6.912]]]],"type":"MultiPolygon"},"properties":{"name":"South Sudan","source_feature_id":"marineregions:SS"},"type":"Feature"}
