{"geometry":{"coordinates":[[[[5.928854,1.027443],[6.484684,1.296937],[6.434154,1.701177],[6.61943,2.155947],[6.87208,2.358067],[7.444754,2.610717],[7.865837,2.492814],[8.236391,2.105417],[8.354294,1.701177],[8.337451,1.431683],[8.152174,1.027443],[7.579501,0.65689],[7.646874,0.421083],[7.596344,-0.084217],[7.326851,-0.488457],[7.006827,-0.741107],[6.484684,-0.85901],[5.928854,-0.623203],[5.65936,-0.218963],[5.575144,0.117903],[5.60883,0.522143],[5.928854,1.027443]]]],"type":"MultiPolygon"},"properties":{"name":"Sao Tome and Principe","source_feature_id":"marineregions:ST"},"type":"Feature"}
