{"geometry":{"coordinates":[[[[-88.765,12.315],[-89.557,12.606],[-90.037,12.685],[-90.536241,12.941634],[-90.537,12.942],[-90.375,13.289],[-90.121,13.744],[-90.12,13.747],[-90.119,13.749],[-90.116,13.75],[-90.114,13.74],[-90.11,13.743],[-90.108,13.745],[-90.101,13.742],[-90.091,13.758],[-90.112,13.834],[-90.023,13.939],[-89.856,14.059],[-89.737,14.032],[-89.718,14.136],[-89.526,14.22],[-89.573,14.417],[-89.53,14.38],[-89.393,14.45],[-89.35,14.422],[-89.323,14.437],[-89.175,14.361],[-89.098,14.402],[-88.817,14.081],[-88.502,13.97],[-88.468,13.849],[-88.083,13.961],[-88.013,13.872],[-87.771,13.875],[-87.709,13.791],[-87.794,13.524],[-87.716,13.467],[-87.83,13.395],[-87.597,13.171],[-87.804,13.073],[-88.065,12.778],[-88.308,12.309],[-88.325668,12.272682],[-88.765,12.315]]]],"type":"MultiPolygon"},"properties":{"name":"El Salvador","source_feature_id":"marineregions:SV"},"type":"Feature"}
