{"geometry":{"coordinates":[[[[-63.129132,17.821808],[-63.155462,17.833356],[-63.177748,17.83904],[-63.19652,17.852193],[-63.207116,17.856645],[-63.257465,17.86906],[-63.280408,17.870778],[-63.231795,17.936176],[-63.208944,17.976692],[-63.154526,18.044973],[-63.146007,18.052786],[-63.134928,18.055992],[-63.117523,18.05529],[-63.097893,18.043294],[-63.086939,18.039809],[-63.081711,18.042088],[-63.075878,18.052091],[-63.071125,18.055296],[-63.018828,18.05572],[-63.007938,18.051846],[-62.977442,18.025104],[-62.960384,18.022368],[-62.972287,18.009648],[-62.983297,17.982989],[-63.023561,17.941119],[-63.033891,17.914156],[-63.111974,17.820248],[-63.129132,17.821808]]]],"type":"MultiPolygon"},"properties":{"name":"Sint-Maarten","source_feature_id":"marineregions:SX"},"type":"Feature"}
