{"geometry":{"coordinates":[[[[31.871468,-25.997429],[31.980967,-25.949707],[32.013232,-25.996056],[32.084323,-26.009617],[32.104984,-26.159477],[32.076832,-26.306076],[32.078936,-26.404266],[32.138414,-26.525631],[32.134187,-26.840096],[32.097694,-26.804602],[32.053543,-26.818552],[32.014562,-26.809652],[31.974523,-27.114859],[31.980668,-27.32008],[31.49358,-27.314415],[31.157295,-27.202835],[31.066481,-27.098637],[30.978235,-27.026196],[30.95724,-26.990833],[30.972842,-26.963539],[30.974371,-26.912556],[30.899738,-26.841316],[30.895124,-26.783144],[30.885877,-26.807156],[30.859905,-26.821918],[30.81835,-26.837711],[30.805268,-26.828442],[30.792807,-26.605797],[30.802422,-26.500053],[30.83234,-26.410789],[30.898217,-26.316719],[30.967299,-26.256466],[31.115191,-25.978546],[31.126503,-25.921372],[31.261497,-25.811176],[31.317525,-25.743542],[31.414505,-25.715904],[31.871468,-25.997429]]]],"type":"MultiPolygon"},"properties":{"name":"Swaziland","source_feature_id":"marineregions:SZ"},"type":"Feature"}
