{"geometry":{"coordinates":[[[[-71.893367,20.670381],[-72.19213,20.835342],[-72.476868,20.885735],[-72.546107,21.178016],[-72.660889,21.454971],[-72.673547,21.604188],[-72.65681,21.702784],[-72.501312,22.016352],[-72.26187,22.270887],[-71.971568,22.738502],[-71.926357,22.813853],[-71.834356,22.846862],[-71.686103,22.82371],[-71.176615,22.613973],[-71.012423,22.499651],[-70.837879,22.320159],[-70.616861,22.202327],[-70.495716,22.113109],[-70.387973,22.008529],[-70.369648,21.962284],[-70.398603,21.869053],[-70.609685,21.588348],[-70.73276,21.369895],[-70.823627,21.250252],[-71.227736,20.95619],[-71.463536,20.871281],[-71.596804,20.801518],[-71.685232,20.750988],[-71.786292,20.717301],[-71.803135,20.700458],[-71.887352,20.666771],[-71.893367,20.670381]]]],"type":"MultiPolygon"},"properties":{"name":"Turks and Caicos Islands","source_feature_id":"marineregions:TC"},"type":"Feature"}
