{"geometry":{"coordinates":[[[[67.642831,-48.409989],[67.858426,-48.176428],[68.199784,-47.933884],[68.568092,-47.808121],[69.017248,-47.754222],[69.538268,-47.817104],[69.879626,-47.942867],[70.185052,-48.167445],[70.463529,-48.158462],[71.029465,-48.257276],[71.388789,-48.409989],[71.658282,-48.625584],[71.819978,-48.832195],[71.927776,-49.164571],[71.891843,-49.425081],[71.810995,-49.604743],[71.442688,-50.107797],[71.146245,-50.332375],[70.9576,-50.431189],[70.607258,-50.54797],[70.229968,-50.601868],[69.969457,-50.601868],[69.502336,-50.54797],[69.062163,-50.601868],[68.604024,-50.592885],[68.074021,-50.458139],[67.849443,-50.350341],[67.588933,-50.125764],[67.418254,-49.820338],[67.400287,-49.640676],[67.445203,-49.407115],[67.409271,-48.966942],[67.526051,-48.589651],[67.642831,-48.409989]]],[[[52.596119,-45.652174],[52.97341,-45.984549],[53.081207,-46.182178],[53.135106,-46.442688],[53.081207,-46.703198],[52.838663,-47.017607],[52.434423,-47.242185],[51.859504,-47.349982],[51.590011,-47.340999],[51.21272,-47.269134],[50.817463,-47.098455],[50.512037,-46.810995],[50.368308,-46.50557],[50.395257,-46.164211],[50.530004,-45.93065],[50.844413,-45.67014],[51.149838,-45.52641],[51.634926,-45.427596],[52.0212,-45.445562],[52.380525,-45.544377],[52.596119,-45.652174]]],[[[38.950773,-22.080489],[38.842975,-21.927776],[38.744161,-21.676249],[38.726195,-21.496586],[38.77111,-21.227093],[38.896874,-20.984549],[39.112469,-20.750988],[39.435861,-20.580309],[39.714337,-20.535393],[39.992814,-20.571326],[40.334172,-20.733022],[40.513834,-20.912684],[40.648581,-21.146245],[40.702479,-21.487603],[40.67553,-21.667266],[40.522817,-21.981674],[40.41502,-22.107438],[40.100611,-22.323033],[39.822134,-22.394898],[39.624506,-22.403881],[39.346029,-22.340999],[39.166367,-22.260151],[38.950773,-22.080489]]]],"type":"MultiPolygon"},"properties":{"name":"Kergu\u00e9len","source_feature_id":"marineregions:TF"},"type":"Feature"}
