{"geometry":{"coordinates":[[[[0.532462,10.978676],[0.90954,10.998697],[0.803985,10.63432],[0.790218,10.44544],[0.851469,10.336943],[1.310949,10.002588],[1.356501,9.886012],[1.384633,9.445665],[1.458209,9.271231],[1.574579,9.121135],[1.61413,9.001367],[1.641318,7.482957],[1.630123,7.103139],[1.583268,6.920147],[1.603654,6.668655],[1.742937,6.459976],[1.783498,6.341449],[1.663755,6.202435],[1.658259,6.139827],[1.852767,5.339337],[1.545751,5.268174],[1.485,5.281285],[1.421657,5.3869],[1.296937,5.81095],[1.193587,6.10782],[1.008892,6.278889],[0.756031,6.462532],[0.556301,6.855478],[0.544905,6.917152],[0.639309,7.282323],[0.628898,7.344055],[0.518965,7.493697],[0.616666,7.789835],[0.602001,8.1663],[0.69851,8.326531],[0.658644,8.443494],[0.472885,8.612267],[0.408662,8.7193],[0.420013,8.778033],[0.500237,8.86897],[0.477378,9.056283],[0.541285,9.364301],[0.525725,9.424469],[0.482595,9.468971],[0.422049,9.485239],[0.298479,9.461238],[0.262146,9.502965],[0.362498,9.646913],[0.342857,9.771488],[0.370553,10.021784],[0.380636,10.079471],[0.338583,10.323824],[0.302373,10.374466],[0.19089,10.425681],[-0.059498,10.695081],[0.010857,10.997446],[-0.016843,11.116601],[0.354274,11.0402],[0.532462,10.978676]]],[[[0.370553,10.021784],[0.35371,10.021784],[0.370553,10.038627],[0.370553,10.021784]]],[[[-0.134747,11.133444],[-0.033687,11.116601],[-0.088978,11.104049],[-0.134747,11.133444]]]],"type":"MultiPolygon"},"properties":{"name":"Togo","source_feature_id":"marineregions:TG"},"type":"Feature"}
