{"geometry":{"coordinates":[[[[-171.511,-10.273],[-171.831,-10.088],[-172.222,-10.004],[-172.449,-9.855],[-172.704,-9.459],[-173.114,-9.235],[-173.335,-8.902],[-173.403,-8.46],[-173.336,-8.198],[-173.195,-7.967],[-172.83,-7.706],[-172.566,-7.646],[-172.296,-7.667],[-171.883,-7.882],[-171.624,-8.276],[-171.296,-8.435],[-170.91,-8.478],[-170.588,-8.668],[-170.336,-9.032],[-170.279,-9.395],[-170.415,-9.855],[-170.713,-10.175],[-171.511,-10.273]]]],"type":"MultiPolygon"},"properties":{"name":"Tokelau","source_feature_id":"marineregions:TK"},"type":"Feature"}
