{"geometry":{"coordinates":[[[[124.084845,-8.910124],[124.438556,-8.809064],[124.455399,-9.297521],[124.286966,-9.482797],[124.101689,-9.415424],[124.084845,-8.910124]]],[[[125.129132,-9.499641],[125.112289,-9.482797],[125.112289,-9.465954],[124.943856,-9.044871],[124.994386,-8.539571],[125.381782,-8.387981],[125.600746,-8.118487],[125.786022,-8.202704],[125.802866,-8.219547],[125.819709,-8.253234],[126.055516,-8.253234],[126.089202,-8.270077],[126.358696,-8.202704],[126.392382,-8.202704],[127.251392,-8.236391],[127.268236,-8.253234],[127.285079,-8.253234],[127.301922,-8.270077],[127.537729,-8.404824],[127.857752,-9.145931],[127.335609,-9.516484],[126.746092,-9.785977],[125.752336,-10.139687],[125.482842,-9.887037],[125.129132,-9.499641]]]],"type":"MultiPolygon"},"properties":{"name":"East Timor","source_feature_id":"marineregions:TL"},"type":"Feature"}
