{"geometry":{"coordinates":[[[[53.446,37.332],[52.927,37.695],[52.886974,37.722955],[52.696,37.801],[52.689,37.916],[52.384,38.053],[52.152,38.25],[51.906,38.769],[51.865,39.102],[51.948,39.394],[51.779,39.623],[51.817,40.055],[51.758,40.838],[51.482,41.233],[52.051,41.465],[52.465,41.774],[52.58,41.854],[52.979,42.117],[53.176,42.183],[54.217,42.376],[54.88,41.974],[55.126,41.598],[55.424,41.282],[55.558,41.297],[55.603,41.246],[56.0,41.319],[57.042,41.244],[57.058,41.323],[57.165,41.365],[57.035,41.445],[57.042,41.566],[56.975,41.683],[56.994,41.905],[57.128,41.929],[57.296,42.135],[57.858,42.176],[57.84,42.236],[57.894,42.218],[57.959,42.364],[57.901,42.424],[58.047,42.542],[58.139,42.494],[58.131,42.444],[58.33,42.449],[58.404,42.291],[58.513,42.282],[58.315,42.542],[58.15,42.628],[58.274,42.688],[58.592,42.649],[58.598,42.723],[58.649,42.728],[58.623,42.803],[59.015,42.527],[59.172,42.531],[59.303,42.361],[59.435,42.293],[59.905,42.316],[59.996,42.242],[60.051,42.17],[59.963,42.143],[60.042,42.098],[60.041,42.027],[59.924,41.994],[60.332,41.768],[60.284,41.734],[60.088,41.812],[60.044,41.752],[60.176,41.604],[60.077,41.438],[60.233,41.334],[60.484,41.213],[60.834,41.258],[61.03,41.218],[61.037,41.266],[61.245,41.145],[61.4,41.199],[61.411,41.288],[61.649,41.266],[61.88,41.118],[61.996,40.986],[61.959,40.825],[62.106,40.587],[62.363,40.396],[62.402,40.035],[62.453,39.968],[64.053,39.03],[64.189,38.958],[64.333,38.995],[65.561,38.289],[65.913,38.277],[66.247,38.156],[66.418,38.024],[66.667,37.985],[66.688,37.916],[66.545,37.775],[66.529,37.54],[66.582,37.466],[66.506,37.393],[66.556,37.348],[66.309,37.317],[65.76,37.55],[65.702,37.537],[65.644,37.344],[65.532,37.239],[65.127,37.245],[64.755,37.113],[64.797,36.925],[64.62,36.639],[64.638,36.444],[64.541,36.317],[64.283,36.152],[64.094,36.129],[64.069,35.998],[63.988,36.036],[63.307,35.857],[63.121,35.863],[63.108,35.81],[63.249,35.684],[63.098,35.62],[63.099,35.418],[62.629,35.208],[62.478,35.279],[62.305,35.128],[62.266,35.295],[62.064,35.433],[61.588,35.438],[61.373,35.624],[61.275,35.602],[61.216,35.677],[61.245,35.887],[61.118,35.961],[61.23,36.116],[61.156,36.297],[61.186,36.567],[61.144,36.644],[60.348,36.629],[60.036,37.028],[59.769,37.125],[59.551,37.137],[59.388,37.319],[59.354,37.529],[59.218,37.517],[58.814,37.698],[58.745,37.632],[58.559,37.705],[58.385,37.628],[58.23,37.68],[58.177,37.786],[57.73,37.92],[57.45,37.941],[57.353,37.98],[57.378,38.085],[57.246,38.273],[57.159,38.27],[57.065,38.181],[56.757,38.284],[56.607,38.235],[56.415,38.255],[56.321,38.175],[56.337,38.074],[55.763,38.124],[55.461,38.093],[55.129,37.949],[54.841,37.744],[54.781,37.633],[54.799,37.524],[54.678,37.437],[54.587,37.46],[54.248,37.319],[53.917,37.347],[53.908,37.349],[53.446,37.332]]]],"type":"MultiPolygon"},"properties":{"name":"Turkmenistan","source_feature_id":"marineregions:TM"},"type":"Feature"}
