{"geometry":{"coordinates":[[[[10.786508,32.033374],[10.263814,31.606627],[10.192445,31.355049],[10.270045,30.958678],[10.187679,30.704139],[9.913442,30.408659],[9.550171,30.233785],[9.156068,31.798572],[9.052252,32.045106],[8.424471,32.537878],[8.162638,33.003952],[7.752874,33.347023],[7.589417,33.714559],[7.559605,33.979258],[7.61492,34.09946],[8.286921,34.747799],[8.373469,35.269569],[8.29374,35.931282],[8.353749,36.325055],[8.288315,36.438341],[8.29806,36.549893],[8.590362,36.822041],[8.640631,36.937433],[8.522727,37.392203],[8.421667,37.796443],[8.326222,37.828258],[8.088577,37.924887],[8.056966,38.033471],[8.171423,38.087592],[8.219547,38.099623],[8.371137,38.133309],[8.489041,38.166996],[8.539571,38.166996],[8.809064,38.217526],[8.859594,38.217526],[9.567014,38.251213],[10.754736,38.031705],[11.002217,37.928019],[11.318721,37.678539],[11.419781,37.611166],[11.706117,37.409046],[11.941924,37.139553],[12.009298,37.072179],[12.009298,37.055336],[11.773764,36.953088],[11.708438,36.84433],[11.71689,36.717405],[11.905095,36.555113],[12.160888,36.533193],[11.96973,36.186588],[12.110358,35.674183],[12.139611,35.455748],[12.211418,35.371003],[12.336961,34.98286],[12.355288,34.712963],[12.283953,34.451769],[12.028246,33.972585],[11.992454,33.922476],[11.546498,33.089564],[11.488938,32.429601],[10.786508,32.033374]],[[8.303764,34.730956],[8.303764,34.747799],[8.286921,34.747799],[8.303764,34.730956]]]],"type":"MultiPolygon"},"properties":{"name":"Tunisia","source_feature_id":"marineregions:TN"},"type":"Feature"}
