{"geometry":{"coordinates":[[[[-174.047789,-20.90509],[-173.962549,-21.15434],[-173.94976,-21.328788],[-173.961468,-21.566159],[-174.002695,-21.736666],[-174.036393,-21.818315],[-174.185942,-22.039703],[-174.321231,-22.160781],[-174.564914,-22.291174],[-174.745566,-22.339129],[-174.932824,-22.353595],[-175.119541,-22.334019],[-175.298592,-22.281147],[-175.463161,-22.196997],[-175.651144,-22.038581],[-175.95377,-21.85116],[-176.093602,-21.716148],[-176.226941,-21.505946],[-176.264495,-21.424059],[-176.31282,-21.251901],[-176.32412,-21.074202],[-176.298086,-20.89787],[-176.235855,-20.729738],[-176.139944,-20.5763],[-176.014138,-20.443464],[-175.819961,-20.298353],[-175.651023,-20.221139],[-175.469487,-20.176339],[-175.282226,-20.165649],[-175.09632,-20.189473],[-174.815115,-20.26035],[-174.641285,-20.324708],[-174.413109,-20.477287],[-174.145403,-20.756238],[-174.047789,-20.90509]]],[[[-173.773003,-19.577878],[-173.961189,-19.601571],[-174.15059,-19.589253],[-174.33357,-19.541419],[-174.502766,-19.459997],[-174.727238,-19.291485],[-174.846453,-19.158695],[-174.936393,-19.006556],[-174.993761,-18.84079],[-175.016504,-18.667612],[-175.003879,-18.493496],[-174.956461,-18.324932],[-174.876109,-18.168187],[-174.765884,-18.02907],[-174.565323,-17.844827],[-174.41132,-17.756139],[-174.242676,-17.696897],[-174.033887,-17.664035],[-173.85966,-17.667807],[-173.689084,-17.702114],[-173.481873,-17.788938],[-173.263135,-17.940353],[-173.145994,-18.071654],[-173.056931,-18.221824],[-172.999246,-18.385423],[-172.976004,-18.642912],[-173.003668,-18.813508],[-173.064984,-18.97596],[-173.176723,-19.162603],[-173.289407,-19.307235],[-173.430237,-19.427688],[-173.593615,-19.519128],[-173.773003,-19.577878]]]],"type":"MultiPolygon"},"properties":{"name":"Tonga","source_feature_id":"marineregions:TO"},"type":"Feature"}
