{"geometry":{"coordinates":[[[[26.374416,41.825368],[26.536112,41.825368],[26.625943,41.978081],[26.967301,41.996047],[27.039166,42.085879],[27.236795,42.103845],[27.362558,42.058929],[27.551204,41.906216],[27.775782,41.960115],[27.775782,41.951132],[27.901545,41.978081],[28.323751,41.978081],[29.177147,42.202659],[29.284944,42.121811],[29.931728,42.058929],[30.28207,42.094862],[30.749192,42.040963],[31.386992,42.328423],[31.710384,42.517068],[32.060726,42.633848],[32.527848,42.741646],[32.923105,42.867409],[33.37226,42.921308],[34.450234,42.858426],[34.764642,42.948257],[35.01617,42.966223],[35.384477,42.921308],[35.752785,42.813511],[36.08516,42.606899],[36.642113,42.472152],[37.01042,42.247575],[37.243981,42.193676],[37.711103,41.996047],[38.151276,41.933166],[38.384837,41.852318],[39.310097,42.005031],[39.786202,41.969098],[40.055695,41.879267],[40.432986,42.03198],[40.693496,41.951132],[41.277398,41.591807],[41.825368,41.430111],[41.960115,41.528926],[42.526051,41.439095],[42.615882,41.591807],[42.804527,41.591807],[43.020122,41.376213],[43.217751,41.304348],[43.235717,41.178584],[43.370464,41.205534],[43.478261,41.124686],[43.469278,41.025871],[43.675889,40.93604],[43.747754,40.738412],[43.639957,40.5318],[43.550126,40.468918],[43.711822,40.172476],[43.64894,40.12756],[43.900467,40.019763],[44.295724,40.046712],[44.484369,39.965864],[44.592167,39.822134],[44.762846,39.714337],[44.771829,39.714337],[44.798778,39.651455],[44.619116,39.777219],[44.475386,39.687388],[44.412504,39.408911],[44.035214,39.381962],[44.098096,39.211283],[44.19691,39.148401],[44.16996,38.995688],[44.31369,38.807043],[44.259792,38.726195],[44.322673,38.618397],[44.322673,38.36687],[44.511319,38.348904],[44.268775,38.016529],[44.232842,37.890765],[44.403521,37.863816],[44.439454,37.773985],[44.565217,37.782968],[44.628099,37.70212],[44.583184,37.44161],[44.816745,37.279914],[44.780812,37.145167],[44.619116,37.190083],[44.268775,36.974488],[44.187927,37.109235],[44.277758,37.163133],[44.232842,37.279914],[44.026231,37.324829],[43.918433,37.226015],[43.496227,37.243981],[43.352497,37.333812],[43.154869,37.369745],[42.966223,37.315846],[42.777578,37.378728],[42.57995,37.172116],[42.355372,37.100252],[42.346389,37.234998],[42.220625,37.315846],[42.040963,37.1811],[41.546892,37.082285],[41.19655,37.064319],[40.909091,37.136184],[40.41502,37.019404],[40.028746,36.821775],[39.489759,36.696011],[39.211283,36.669062],[39.022637,36.713978],[38.744161,36.704995],[38.555516,36.848724],[38.169242,36.911606],[37.782968,36.74991],[37.70212,36.758893],[37.477542,36.63313],[37.019404,36.678045],[37.03737,36.740927],[36.669062,36.830758],[36.579231,36.660079],[36.561265,36.417535],[36.678045,36.22889],[36.399569,36.22889],[36.381603,36.103126],[36.372619,36.103126],[36.381603,36.094143],[36.372619,36.004312],[36.210923,35.959396],[36.148042,35.815667],[35.707869,36.031261],[35.258714,36.058211],[35.159899,36.013295],[34.764642,36.219907],[34.629896,36.183974],[34.189723,35.94143],[33.80345,35.788717],[33.542939,35.743802],[33.012936,35.725835],[32.429033,35.627021],[31.746317,35.68092],[31.440891,35.68092],[31.360043,35.761768],[31.081567,35.528207],[30.722242,35.384477],[30.318002,35.348545],[29.87783,35.231764],[29.725117,35.950413],[29.617319,36.174991],[29.464607,36.183974],[29.374775,36.121092],[28.916637,35.384477],[28.853755,35.402443],[28.817822,35.600072],[28.683076,36.103126],[28.674093,36.237873],[28.539346,36.471434],[28.440532,36.561265],[28.278836,36.570248],[27.964427,36.462451],[27.910528,36.696011],[27.766798,36.696011],[27.56917,36.516349],[27.335609,36.579231],[27.263744,36.740927],[27.470356,36.866691],[27.371542,36.938556],[27.120014,37.001437],[27.128997,37.172116],[27.218829,37.234998],[27.102048,37.378728],[27.057133,37.549407],[26.940352,37.639238],[27.16493,37.773985],[27.111031,37.881782],[26.688825,37.96263],[26.383399,37.926698],[26.275602,37.953647],[26.167805,38.25009],[26.230686,38.438735],[26.347467,38.492634],[26.149838,38.79806],[26.634926,38.851958],[26.715774,39.085519],[26.491197,39.283148],[26.482213,39.390945],[26.347467,39.435861],[25.979159,39.390945],[25.655767,39.552641],[25.6917,39.876033],[25.449156,40.226374],[25.799497,40.334172],[25.961193,40.441969],[25.817463,40.639598],[26.122889,40.738412],[26.221703,40.882142],[26.35645,40.945023],[26.320517,41.250449],[26.625943,41.34028],[26.598994,41.609774],[26.35645,41.708588],[26.374416,41.825368]]]],"type":"MultiPolygon"},"properties":{"name":"Turkey","source_feature_id":"marineregions:TR"},"type":"Feature"}
