{"geometry":{"coordinates":[[[[-60.662954,9.827524],[-61.219907,9.87244],[-61.498383,9.971254],[-61.857708,9.98922],[-62.082285,10.043119],[-61.731944,10.905498],[-61.731944,11.390586],[-60.914481,11.983471],[-60.779734,12.064319],[-60.501258,12.226015],[-60.312612,12.208049],[-60.070068,12.109235],[-59.917355,12.001437],[-59.746676,11.803809],[-59.638879,11.561265],[-59.629896,11.121092],[-59.746676,10.815667],[-59.971254,10.555156],[-60.070068,10.492275],[-60.052102,10.357528],[-60.123967,9.926338],[-60.267697,9.890406],[-60.662954,9.827524]]]],"type":"MultiPolygon"},"properties":{"name":"Trinidad and Tobago","source_feature_id":"marineregions:TT"},"type":"Feature"}
