{"geometry":{"coordinates":[[[[179.119778,-9.958063],[179.469279,-9.87612],[179.737989,-9.905642],[179.904294,-9.97332],[179.96438,-10.04013],[179.997738,-10.183792],[179.999856,-10.14209],[180.0,-10.141923],[180.0,-10.193534],[180.0,-11.330608],[180.0,-11.391265],[179.997335,-11.348606],[179.97847,-11.476013],[179.85251,-11.600067],[179.499416,-11.66724],[179.146269,-11.600097],[178.849079,-11.398234],[178.659171,-11.093769],[178.595341,-10.740029],[178.674695,-10.390002],[178.827194,-10.16728],[179.119778,-9.958063]]],[[[-180.0,-11.330608],[-180.0,-10.193534],[-180.0,-10.141923],[-179.946532,-10.080157],[-179.747291,-10.254915],[-179.627402,-10.496516],[-179.58931,-10.763634],[-179.63135,-11.030254],[-179.749531,-11.272828],[-179.940661,-11.459132],[-179.999099,-11.405685],[-180.0,-11.391265],[-180.0,-11.330608]]],[[[-180.0,-8.287937],[-180.0,-8.179492],[-180.0,-8.169323],[-179.997522,-8.177027],[-179.961552,-8.141242],[-179.92647,-8.221396],[-179.883393,-8.567263],[-179.938249,-8.82379],[-179.98817,-8.880708],[-179.996677,-8.454441],[-179.995773,-8.806919],[-180.0,-8.828524],[-180.0,-8.287937]]],[[[179.805549,-9.192221],[179.49387,-9.368354],[179.140547,-9.42102],[178.794969,-9.328394],[178.367344,-9.005196],[178.024538,-8.899395],[177.796657,-8.757256],[177.624489,-8.551035],[177.463946,-8.230986],[177.387004,-8.186865],[176.941462,-8.160298],[176.61708,-8.009848],[176.385193,-7.737429],[176.270325,-7.399636],[176.298165,-7.043458],[176.464575,-6.7277],[176.741235,-6.501138],[176.994913,-6.411753],[177.173697,-6.395177],[177.352371,-6.412716],[177.603109,-6.50935],[177.94828,-6.792732],[178.036531,-6.789221],[178.435059,-6.587259],[178.70232,-6.557952],[178.966038,-6.61],[179.272344,-6.794497],[179.39534,-6.925344],[179.528184,-7.159263],[179.618617,-7.597171],[179.920999,-7.923734],[180.0,-8.169323],[180.0,-8.179492],[180.0,-8.287937],[180.0,-8.828524],[179.969846,-8.982638],[179.805549,-9.192221]]]],"type":"MultiPolygon"},"properties":{"name":"Tuvalu","source_feature_id":"marineregions:TV"},"type":"Feature"}
