{"geometry":{"coordinates":[[[[25.215195,122.874812],[25.653412,122.770518],[26.724832,122.657676],[26.93136,122.610686],[26.850397,122.339442],[26.790115,122.194443],[26.653187,121.944692],[26.481741,121.70245],[26.33649,121.540365],[25.846694,121.068595],[25.511814,120.705924],[25.08832,120.320432],[24.624558,119.804674],[24.096644,119.090671],[23.70726,118.711262],[23.565511,118.621058],[23.413393,118.549932],[23.104255,118.456397],[22.406827,118.346098],[21.772045,118.293646],[21.873913,117.683468],[21.902564,117.360973],[21.89337,116.977098],[21.835506,116.671059],[21.70482,116.291595],[21.517226,115.941834],[21.346572,115.706609],[21.089444,115.435739],[20.759039,115.166433],[20.430658,114.959998],[19.408074,114.471791],[18.914579,114.255796],[18.868499,114.237363],[18.764139,114.23957],[18.205117,114.276305],[18.017078,114.497435],[17.846295,114.735448],[17.692665,114.991746],[17.561588,115.258054],[17.450157,115.541222],[17.365768,115.820633],[17.302323,116.11428],[17.263875,116.40265],[17.761063,117.14973],[18.019824,117.483011],[18.270656,117.766073],[18.58689,118.031081],[18.903245,118.256967],[20.007393,118.935638],[20.264245,119.076413],[20.266685,119.27613],[20.374968,119.707511],[20.533686,120.182219],[20.622155,120.392487],[20.817318,120.758451],[20.924008,120.913995],[21.252099,121.307766],[21.361878,121.418136],[21.498143,121.609553],[22.253563,123.544761],[22.582503,123.220525],[22.767045,123.06819],[22.878306,122.994792],[23.622954,122.56988],[23.851179,122.470702],[24.068159,122.409199],[24.273699,122.386388],[24.369703,122.390933],[24.545733,122.419532],[24.68428,122.464915],[24.805666,122.526071],[24.967953,122.635042],[25.083941,122.734284],[25.215195,122.874812]]]],"type":"MultiPolygon"},"properties":{"name":"Taiwan","source_feature_id":"marineregions:TW"},"type":"Feature"}
