{"geometry":{"coordinates":[[[[29.867,-4.383],[30.04,-4.277],[30.078,-4.163],[30.224,-4.042],[30.33,-3.784],[30.402,-3.796],[30.45,-3.562],[30.66,-3.434],[30.664,-3.323],[30.835,-3.259],[30.798,-3.056],[30.853,-2.97],[30.67,-2.992],[30.575,-2.894],[30.505,-2.954],[30.406,-2.86],[30.526,-2.681],[30.42,-2.665],[30.543,-2.413],[30.825,-2.358],[30.9,-2.079],[30.785,-1.946],[30.838,-1.859],[30.843,-1.619],[30.725,-1.501],[30.743,-1.4],[30.568,-1.337],[30.473,-1.058],[30.647,-1.066],[30.765,-0.985],[33.937,-0.999],[34.095,-1.027],[37.672,-3.06],[37.71,-3.309],[37.584,-3.44],[37.613,-3.517],[37.741,-3.542],[37.83,-3.712],[39.234,-4.681],[39.237,-4.682],[39.251,-4.687],[39.253,-4.695],[39.254,-4.702],[39.256,-4.707],[39.257,-4.709],[39.267,-4.723],[39.285,-4.74],[39.298,-4.751],[39.299,-4.753],[39.3,-4.757],[39.3,-4.758],[39.301,-4.761],[39.349,-4.833],[39.35,-4.835],[39.364,-4.86],[39.365,-4.861],[39.368,-4.865],[39.479,-4.894],[39.606,-4.683],[40.387,-4.683],[40.738,-4.683],[40.755,-4.762],[40.715,-5.524],[40.596,-5.813],[40.414,-6.056],[40.476,-6.429],[40.407,-6.75],[40.444,-6.922],[40.717,-7.244],[40.813,-7.667],[40.733,-8.08],[40.621,-8.334],[40.435,-8.568],[40.428,-8.661],[40.591,-9.409],[41.013,-9.698],[41.292,-10.091],[41.034,-10.091],[40.493,-10.415],[40.456,-10.45],[40.444,-10.462],[40.006,-10.819],[39.538,-10.976],[39.264,-11.176],[38.885,-11.171],[38.485,-11.423],[38.265,-11.287],[37.921,-11.259],[37.83,-11.31],[37.747,-11.55],[37.416,-11.685],[36.811,-11.551],[36.77,-11.646],[36.519,-11.762],[36.495,-11.682],[36.218,-11.709],[36.181,-11.545],[36.065,-11.541],[35.944,-11.423],[35.843,-11.411],[35.645,-11.563],[35.389,-11.585],[34.961,-11.576],[34.928,-11.397],[34.794,-11.325],[34.76,-11.212],[34.635,-11.116],[34.682,-10.757],[34.569,-10.53],[34.541,-10.068],[34.328,-9.759],[34.04,-9.494],[33.946,-9.567],[33.939,-9.719],[33.773,-9.586],[33.484,-9.624],[33.326,-9.486],[33.211,-9.51],[33.001,-9.366],[32.958,-9.404],[32.756,-9.288],[32.548,-9.253],[32.437,-9.122],[32.256,-9.134],[32.158,-9.057],[31.988,-9.077],[31.949,-8.932],[31.679,-8.916],[31.573,-8.822],[31.577,-8.692],[31.375,-8.588],[31.066,-8.62],[30.768,-8.205],[30.7,-8.015],[30.461,-7.678],[30.27,-7.045],[29.786,-6.634],[29.575,-6.324],[29.515,-6.016],[29.605,-5.784],[29.588,-5.561],[29.332,-4.832],[29.418,-4.446],[29.758,-4.463],[29.815,-4.364],[29.867,-4.383]]]],"type":"MultiPolygon"},"properties":{"name":"Tanzania","source_feature_id":"marineregions:TZ"},"type":"Feature"}
