{"geometry":{"coordinates":[[[[-56.610447,-35.219413],[-56.711507,-35.168883],[-56.913627,-35.185726],[-56.997844,-35.185726],[-57.334711,-34.865702],[-57.452614,-34.815172],[-57.536831,-34.781486],[-57.890541,-34.680426],[-57.957914,-34.663582],[-58.036476,-34.391261],[-58.244251,-34.191969],[-58.261094,-34.183547],[-58.277937,-34.175126],[-58.345311,-34.040379],[-58.345311,-34.023536],[-58.378997,-34.006692],[-58.455142,-33.756939],[-58.433842,-33.368006],[-58.39277,-33.244323],[-58.14359,-32.945411],[-58.140555,-31.911239],[-58.033607,-31.673968],[-57.848697,-30.916303],[-57.814708,-30.527508],[-57.637891,-30.183255],[-57.621047,-30.183255],[-57.604204,-30.183255],[-57.368665,-30.278713],[-57.019823,-30.114364],[-56.770194,-30.156727],[-56.171606,-30.655386],[-55.971111,-30.9857],[-55.855135,-31.02608],[-55.620797,-30.919023],[-55.494936,-30.939929],[-55.222903,-31.21816],[-54.630349,-31.484535],[-54.232019,-31.816221],[-53.885488,-31.996039],[-53.579649,-32.409472],[-53.172749,-32.721362],[-53.195153,-32.846379],[-53.378617,-33.029896],[-53.493995,-33.261556],[-53.467707,-33.642476],[-53.38276,-33.739762],[-52.500674,-34.293029],[-52.863613,-34.836336],[-53.143986,-35.108647],[-53.569511,-35.411408],[-54.298321,-35.700012],[-54.6758,-35.803964],[-55.197215,-35.803715],[-55.709986,-35.710555],[-56.055383,-35.527186],[-56.324111,-35.387846],[-56.610447,-35.219413]]]],"type":"MultiPolygon"},"properties":{"name":"Uruguay","source_feature_id":"marineregions:UY"},"type":"Feature"}
