{"geometry":{"coordinates":[[[[12.458104,41.906107],[12.458033,41.905236],[12.45785,41.903014],[12.458485,41.902499],[12.458822,41.901941],[12.458542,41.901212],[12.458014,41.900997],[12.457562,41.900826],[12.456745,41.900997],[12.456602,41.900382],[12.456465,41.899796],[12.455159,41.899712],[12.454597,41.899624],[12.452511,41.900128],[12.451718,41.900289],[12.451285,41.900504],[12.450652,41.900206],[12.449423,41.900412],[12.44869,41.900504],[12.44849,41.900919],[12.44716,41.901402],[12.446771,41.901306],[12.445863,41.901644],[12.446901,41.902416],[12.44729,41.902392],[12.447744,41.902657],[12.447647,41.902971],[12.448155,41.903451],[12.448591,41.903451],[12.449106,41.9041],[12.449225,41.904572],[12.450692,41.905959],[12.450964,41.90651],[12.45204,41.906662],[12.452155,41.90623],[12.453647,41.906665],[12.453582,41.907051],[12.455632,41.90751],[12.455784,41.906907],[12.455928,41.906339],[12.458104,41.906107]]]],"type":"MultiPolygon"},"properties":{"name":"Vatican City","source_feature_id":"marineregions:VA"},"type":"Feature"}
