{"geometry":{"coordinates":[[[[-61.094143,13.573482],[-60.662954,13.348904],[-60.384477,13.241107],[-60.330579,12.549407],[-60.357528,12.459576],[-60.591089,12.172116],[-60.779734,12.064319],[-61.336687,12.504492],[-61.812792,12.666188],[-62.145167,12.827884],[-62.288897,12.890765],[-62.190083,13.097377],[-62.199066,13.303989],[-62.118218,13.645347],[-61.965505,13.816026],[-61.094143,13.573482]]]],"type":"MultiPolygon"},"properties":{"name":"Saint Vincent and the Grenadines","source_feature_id":"marineregions:VC"},"type":"Feature"}
