{"geometry":{"coordinates":[[[[21.940051,-63.258342],[22.022447,-63.588296],[22.074012,-63.916915],[22.09591,-64.233399],[22.089113,-64.600894],[22.060325,-64.913259],[22.002453,-65.235969],[21.919664,-65.542098],[21.80987,-65.842065],[20.782222,-65.637222],[19.958056,-65.455833],[19.624722,-65.349167],[19.206944,-65.102222],[18.687222,-64.9925],[18.408611,-64.871944],[18.393611,-64.838333],[18.408056,-64.799167],[18.377222,-64.755833],[18.364167,-64.639444],[18.321111,-64.636944],[18.278611,-64.661389],[18.050833,-64.634167],[18.033611,-64.260833],[17.999444,-64.017222],[17.964478,-63.899094],[18.208333,-63.842329],[18.497023,-63.870279],[19.117196,-63.780131],[21.940051,-63.258342]]]],"type":"MultiPolygon"},"properties":{"name":"British Virgin Islands","source_feature_id":"marineregions:VG"},"type":"Feature"}
