{"geometry":{"coordinates":[[[[-65.541822,17.393392],[-65.48633,17.5038],[-65.329447,17.695533],[-65.069221,17.960449],[-65.03444,18.033027],[-65.14024,18.253937],[-65.168037,18.416585],[-65.279475,18.727434],[-65.330675,19.011875],[-65.335295,19.218245],[-65.188766,19.267294],[-65.151544,19.257147],[-65.099488,19.201401],[-64.967813,18.624114],[-64.869077,18.425545],[-64.665476,18.347201],[-64.624509,18.093077],[-64.563253,18.056796],[-64.193934,18.029329],[-63.903611,17.971838],[-63.886768,17.938151],[-63.970985,17.146515],[-63.994793,17.068593],[-64.048523,17.007442],[-64.343625,16.864226],[-64.543179,16.817995],[-64.911703,16.793908],[-65.153364,16.837002],[-65.417746,16.94871],[-65.572085,17.082785],[-65.606659,17.156484],[-65.604788,17.197045],[-65.541822,17.393392]]]],"type":"MultiPolygon"},"properties":{"name":"United States Virgin Islands","source_feature_id":"marineregions:VI"},"type":"Feature"}
