{"geometry":{"coordinates":[[[[105.068721,11.133444],[105.035034,11.234504],[105.018191,11.234504],[105.035034,11.251347],[105.035034,11.268191],[105.035034,11.285034],[105.035034,11.301877],[105.035034,11.318721],[105.035034,11.335564],[105.001347,11.386094],[105.001347,11.402937],[105.018191,11.402937],[105.035034,11.419781],[105.051877,11.419781],[105.051877,11.436624],[104.967661,11.470311],[104.933974,11.537684],[105.001347,11.554527],[105.085564,11.537684],[105.085564,11.520841],[105.136094,11.503997],[105.136094,11.487154],[105.152937,11.487154],[105.169781,11.470311],[105.186624,11.453467],[105.203467,11.453467],[105.203467,11.436624],[105.220311,11.436624],[105.237154,11.436624],[105.237154,11.419781],[105.270841,11.369251],[105.270841,11.217661],[105.237154,11.150287],[105.237154,11.133444],[105.220311,11.116601],[105.186624,11.015541],[105.186624,10.914481],[105.640076,10.983914],[106.077137,10.850616],[106.169093,10.911673],[106.149395,11.022953],[105.923044,11.283238],[105.861999,11.50698],[105.885986,11.619625],[106.078165,11.734281],[106.307046,11.707533],[106.411682,11.745276],[106.512936,11.945811],[106.951022,12.101545],[107.248577,12.279916],[107.473599,12.334392],[107.540892,12.427262],[107.568476,12.656266],[107.514314,13.000837],[107.596801,13.457785],[107.379437,14.117419],[107.544691,14.670544],[107.544691,14.687388],[107.533251,14.934144],[107.603525,15.291575],[107.291726,15.669506],[107.274947,15.788812],[107.402945,15.998869],[107.332541,16.096327],[106.628081,16.581033],[106.444098,17.040245],[105.739931,17.738461],[105.562977,18.065918],[105.263085,18.282056],[105.051166,18.71582],[104.701412,18.84576],[103.967505,19.307166],[104.146727,19.626122],[104.25747,19.67543],[104.626429,19.672751],[104.730942,19.738762],[104.926013,20.055022],[104.74726,20.21154],[104.61958,20.414927],[104.495453,20.424918],[104.485045,20.520181],[104.55032,20.625675],[104.505683,20.735403],[104.187666,20.923876],[103.944375,20.89224],[103.739751,20.750772],[103.619674,20.732858],[103.266495,20.853735],[102.905652,21.187789],[102.912774,21.424722],[102.929617,21.424722],[102.929617,21.441565],[102.946461,21.458408],[102.929617,21.458408],[102.917061,21.458408],[102.944619,21.674928],[102.863287,21.761096],[102.737775,21.73666],[102.637479,21.808591],[102.154824,22.401635],[102.154824,22.418478],[102.441906,22.692656],[102.568346,22.724855],[103.052082,22.512054],[103.2532,22.683346],[103.374813,22.721074],[103.639178,22.708402],[103.875846,22.598443],[103.999594,22.621454],[104.194754,22.796874],[104.459932,22.771015],[104.710025,22.868256],[104.958842,23.180148],[105.336196,23.304955],[105.777892,23.009205],[106.700471,22.856784],[106.757392,22.739638],[106.628699,22.507554],[106.616216,22.376407],[106.769243,22.011622],[107.342751,21.674678],[107.870168,21.606859],[107.987686,21.545913],[108.201581,21.205758],[108.332234,20.635635],[108.301871,20.373641],[108.042084,20.068047],[107.425706,19.543848],[106.935195,19.361016],[106.852207,19.10838],[106.869942,18.975022],[107.272134,18.440122],[107.602423,17.856123],[108.087301,17.387221],[109.177502,16.594195],[109.854604,15.941442],[109.991774,15.710515],[110.05296,15.448776],[110.018653,14.777468],[110.246684,13.861391],[110.347381,12.787496],[110.316538,12.385113],[110.018237,11.349816],[109.762796,10.875091],[109.585678,10.672529],[108.448614,9.951606],[107.714686,9.610621],[107.506226,9.443954],[107.466331,9.31685],[107.551446,8.785485],[107.489456,8.388287],[107.265838,8.055091],[107.045565,7.901032],[106.79122,7.81356],[106.389507,7.819208],[105.888168,8.00609],[105.757144,7.978103],[105.070315,7.559128],[104.66934,7.541062],[104.415054,7.628656],[104.11091,7.890222],[103.852181,8.358697],[103.727482,8.405514],[103.324427,8.400681],[103.06781,8.480532],[102.845453,8.631731],[102.678639,8.842678],[102.638026,8.970314],[102.731362,9.214508],[103.350701,9.735447],[103.808471,10.38451],[104.014206,10.473327],[104.337638,10.372211],[104.869316,10.575397],[105.026929,10.729892],[105.085564,10.948167],[105.068721,11.015541],[105.051877,11.032384],[105.051877,11.099757],[105.051877,11.116601],[105.068721,11.133444]]]],"type":"MultiPolygon"},"properties":{"name":"Vietnam","source_feature_id":"marineregions:VN"},"type":"Feature"}
