{"geometry":{"coordinates":[[[[165.749,-15.699],[165.604,-14.95],[165.619,-14.565],[165.768,-14.183],[166.095,-13.864],[166.468,-13.743],[166.577,-13.35],[166.892,-12.998],[167.397,-12.809],[167.671,-12.825],[167.928,-12.918],[168.324,-13.287],[168.457,-13.614],[168.525,-14.167],[168.839,-14.396],[169.016,-14.696],[169.11,-15.084],[169.232,-16.26],[169.405,-16.664],[169.338,-17.156],[169.489,-17.441],[169.521,-17.804],[169.783,-17.965],[170.09,-18.335],[170.251,-18.706],[170.278,-19.033],[170.436,-19.434],[170.669,-19.656],[170.798,-19.888],[170.852,-20.146],[170.825,-20.407],[170.684,-20.706],[170.513,-20.905],[170.119,-21.112],[169.694,-21.138],[169.405,-21.061],[169.027,-20.809],[168.87,-20.586],[168.796,-20.36],[168.541,-20.137],[168.36,-19.871],[168.265,-19.458],[168.07,-19.107],[168.042,-18.661],[167.576,-18.422],[167.298,-18.081],[167.216,-17.743],[167.26,-17.441],[166.803,-17.21],[166.281,-16.408],[166.018,-16.182],[165.749,-15.699]]]],"type":"MultiPolygon"},"properties":{"name":"Vanuatu","source_feature_id":"marineregions:VU"},"type":"Feature"}
