{"geometry":{"coordinates":[[[[-15.295517,-178.494846],[-15.917459,-177.382304],[-14.661068,-176.665424],[-14.15464,-174.511394],[-12.08371,-174.365821],[-10.960825,-174.267376],[-9.879878,-175.619836],[-9.842299,-175.911831],[-9.829646,-176.204825],[-9.840903,-176.490197],[-9.877244,-176.78578],[-10.8325,-177.714489],[-11.803114,-178.273683],[-12.820508,-179.819717],[-13.240239,-179.534568],[-13.317739,-179.504846],[-14.792462,-179.245402],[-15.295517,-178.494846]]]],"type":"MultiPolygon"},"properties":{"name":"Wallis and Futuna","source_feature_id":"marineregions:WF"},"type":"Feature"}
