{"geometry":{"coordinates":[[[[-173.755749,-11.052212],[-172.812085,-11.686715],[-171.237194,-12.490811],[-170.542657,-12.611103],[-170.762745,-13.25117],[-170.945362,-13.835136],[-171.073355,-14.085064],[-171.694445,-15.426946],[-171.847532,-15.878384],[-172.23559,-15.479739],[-172.638362,-15.105557],[-173.660246,-14.538357],[-174.459277,-14.222025],[-174.511394,-14.15464],[-174.365821,-12.08371],[-174.267376,-10.960825],[-174.164597,-10.966479],[-173.755749,-11.052212]]]],"type":"MultiPolygon"},"properties":{"name":"Samoa","source_feature_id":"marineregions:WS"},"type":"Feature"}
