{"geometry":{"coordinates":[[[[53.719008,13.609414],[53.934603,13.564499],[54.249012,13.564499],[54.491556,13.519583],[54.895796,13.375853],[55.192239,13.160259],[55.344951,12.944664],[55.434783,12.513475],[55.380884,12.252964],[55.25512,12.019404],[55.066475,11.830758],[54.814948,11.669062],[54.302911,11.471434],[53.817822,11.417535],[53.422566,11.453467],[53.153072,11.552282],[52.703917,11.857708],[52.578153,11.992454],[52.42544,12.29788],[52.398491,12.648221],[52.470356,12.899748],[52.560187,13.052461],[52.784765,13.312972],[53.189005,13.555516],[53.440532,13.618397],[53.719008,13.609414]]],[[[42.14876,16.403162],[42.948257,16.403162],[42.948257,16.492993],[43.118936,16.528926],[43.154869,16.681639],[43.262666,16.789436],[43.145886,16.88825],[43.226734,17.076895],[43.154869,17.103845],[43.199784,17.256558],[43.334531,17.301473],[43.226734,17.382321],[43.352497,17.553],[43.487244,17.544017],[43.684872,17.364355],[43.963349,17.328423],[44.008264,17.400287],[44.466403,17.43622],[45.220985,17.43622],[45.400647,17.337406],[46.10133,17.247575],[46.370823,17.229608],[46.748114,17.283507],[46.999641,16.951132],[47.179303,16.951132],[47.466762,17.112828],[47.601509,17.454186],[48.185411,18.163852],[49.119655,18.613008],[50.781531,18.783687],[52.003234,18.999281],[52.784765,17.346389],[53.108157,16.645706],[53.287819,16.304348],[53.52138,15.846209],[53.153072,15.711462],[53.099174,15.361121],[52.982393,15.136543],[52.721883,14.893999],[51.949335,14.498742],[51.581028,14.355013],[50.871362,14.184333],[50.458139,13.995688],[50.080848,13.932806],[49.748473,13.816026],[49.434064,13.483651],[49.110672,13.259073],[48.886094,13.169242],[48.598635,13.115343],[48.167445,13.10636],[47.808121,12.84585],[46.828962,12.540424],[46.604384,12.513475],[46.119296,12.504492],[45.903701,12.315846],[45.742005,12.234998],[45.535393,12.055336],[45.292849,11.947539],[44.762846,11.857708],[44.331656,11.740927],[44.187927,11.830758],[44.143011,11.857708],[43.774704,12.261948],[43.657923,12.513475],[43.379447,12.567373],[43.271649,12.684154],[43.253683,12.863816],[43.145886,13.070428],[42.876392,13.402803],[42.723679,13.456701],[42.660798,13.564499],[42.481135,14.05857],[42.526051,14.148401],[42.193676,14.588573],[42.014014,14.72332],[41.843335,15.001797],[41.62774,15.253324],[41.564858,15.648581],[41.457061,15.909091],[41.636723,16.286382],[41.780453,16.286382],[42.14876,16.403162]]]],"type":"MultiPolygon"},"properties":{"name":"Yemen","source_feature_id":"marineregions:YE"},"type":"Feature"}
