{"geometry":{"coordinates":[[[[25.096568,-17.685501],[25.113412,-17.685501],[25.113412,-17.702345],[25.096568,-17.702345],[25.096568,-17.685501]]],[[[29.677955,-13.238861],[29.694799,-13.238861],[29.677955,-13.255704],[29.677955,-13.238861]]],[[[29.677955,-13.222018],[29.677955,-13.238861],[29.661112,-13.238861],[29.661112,-13.222018],[29.677955,-13.222018]]],[[[23.100109,-17.39962],[22.320715,-16.653277],[22.044629,-16.196205],[21.998116,-15.931186],[22.001162,-13.231829],[22.045695,-13.105856],[22.283313,-13.003054],[23.901499,-12.986021],[23.962628,-12.880759],[23.954334,-12.615156],[24.031633,-12.357811],[24.001752,-10.880794],[24.324752,-11.124916],[24.387563,-11.384523],[24.507322,-11.422623],[25.021954,-11.25544],[25.282195,-11.270608],[25.404047,-11.648453],[26.024895,-11.902073],[26.831609,-11.959047],[27.087684,-11.652533],[27.206934,-11.680406],[27.622837,-12.213243],[28.380144,-12.497048],[28.510292,-12.731252],[28.798936,-13.010867],[29.020173,-13.347298],[29.144103,-13.39013],[29.661112,-13.238861],[29.661112,-13.255704],[29.677955,-13.255704],[29.683943,-13.378938],[29.77965,-13.324272],[29.810563,-13.194847],[29.772682,-12.265332],[29.659929,-12.209875],[29.454486,-12.374182],[29.1986,-12.380674],[28.968045,-12.249319],[28.571342,-11.895693],[28.426991,-11.677718],[28.460479,-11.280564],[28.647307,-10.64119],[28.635165,-9.711791],[28.482344,-9.343115],[28.505729,-9.214056],[28.779087,-8.923465],[29.058958,-8.47882],[30.772772,-8.202704],[31.003923,-8.530653],[31.392966,-8.634657],[31.715987,-8.877116],[32.079789,-9.057999],[32.962406,-9.398581],[33.010279,-9.562722],[33.06785,-9.626001],[33.153867,-9.634403],[33.222577,-9.684685],[33.270635,-9.756716],[33.34316,-9.912229],[33.373274,-10.081395],[33.495953,-10.202387],[33.599427,-10.439611],[33.703512,-10.577614],[33.299956,-10.90738],[33.367303,-11.1599],[33.260763,-11.491497],[33.317659,-11.749078],[33.293701,-12.100271],[33.345702,-12.264137],[33.490968,-12.362939],[33.469252,-12.441612],[33.013868,-12.695865],[32.952305,-13.302248],[32.870322,-13.458536],[32.747859,-13.583338],[32.763551,-13.66596],[32.971052,-13.949627],[33.215056,-14.013654],[30.432414,-14.932463],[30.263464,-15.12318],[30.419062,-15.630614],[29.613736,-15.656826],[29.354285,-15.727601],[29.002465,-15.923581],[28.913018,-16.023612],[28.802672,-16.407652],[28.717734,-16.511036],[27.891347,-16.95916],[27.0904,-17.862925],[26.859478,-17.998893],[25.933973,-17.948055],[25.281845,-17.803405],[25.265002,-17.786561],[25.248158,-17.786561],[25.113412,-17.685501],[24.885715,-17.548941],[24.353758,-17.493077],[23.429078,-17.634971],[23.100109,-17.39962]],[[28.599982,-9.567014],[28.616825,-9.567014],[28.616825,-9.550171],[28.599982,-9.550171],[28.599982,-9.567014]]],[[[33.703512,-10.577614],[33.703512,-10.560771],[33.720356,-10.560771],[33.720356,-10.577614],[33.703512,-10.577614]]]],"type":"MultiPolygon"},"properties":{"name":"Zambia","source_feature_id":"marineregions:ZM"},"type":"Feature"}
