{"geometry":{"coordinates":[[[[30.419062,-16.001168],[31.143326,-15.984324],[31.682312,-16.186444],[32.036022,-16.439095],[32.423419,-16.472781],[32.760286,-16.708588],[32.979249,-16.708588],[32.844502,-16.927551],[33.046622,-17.331791],[32.928719,-18.039211],[33.063466,-18.342391],[32.878189,-18.527668],[32.911876,-18.797161],[32.709756,-18.830848],[32.878189,-19.066655],[32.861346,-19.689858],[33.063466,-19.774075],[33.012936,-20.026725],[32.676069,-20.565711],[32.490792,-20.616241],[32.524479,-20.902578],[32.406576,-21.323662],[31.311759,-22.418478],[30.739086,-22.300575],[30.267472,-22.351105],[29.762172,-22.132142],[29.357932,-22.199515],[29.088439,-22.064768],[29.054752,-21.795275],[28.583139,-21.626842],[28.010465,-21.576312],[27.909405,-21.306818],[27.690442,-21.087855],[27.724129,-20.515181],[27.286202,-20.498338],[27.201985,-20.077255],[26.932492,-20.009881],[26.157699,-19.538268],[25.820832,-18.830848],[25.787145,-18.611885],[25.281845,-18.039211],[25.265002,-17.803405],[25.281845,-17.803405],[25.702928,-17.837091],[25.854519,-17.971838],[26.410349,-17.938151],[26.696685,-18.072898],[27.067239,-17.938151],[27.303045,-17.601285],[27.606225,-17.348635],[27.825189,-16.961238],[28.818945,-16.489625],[28.920005,-15.933794],[29.408462,-15.681144],[29.913762,-15.613771],[30.419062,-15.630614],[30.419062,-16.001168]]]],"type":"MultiPolygon"},"properties":{"name":"Zimbabwe","source_feature_id":"marineregions:ZW"},"type":"Feature"}
