{"geometry":{"coordinates":[[[[-88.465804,31.844279],[-88.107483,34.882546],[-88.09064,34.899389],[-88.1917,35.000449],[-85.597826,34.983606],[-85.199286,32.964868],[-84.955849,32.290996],[-85.117247,31.811055],[-85.067816,31.507509],[-85.078091,31.201649],[-85.008309,31.008579],[-87.504145,30.967168],[-87.582106,30.903365],[-87.563987,30.804554],[-87.44404,30.637538],[-87.4247,30.435582],[-87.716219,29.888295],[-87.821146,29.273715],[-87.854833,29.256872],[-87.88852,29.256872],[-88.24223,29.694799],[-88.395959,30.36549],[-88.465804,31.844279]]]],"type":"MultiPolygon"},"properties":{"name":"Alabama","source_feature_id":"fips:01"},"type":"Feature"}
