{"geometry":{"coordinates":[[[[-94.40689,33.551922],[-94.491107,33.636139],[-94.440577,35.488906],[-94.60901,36.499506],[-90.16237,36.499506],[-90.06131,36.398446],[-90.381333,35.994206],[-89.724443,35.994206],[-89.640226,35.876303],[-89.926563,35.758399],[-90.16237,35.253099],[-90.078153,35.118352],[-90.31396,35.000449],[-90.26343,34.882546],[-90.448706,34.832016],[-90.549766,34.697269],[-90.600296,34.394089],[-90.937163,34.242499],[-90.886633,34.023536],[-91.088753,34.006692],[-91.240343,33.434019],[-91.12244,33.383489],[-91.17297,32.996092],[-93.025737,33.012936],[-93.177327,33.012936],[-93.2447,33.012936],[-93.379447,33.012936],[-93.632097,33.012936],[-93.682627,33.012936],[-94.036337,33.012936],[-94.036337,33.551922],[-94.221613,33.585609],[-94.221613,33.551922],[-94.2553,33.568766],[-94.40689,33.551922]]]],"type":"MultiPolygon"},"properties":{"name":"Arkansas","source_feature_id":"fips:05"},"type":"Feature"}
