{"geometry":{"coordinates":[[[[-123.630075,42.007276],[-121.019359,41.990433],[-120.985672,41.990433],[-119.991915,41.990433],[-119.991915,39.800799],[-120.008759,38.992319],[-119.149748,38.419646],[-117.532788,37.257456],[-116.724308,36.651096],[-114.635735,35.017292],[-114.635735,34.865702],[-114.130435,34.309872],[-114.534675,33.956162],[-114.534675,33.535079],[-114.703108,33.417176],[-114.669421,33.029779],[-114.517831,33.029779],[-114.534675,32.743442],[-114.736795,32.709756],[-116.101105,32.625539],[-117.229608,32.524479],[-117.819125,32.625539],[-118.223365,31.867589],[-118.728665,31.884432],[-119.116062,32.036022],[-119.385555,32.271829],[-119.907699,32.322359],[-120.480372,32.676069],[-120.682492,33.063466],[-121.137262,33.265586],[-121.507815,33.619296],[-121.760465,34.326716],[-121.794152,34.646739],[-121.979429,34.916232],[-122.888969,35.792086],[-123.141619,36.415289],[-123.495329,36.836373],[-124.068002,37.190083],[-124.303809,37.678539],[-124.270122,37.981719],[-124.657519,38.318586],[-124.893326,38.638609],[-125.044916,39.194439],[-125.044916,39.447089],[-125.314409,39.666053],[-125.617589,40.20504],[-125.617589,40.693496],[-125.432312,41.047206],[-125.432312,41.333543],[-125.634432,41.72094],[-125.634432,41.956746],[-123.630075,42.007276]]]],"type":"MultiPolygon"},"properties":{"name":"California","source_feature_id":"fips:06"},"type":"Feature"}
