{"geometry":{"coordinates":[[[[-105.219188,36.992454],[-105.237154,36.992454],[-105.246137,36.992454],[-105.623428,36.992454],[-105.68631,36.992454],[-106.87208,36.992454],[-106.87208,37.001437],[-109.045994,37.001437],[-109.045994,38.214157],[-109.054977,38.735178],[-109.054977,40.495868],[-109.045994,40.998922],[-106.315128,40.998922],[-106.297161,40.998922],[-106.279195,40.998922],[-106.198347,40.998922],[-106.189364,40.998922],[-106.180381,40.998922],[-104.051383,40.998922],[-103.952569,40.998922],[-103.943586,40.998922],[-103.934603,40.998922],[-103.92562,40.998922],[-103.916637,40.998922],[-103.907654,40.998922],[-103.89867,40.998922],[-103.889687,40.998922],[-103.880704,40.998922],[-103.871721,40.998922],[-103.862738,40.998922],[-103.853755,40.998922],[-103.817822,40.998922],[-103.808839,40.998922],[-103.799856,40.998922],[-103.790873,40.998922],[-103.78189,40.998922],[-103.772907,40.998922],[-103.754941,40.998922],[-103.736974,40.998922],[-103.674093,40.998922],[-103.656126,40.998922],[-102.048149,40.998922],[-102.048149,40.666547],[-102.048149,40.657564],[-102.048149,40.648581],[-102.048149,40.567733],[-102.048149,40.55875],[-102.048149,40.549766],[-102.048149,40.486885],[-102.048149,40.477902],[-102.048149,40.468918],[-102.048149,40.38807],[-102.048149,40.379087],[-102.048149,40.370104],[-102.048149,40.307222],[-102.048149,40.298239],[-102.048149,40.289256],[-102.048149,40.001797],[-102.048149,38.052461],[-102.048149,38.034495],[-102.039166,36.992454],[-103.000359,37.001437],[-103.89867,36.992454],[-105.156306,36.992454],[-105.219188,36.992454]]]],"type":"MultiPolygon"},"properties":{"name":"Colorado","source_feature_id":"fips:08"},"type":"Feature"}
