{"geometry":{"coordinates":[[[[-73.31187,42.041865],[-72.888262,42.040963],[-72.784781,42.020417],[-72.716068,42.034966],[-72.434905,42.040934],[-72.259304,42.02412],[-71.870974,42.023802],[-71.803135,42.007276],[-71.802292,41.900245],[-71.786292,41.794488],[-71.787192,41.52685],[-71.795163,41.473916],[-71.843645,41.350001],[-71.904195,41.299856],[-71.974011,41.301472],[-72.17649,41.242609],[-72.833963,41.120368],[-73.487104,40.977477],[-73.591313,40.963257],[-73.624438,40.974187],[-73.702373,41.088212],[-73.683585,41.116852],[-73.52593,41.194345],[-73.507736,41.223428],[-73.535404,41.287215],[-73.545427,41.356363],[-73.487469,42.057806],[-73.31187,42.041865]]]],"type":"MultiPolygon"},"properties":{"name":"Connecticut","source_feature_id":"fips:09"},"type":"Feature"}
