{"geometry":{"coordinates":[[[[-77.098795,38.941861],[-77.095162,38.942982],[-77.0927,38.945836],[-77.089731,38.956672],[-77.07883,38.959547],[-77.076117,38.962157],[-77.073306,38.973093],[-77.070087,38.975061],[-77.062539,38.97614],[-77.059585,38.978477],[-77.056831,38.989457],[-77.050044,38.992311],[-77.030882,38.99218],[-77.027339,38.990825],[-77.025134,38.987766],[-77.024066,38.980211],[-77.02196,38.977084],[-77.010995,38.974319],[-77.008512,38.971489],[-77.005567,38.960644],[-76.990958,38.956934],[-76.972873,38.94304],[-76.961594,38.941162],[-76.958596,38.938882],[-76.955831,38.927903],[-76.952852,38.925597],[-76.945301,38.924509],[-76.942102,38.922503],[-76.939313,38.911549],[-76.936559,38.908974],[-76.925658,38.906113],[-76.923509,38.89899],[-76.923827,38.879846],[-76.925594,38.876506],[-76.93646,38.873579],[-76.939243,38.871044],[-76.942034,38.860087],[-76.945204,38.858038],[-76.952762,38.856987],[-76.955781,38.854723],[-76.958514,38.843734],[-76.961468,38.841389],[-76.984389,38.840606],[-76.987963,38.839336],[-76.990248,38.836341],[-76.991334,38.828791],[-76.99336,38.825608],[-77.004314,38.822825],[-77.006871,38.820059],[-77.009746,38.809168],[-77.027655,38.803528],[-77.041412,38.790199],[-77.040976,38.83579],[-77.038988,38.838969],[-77.028121,38.841732],[-77.025503,38.8444],[-77.024811,38.851852],[-77.026412,38.855246],[-77.029624,38.857169],[-77.037113,38.858229],[-77.040056,38.860532],[-77.042749,38.871441],[-77.045694,38.873751],[-77.053186,38.874821],[-77.056405,38.876741],[-77.059202,38.887586],[-77.061813,38.890256],[-77.072673,38.89302],[-77.074657,38.896194],[-77.0757,38.903689],[-77.077946,38.906681],[-77.08148,38.907985],[-77.100487,38.908103],[-77.107267,38.91085],[-77.109984,38.921748],[-77.112827,38.924178],[-77.123603,38.927072],[-77.12533,38.930405],[-77.125629,38.941789],[-77.098795,38.941861]]]],"type":"MultiPolygon"},"properties":{"name":"District of Columbia","source_feature_id":"fips:11"},"type":"Feature"}
