{"geometry":{"coordinates":[[[[-75.509163,39.69208],[-75.510993,39.675351],[-75.51219,39.671767],[-75.515748,39.666054],[-75.521809,39.661016],[-75.525573,39.656599],[-75.526736,39.65682],[-75.52729,39.656078],[-75.526167,39.655621],[-75.527095,39.653815],[-75.533524,39.647557],[-75.541978,39.645425],[-75.548534,39.63777],[-75.554144,39.63569],[-75.557327,39.632591],[-75.558773,39.629987],[-75.559455,39.622314],[-75.558908,39.618483],[-75.557898,39.61751],[-75.55656,39.611534],[-75.557371,39.609115],[-75.556974,39.607576],[-75.553392,39.602665],[-75.553512,39.601819],[-75.550218,39.600708],[-75.542146,39.594519],[-75.537503,39.593627],[-75.536941,39.591872],[-75.534216,39.590342],[-75.533641,39.58927],[-75.5314,39.588818],[-75.530493,39.5868],[-75.527693,39.584112],[-75.519636,39.583328],[-75.514747,39.580884],[-75.514189,39.579348],[-75.51277,39.57829],[-75.51196,39.56729],[-75.519068,39.555434],[-75.532342,39.54328],[-75.534014,39.540702],[-75.531575,39.536825],[-75.527675,39.535277],[-75.526787,39.53144],[-75.526654,39.526638],[-75.528305,39.518219],[-75.527394,39.517443],[-75.527447,39.515968],[-75.529741,39.51204],[-75.530141,39.505373],[-75.529368,39.501229],[-75.526974,39.499168],[-75.527861,39.498139],[-75.537934,39.496982],[-75.55909,39.495806],[-75.563586,39.483048],[-75.560538,39.455645],[-75.48136,39.387555],[-75.469436,39.373147],[-75.444751,39.355089],[-75.38113,39.300845],[-75.321021,39.251379],[-75.249017,39.158945],[-75.219075,39.115947],[-75.191671,39.079],[-75.168462,39.056179],[-75.142827,39.011487],[-75.138461,39.002697],[-75.134653,38.997572],[-75.016109,38.79053],[-75.015123,38.788657],[-75.017366,38.786639],[-75.013389,38.772347],[-75.013154,38.767573],[-75.014212,38.745036],[-75.008994,38.711973],[-75.002751,38.683274],[-75.002136,38.67591],[-75.002745,38.666235],[-75.00192,38.649729],[-75.001968,38.631683],[-74.997268,38.625111],[-74.993519,38.612501],[-74.985171,38.528171],[-74.9842,38.497094],[-74.985128,38.473851],[-74.986184,38.466301],[-74.986282,38.451632],[-74.999625,38.451132],[-75.232115,38.451222],[-75.41088,38.452297],[-75.563394,38.455649],[-75.69367,38.46008],[-75.742952,39.083243],[-75.788635,39.649568],[-75.788596,39.722199],[-75.773786,39.7222],[-75.768776,39.73299],[-75.76265,39.743764],[-75.755673,39.754025],[-75.747494,39.764238],[-75.738801,39.773563],[-75.729405,39.782309],[-75.718752,39.790933],[-75.707812,39.798633],[-75.687748,39.810341],[-75.66579,39.820284],[-75.642804,39.828085],[-75.618129,39.833965],[-75.590087,39.838035],[-75.561874,39.83951],[-75.533977,39.838449],[-75.505903,39.834814],[-75.481039,39.829319],[-75.452882,39.820225],[-75.428275,39.809379],[-75.405414,39.796396],[-75.4383,39.784402],[-75.450688,39.775064],[-75.449295,39.774436],[-75.452339,39.769013],[-75.45944,39.765811],[-75.462198,39.763197],[-75.463921,39.760763],[-75.46355,39.757014],[-75.468017,39.745811],[-75.470918,39.740367],[-75.472876,39.73843],[-75.475693,39.733658],[-75.475072,39.729488],[-75.477169,39.724995],[-75.476297,39.724012],[-75.476794,39.72297],[-75.476438,39.716199],[-75.479361,39.713706],[-75.482184,39.713759],[-75.483571,39.715258],[-75.485342,39.715898],[-75.488456,39.714659],[-75.491827,39.710839],[-75.491475,39.709724],[-75.493913,39.706842],[-75.496312,39.700956],[-75.506536,39.697263],[-75.509874,39.693915],[-75.509163,39.69208]]]],"type":"MultiPolygon"},"properties":{"name":"Delaware","source_feature_id":"fips:10"},"type":"Feature"}
