{"geometry":{"coordinates":[[[[-84.035,24.283],[-84.081682,24.475711],[-84.082,24.477],[-84.088,24.546],[-84.089,24.719],[-84.058,24.892],[-84.01491,25.006034],[-84.013,25.011],[-83.991,25.057],[-83.894,25.209],[-83.843,25.276],[-83.840942,25.278245],[-83.768,25.357],[-83.724765,25.394471],[-83.721,25.398],[-83.71437,25.403479],[-83.693,25.422],[-83.619222,25.472667],[-83.613,25.477],[-83.612306,25.477417],[-83.61,25.479],[-83.522,25.528],[-83.259,25.641],[-83.145,25.669],[-83.05,25.683],[-82.932,25.694],[-83.194,25.985],[-83.399,26.464],[-83.869,27.247],[-84.021,27.764],[-84.005,28.457],[-84.19,28.731],[-85.016,28.54],[-85.594,28.635],[-86.101,28.848],[-86.562,29.334],[-86.579,29.335],[-86.579316,29.335105],[-86.582,29.336],[-86.602066,29.336557],[-86.618,29.337],[-86.656,29.34],[-87.382,29.234],[-87.821,29.27],[-87.824,29.269],[-87.823985,29.269326],[-87.713,29.931],[-87.518,30.284],[-87.452,30.3],[-87.503,30.327],[-87.5,30.329],[-87.499,30.329],[-87.496,30.33],[-87.494,30.33],[-87.494,30.330667],[-87.494,30.331],[-87.493,30.331],[-87.476,30.331],[-87.465,30.333],[-87.451,30.345],[-87.427,30.409],[-87.367,30.434],[-87.448,30.514],[-87.394,30.646],[-87.627,30.847],[-87.599,30.997],[-85.002,31.001],[-84.928,30.803],[-84.929,30.799],[-84.914,30.752],[-84.911,30.751],[-84.863,30.711],[-82.215,30.569],[-82.206,30.409],[-82.205,30.409],[-82.205,30.408],[-82.206,30.408],[-82.207,30.407],[-82.205,30.406],[-82.204,30.403],[-82.204,30.402],[-82.197,30.388],[-82.196,30.3885],[-82.195,30.389],[-82.193,30.386],[-82.193,30.385],[-82.192,30.385],[-82.192,30.379],[-82.192,30.378],[-82.191333,30.378],[-82.191,30.378],[-82.191,30.3775],[-82.191,30.377],[-82.190667,30.377],[-82.19,30.377],[-82.19,30.376],[-82.189,30.376],[-82.189,30.377],[-82.189,30.378],[-82.188,30.378],[-82.112,30.367],[-82.111,30.366],[-82.111,30.367],[-82.065,30.356],[-82.04,30.371],[-82.038,30.372],[-82.044,30.415],[-82.017,30.475],[-82.018,30.533],[-82.007,30.562],[-82.007,30.563],[-82.006,30.563],[-82.005,30.563],[-82.005,30.564],[-82.008,30.569],[-82.006,30.577],[-82.015,30.601],[-82.027,30.606],[-82.045,30.652],[-82.05,30.677],[-82.041,30.7],[-82.039,30.724],[-82.04,30.725],[-82.045,30.728],[-82.043,30.73],[-82.042,30.73],[-81.955,30.823],[-81.954,30.825],[-81.951,30.826],[-81.95,30.828],[-81.942,30.826],[-81.942,30.828],[-81.611,30.716],[-81.347,30.712],[-81.348,30.717],[-81.35,30.72],[-81.349561,30.720123],[-81.043,30.806],[-80.305,30.715],[-80.306,30.71],[-80.223,30.132],[-80.202,30.062],[-80.1968,30.03704],[-80.196,30.034],[-80.187,29.99],[-79.986,29.534],[-79.641,29.046],[-79.486,28.683],[-79.48,28.248],[-79.333,27.911],[-79.524741,27.451148],[-79.532,27.426],[-79.588,27.115],[-79.59,26.192],[-79.735,25.632],[-79.725,25.11],[-80.205,24.544],[-80.745,24.329],[-81.061,24.119],[-81.224,23.94],[-81.833,23.833],[-83.337,23.853],[-83.815,23.939],[-83.954,24.121],[-83.982,24.17],[-83.982396,24.170851],[-84.035,24.283]],[[-82.111,30.365],[-82.11,30.365],[-82.11,30.366],[-82.111,30.366],[-82.111,30.365]],[[-82.044,30.652],[-82.044,30.653],[-82.045,30.653],[-82.045,30.652],[-82.044,30.652]],[[-82.016,30.529],[-82.016,30.528],[-82.015,30.528],[-82.015,30.529],[-82.016,30.529]],[[-82.017,30.528],[-82.017,30.527],[-82.016,30.527],[-82.016,30.528],[-82.017,30.528]],[[-82.042,30.415],[-82.042,30.414],[-82.041,30.414],[-82.041,30.415],[-82.042,30.415]],[[-82.04,30.417],[-82.04,30.416],[-82.039,30.416],[-82.039,30.417],[-82.04,30.417]],[[-82.03,30.622],[-82.03,30.621],[-82.029,30.621],[-82.028,30.622],[-82.03,30.622]]],[[[-87.45,30.515],[-87.448,30.515],[-87.448,30.514],[-87.45,30.514],[-87.45,30.515]]],[[[-82.111,30.367],[-82.112,30.367],[-82.112,30.368],[-82.111,30.367]]],[[[-82.007,30.564],[-82.007,30.563],[-82.008,30.563],[-82.008,30.564],[-82.007,30.564]]],[[[-82.042,30.701],[-82.041,30.7],[-82.043,30.7],[-82.043,30.701],[-82.042,30.701]]],[[[-81.942,30.829],[-81.942,30.828],[-81.943,30.828],[-81.943,30.829],[-81.942,30.829]]]],"type":"MultiPolygon"},"properties":{"name":"Florida","source_feature_id":"fips:12"},"type":"Feature"}
