{"geometry":{"coordinates":[[[[-80.157429,31.126482],[-80.292176,30.739086],[-80.309019,30.722242],[-80.987318,30.787399],[-81.550427,30.725209],[-81.884247,30.789859],[-81.989506,30.759469],[-82.062987,30.432017],[-82.160547,30.411553],[-82.329639,30.558783],[-82.440775,30.581146],[-84.709834,30.70852],[-84.909658,30.804906],[-85.008309,31.008579],[-85.078091,31.201649],[-85.067816,31.507509],[-85.117247,31.811055],[-84.955849,32.290996],[-85.199286,32.964868],[-85.597826,34.983606],[-84.317733,34.983606],[-83.105013,35.000449],[-83.293157,34.798387],[-83.309448,34.71077],[-83.251445,34.64139],[-82.855455,34.406927],[-82.537832,33.956822],[-81.974452,33.487376],[-81.767959,33.185934],[-81.5441,33.024801],[-81.409232,32.686022],[-81.180401,32.401651],[-81.082344,32.144852],[-81.01111,32.086672],[-80.410079,31.850746],[-79.9128,31.469498],[-79.904779,31.463349],[-79.955309,31.412819],[-80.022682,31.328602],[-80.056369,31.311759],[-80.073212,31.294916],[-80.140586,31.143326],[-80.140586,31.126482],[-80.157429,31.126482]]]],"type":"MultiPolygon"},"properties":{"name":"Georgia","source_feature_id":"fips:13"},"type":"Feature"}
