{"geometry":{"coordinates":[[[[-117.027488,43.8432],[-116.892742,44.180066],[-117.195922,44.264283],[-117.195922,44.516933],[-116.842212,44.971703],[-116.825368,44.988547],[-116.842212,44.988547],[-116.471658,45.594907],[-116.926428,45.999147],[-117.044332,46.3697],[-117.027488,48.99726],[-116.050575,48.99726],[-116.050575,47.969817],[-115.730552,47.700323],[-115.747395,47.43083],[-115.326312,47.262397],[-114.922072,46.82447],[-114.618891,46.639193],[-114.315711,46.656037],[-114.551518,45.780183],[-114.349398,45.46016],[-113.995688,45.71281],[-113.439858,45.039077],[-113.473545,44.887487],[-113.069305,44.685367],[-113.001931,44.44956],[-112.361885,44.466403],[-112.361885,44.533777],[-111.519718,44.55062],[-111.317598,44.735897],[-111.048105,44.483246],[-111.048105,42.007276],[-114.046218,41.990433],[-114.922072,42.007276],[-114.938915,41.990433],[-117.027488,42.007276],[-117.027488,43.8432]]]],"type":"MultiPolygon"},"properties":{"name":"Idaho","source_feature_id":"fips:16"},"type":"Feature"}
