{"geometry":{"coordinates":[[[[-88.025512,38.016529],[-87.926698,38.160259],[-87.980596,38.25009],[-87.836867,38.277039],[-87.594323,38.672296],[-87.495508,38.789077],[-87.540424,38.887891],[-87.513475,38.959756],[-87.657204,39.148401],[-87.621272,39.301114],[-87.531441,39.355013],[-87.522458,40.450952],[-87.522458,41.762487],[-87.208049,41.762487],[-84.809558,41.762487],[-84.809558,41.699605],[-84.800575,41.555875],[-84.800575,40.235358],[-84.818541,39.813151],[-84.818541,39.103485],[-84.87244,38.896874],[-84.836507,38.789077],[-84.998203,38.780093],[-85.150916,38.690262],[-85.267697,38.744161],[-85.456342,38.708229],[-85.411427,38.564499],[-85.600072,38.447718],[-85.68092,38.295005],[-85.833633,38.277039],[-85.932447,38.007546],[-86.174991,38.007546],[-86.282788,38.160259],[-86.462451,38.124326],[-86.516349,37.917715],[-86.731944,37.890765],[-86.803809,37.998563],[-87.046353,37.899748],[-87.127201,37.782968],[-87.127201,37.791951],[-87.136184,37.791951],[-87.342796,37.908732],[-87.351779,37.908732],[-87.351779,37.917715],[-87.612289,37.944664],[-87.621272,37.944664],[-87.621272,37.935681],[-87.944664,37.872799],[-87.935681,37.791951],[-87.935681,37.782968],[-87.944664,37.782968],[-88.025512,37.800934],[-88.025512,38.016529]]]],"type":"MultiPolygon"},"properties":{"name":"Indiana","source_feature_id":"fips:18"},"type":"Feature"}
