{"geometry":{"coordinates":[[[[-102.048149,40.001797],[-95.310816,40.001797],[-95.113187,39.86705],[-94.933525,39.893999],[-94.86166,39.768236],[-94.969457,39.741286],[-95.113187,39.543658],[-94.906576,39.363996],[-94.834711,39.211283],[-94.610133,39.121452],[-94.610133,37.944664],[-94.619116,37.684154],[-94.619116,37.612289],[-94.619116,37.594323],[-94.619116,37.001437],[-95.041322,37.001437],[-95.12217,37.001437],[-95.131153,37.001437],[-95.158103,37.001437],[-95.167086,37.001437],[-95.176069,37.001437],[-95.81387,37.001437],[-95.822853,37.001437],[-95.885735,37.001437],[-95.894718,37.001437],[-101.21272,37.001437],[-102.039166,36.992454],[-102.048149,38.034495],[-102.048149,38.043478],[-102.048149,38.052461],[-102.048149,40.001797]]]],"type":"MultiPolygon"},"properties":{"name":"Kansas","source_feature_id":"fips:20"},"type":"Feature"}
