{"geometry":{"coordinates":[[[[-89.184333,37.055336],[-89.004671,37.226015],[-88.860941,37.208049],[-88.851958,37.199066],[-88.789077,37.1811],[-88.780093,37.172116],[-88.762127,37.163133],[-88.762127,37.15415],[-88.753144,37.15415],[-88.618397,37.118218],[-88.609414,37.118218],[-88.609414,37.109235],[-88.456701,37.073302],[-88.492634,37.333812],[-88.483651,37.333812],[-88.483651,37.342796],[-88.483651,37.369745],[-88.474668,37.378728],[-88.303989,37.450593],[-88.061444,37.486525],[-88.142292,37.603306],[-88.142292,37.612289],[-88.151276,37.612289],[-88.151276,37.621272],[-88.151276,37.630255],[-88.160259,37.630255],[-88.025512,37.800934],[-87.944664,37.782968],[-87.935681,37.791951],[-87.944664,37.872799],[-87.621272,37.935681],[-87.612289,37.944664],[-87.351779,37.917715],[-87.342796,37.908732],[-87.136184,37.791951],[-87.127201,37.782968],[-87.046353,37.899748],[-86.803809,37.998563],[-86.731944,37.890765],[-86.516349,37.917715],[-86.462451,38.124326],[-86.282788,38.160259],[-86.174991,38.007546],[-85.932447,38.007546],[-85.833633,38.277039],[-85.68092,38.295005],[-85.600072,38.447718],[-85.411427,38.564499],[-85.456342,38.708229],[-85.267697,38.744161],[-85.150916,38.690262],[-84.998203,38.780093],[-84.836507,38.789077],[-84.87244,38.896874],[-84.818541,39.103485],[-84.72871,39.148401],[-84.638879,39.076536],[-84.432267,39.103485],[-84.234639,38.896874],[-84.20769,38.79806],[-83.857348,38.762127],[-83.7765,38.65433],[-83.498024,38.699245],[-83.282429,38.600431],[-83.147682,38.618397],[-83.030902,38.726195],[-82.878189,38.753144],[-82.85124,38.591448],[-82.716493,38.555516],[-82.599713,38.420769],[-82.581746,38.25009],[-82.635645,38.133309],[-82.464966,37.98958],[-82.500898,37.926698],[-82.186489,37.630255],[-81.970895,37.540424],[-81.979878,37.531441],[-82.321236,37.29788],[-82.725476,37.118218],[-82.725476,37.046353],[-82.869206,36.983471],[-82.878189,36.884657],[-83.075817,36.857708],[-83.129716,36.740927],[-83.533956,36.669062],[-83.677686,36.597197],[-83.992095,36.588214],[-84.03701,36.588214],[-85.025153,36.615163],[-85.034136,36.624147],[-85.043119,36.624147],[-85.707869,36.615163],[-86.309738,36.651096],[-87.854833,36.63313],[-88.070428,36.678045],[-88.052461,36.498383],[-89.417894,36.498383],[-89.31908,36.63313],[-89.220266,36.570248],[-89.2023,36.713978],[-89.094502,36.956522],[-89.139418,36.983471],[-89.184333,37.055336]]]],"type":"MultiPolygon"},"properties":{"name":"Kentucky","source_feature_id":"fips:21"},"type":"Feature"}
