{"geometry":{"coordinates":[[[[-90.103477,28.103228],[-90.849061,28.097048],[-91.218948,28.141957],[-91.899351,28.442666],[-93.34576,28.802102],[-93.34576,28.785259],[-93.39629,28.768415],[-93.49735,28.734729],[-93.581567,28.717885],[-93.682627,28.701042],[-93.69947,28.701042],[-93.716313,28.701042],[-93.80053,28.701042],[-93.867903,28.701042],[-93.884747,28.734729],[-93.863298,29.844787],[-93.74017,30.057841],[-93.72722,30.425806],[-93.546533,31.013411],[-94.027009,32.144757],[-94.036337,33.012936],[-91.17297,32.996092],[-91.11833,32.926857],[-91.120039,32.721699],[-91.07191,32.541322],[-91.055066,32.541322],[-91.055066,32.524479],[-91.067004,32.524479],[-91.04798,32.459172],[-90.903476,32.339202],[-91.110515,32.159766],[-91.076356,32.098058],[-91.442552,31.642493],[-91.614328,31.193168],[-91.55251,31.017774],[-89.79175,30.985235],[-89.765154,30.900942],[-89.821672,30.713374],[-89.81272,30.616482],[-89.556885,30.204921],[-88.780684,30.116535],[-88.613151,30.016632],[-88.24223,29.694799],[-87.88852,29.256872],[-87.88852,29.206342],[-87.88852,29.105282],[-87.905363,29.037909],[-87.905363,28.987379],[-87.922206,28.920005],[-87.930628,28.903162],[-87.93905,28.886319],[-87.93905,28.852632],[-87.972736,28.785259],[-87.972736,28.768415],[-88.174856,28.515765],[-88.24223,28.431549],[-88.259073,28.414705],[-88.26581,28.411337],[-88.29276,28.397862],[-88.301181,28.381019],[-88.309603,28.364175],[-88.360133,28.330489],[-88.427506,28.263115],[-88.49488,28.212585],[-88.54541,28.178899],[-88.553831,28.170477],[-88.562253,28.162055],[-88.579096,28.155318],[-88.64647,28.128369],[-88.730686,28.094682],[-88.781216,28.077839],[-88.831746,28.060995],[-88.915963,28.044152],[-88.983336,28.027309],[-89.00018,28.027309],[-89.017023,28.027309],[-89.033866,28.027309],[-89.10124,27.993622],[-89.185456,27.976779],[-89.2023,27.976779],[-89.219143,27.976779],[-89.235986,27.971164],[-89.269673,27.959935],[-89.30336,27.959935],[-89.50548,27.959935],[-89.522323,27.959935],[-89.544781,27.96555],[-89.589696,27.976779],[-89.623383,27.976779],[-90.103477,28.103228]],[[-93.632097,31.362289],[-93.632097,31.379132],[-93.64894,31.379132],[-93.64894,31.362289],[-93.632097,31.362289]]],[[[-91.27403,31.766529],[-91.257186,31.766529],[-91.257186,31.749686],[-91.27403,31.749686],[-91.290873,31.749686],[-91.307716,31.749686],[-91.32456,31.749686],[-91.341403,31.749686],[-91.341403,31.766529],[-91.32456,31.766529],[-91.307716,31.766529],[-91.290873,31.766529],[-91.27403,31.766529]]],[[[-90.903476,32.356046],[-90.886633,32.356046],[-90.886633,32.339202],[-90.903476,32.339202],[-90.903476,32.356046]]],[[[-90.987693,32.507636],[-90.987693,32.490792],[-91.004536,32.490792],[-91.02138,32.490792],[-91.038223,32.490792],[-91.055066,32.490792],[-91.055066,32.507636],[-91.055066,32.524479],[-91.038223,32.524479],[-91.02138,32.524479],[-91.004536,32.524479],[-91.004536,32.507636],[-90.987693,32.507636]]]],"type":"MultiPolygon"},"properties":{"name":"Louisiana","source_feature_id":"fips:22"},"type":"Feature"}
