{"geometry":{"coordinates":[[[[-75.790514,39.72332],[-75.754581,39.17535],[-75.745598,39.17535],[-75.745598,39.166367],[-75.745598,39.085519],[-75.709666,38.609414],[-75.6917,38.456701],[-74.991017,38.438735],[-73.868128,38.277039],[-73.939993,38.025512],[-74.182537,37.58534],[-75.170679,38.016529],[-75.628818,37.998563],[-75.799497,37.908732],[-76.051024,37.953647],[-76.230686,37.890765],[-76.518146,38.025512],[-76.607977,38.151276],[-76.87747,38.169242],[-76.958318,38.214157],[-77.039166,38.402803],[-77.218829,38.339921],[-77.227812,38.339921],[-77.227812,38.330938],[-77.317643,38.483651],[-77.30866,38.492634],[-77.263744,38.555516],[-77.263744,38.564499],[-77.254761,38.564499],[-77.039166,38.717212],[-77.039166,38.79806],[-76.913403,38.887891],[-77.0212,38.986705],[-77.120014,38.941789],[-77.272727,39.031621],[-77.28171,39.031621],[-77.28171,39.040604],[-77.524254,39.121452],[-77.470356,39.211283],[-77.461373,39.220266],[-77.667984,39.31908],[-77.676967,39.31908],[-77.676967,39.328063],[-77.730866,39.31908],[-77.784765,39.489759],[-78.189005,39.696371],[-78.26087,39.615523],[-78.37765,39.633489],[-78.449515,39.543658],[-78.458498,39.516709],[-78.817822,39.561624],[-78.979519,39.453827],[-79.096299,39.471793],[-79.482573,39.2023],[-79.47359,39.72332],[-75.790514,39.72332]]]],"type":"MultiPolygon"},"properties":{"name":"Maryland","source_feature_id":"fips:24"},"type":"Feature"}
