{"geometry":{"coordinates":[[[[-89.488636,48.020347],[-89.337046,47.969817],[-88.730686,48.222467],[-88.376976,48.306683],[-86.119969,47.43083],[-84.856719,46.891843],[-84.755659,46.62235],[-84.553539,46.453917],[-84.115613,46.504447],[-84.115613,46.234953],[-83.947179,46.049677],[-83.559783,46.100207],[-83.441879,45.999147],[-83.643999,45.780183],[-83.475566,45.780183],[-82.515496,45.342257],[-82.128099,43.59055],[-82.464966,42.899973],[-82.515496,42.613636],[-82.835519,42.37783],[-83.088169,42.310456],[-83.121856,41.956746],[-83.408193,41.737783],[-84.806189,41.704096],[-84.806189,41.754626],[-87.214786,41.754626],[-87.063196,42.310456],[-87.046353,42.37783],[-87.046353,42.394673],[-87.046353,42.411516],[-87.02951,42.495733],[-87.02951,42.52942],[-87.02951,42.596793],[-87.147413,43.371586],[-87.13057,43.674766],[-86.962136,44.230596],[-86.692643,44.8538],[-86.254716,45.241197],[-86.743173,45.443317],[-87.096883,45.443317],[-87.450593,45.072763],[-87.73693,45.173823],[-87.652713,45.375943],[-87.871676,45.3591],[-87.804303,45.71281],[-88.124326,45.797027],[-88.174856,45.948617],[-88.814903,46.01599],[-89.118083,46.150737],[-90.078153,46.31917],[-90.41502,46.554977],[-89.96025,47.296083],[-89.488636,48.020347]]]],"type":"MultiPolygon"},"properties":{"name":"Michigan","source_feature_id":"fips:26"},"type":"Feature"}
