{"geometry":{"coordinates":[[[[-96.451671,45.301833],[-96.685232,45.40963],[-96.846928,45.643191],[-96.649299,45.742005],[-96.559468,45.939633],[-96.559468,46.110313],[-96.62235,46.352857],[-96.721164,46.433705],[-96.793029,46.631333],[-96.775063,46.88286],[-96.76608,46.927776],[-96.819978,46.963708],[-96.828962,47.179303],[-96.819978,47.188286],[-96.828962,47.188286],[-96.837945,47.197269],[-96.828962,47.206252],[-96.837945,47.323033],[-96.828962,47.340999],[-96.846928,47.367948],[-96.837945,47.403881],[-96.855911,47.610492],[-97.02659,47.871003],[-97.14337,48.149479],[-97.125404,48.293209],[-97.116421,48.302192],[-97.125404,48.302192],[-97.134387,48.445922],[-97.14337,48.472871],[-97.134387,48.481854],[-97.14337,48.481854],[-97.134387,48.517787],[-97.152354,48.598635],[-97.107438,48.688466],[-97.17032,48.796263],[-97.161337,48.814229],[-97.233202,49.002875],[-95.158103,49.002875],[-95.14912,49.380165],[-94.951491,49.371182],[-94.825728,49.290334],[-94.681998,48.90406],[-94.690981,48.778297],[-94.592167,48.715415],[-94.277758,48.706432],[-94.250808,48.652533],[-93.846568,48.634567],[-93.801653,48.517787],[-93.469278,48.544736],[-93.253683,48.64355],[-92.98419,48.625584],[-92.750629,48.544736],[-92.714696,48.463888],[-92.508085,48.445922],[-92.382321,48.230327],[-92.265541,48.248293],[-92.29249,48.347107],[-92.058929,48.356091],[-92.005031,48.266259],[-91.717571,48.176428],[-91.699605,48.12253],[-91.403162,48.050665],[-91.142652,48.158462],[-90.837226,48.23931],[-90.765361,48.09558],[-90.190442,48.104563],[-90.019763,48.086597],[-89.902982,47.987783],[-89.489759,48.014732],[-89.956881,47.2871],[-89.965864,47.2871],[-90.657564,47.305066],[-91.501976,46.90981],[-91.996047,46.712181],[-92.130794,46.748114],[-92.29249,46.667266],[-92.29249,46.433705],[-92.29249,46.424722],[-92.29249,46.415738],[-92.29249,46.07438],[-92.714696,45.894718],[-92.867409,45.724039],[-92.885375,45.571326],[-92.723679,45.544377],[-92.651815,45.400647],[-92.759612,45.292849],[-92.750629,44.924542],[-92.804527,44.74488],[-92.553,44.565217],[-92.328423,44.556234],[-92.274524,44.466403],[-91.915199,44.322673],[-91.879267,44.19691],[-91.591807,44.026231],[-91.448078,44.008264],[-91.241466,43.774704],[-91.268415,43.613008],[-91.214517,43.496227],[-93.271649,43.496227],[-93.469278,43.496227],[-93.487244,43.496227],[-93.684872,43.496227],[-96.451671,43.496227],[-96.451671,45.301833]]]],"type":"MultiPolygon"},"properties":{"name":"Minnesota","source_feature_id":"fips:27"},"type":"Feature"}
