{"geometry":{"coordinates":[[[[-91.714677,40.569509],[-91.442463,40.373473],[-91.476103,40.040925],[-91.33632,39.73324],[-90.811266,39.30202],[-90.670188,38.997483],[-90.588849,38.924671],[-90.362939,38.933208],[-90.253429,38.906277],[-90.176704,38.827687],[-90.173194,38.7161],[-90.313322,38.406441],[-90.298274,38.188285],[-89.556542,37.680023],[-89.471067,37.471923],[-89.467095,37.245274],[-89.422895,37.142147],[-89.349186,37.056437],[-89.134926,36.987963],[-89.207852,36.64457],[-89.369396,36.571078],[-89.421263,36.499506],[-89.488636,36.499506],[-89.519038,36.536276],[-89.539166,36.499506],[-89.563876,36.317758],[-89.724443,35.994206],[-90.239931,36.000114],[-90.309837,36.059159],[-90.107828,36.288899],[-90.105482,36.389533],[-90.178268,36.458814],[-90.379352,36.499384],[-94.60901,36.499506],[-94.625853,37.004806],[-94.60901,37.611166],[-94.625853,37.678539],[-94.617139,39.020065],[-94.669402,39.12925],[-95.014604,39.470952],[-95.04607,39.584199],[-94.911793,39.77783],[-94.982482,39.860036],[-95.31643,40.00292],[-95.634692,40.377431],[-95.754357,40.592436],[-91.935106,40.608084],[-91.714677,40.569509]]],[[[-91.442463,40.390316],[-91.42562,40.390316],[-91.42562,40.373473],[-91.442463,40.373473],[-91.442463,40.390316]]]],"type":"MultiPolygon"},"properties":{"name":"Missouri","source_feature_id":"fips:29"},"type":"Feature"}
