{"geometry":{"coordinates":[[[[-91.097736,33.237513],[-91.205534,33.417176],[-91.115702,33.444125],[-91.178584,33.498024],[-91.124686,33.614804],[-91.142652,33.7765],[-90.828243,34.135825],[-90.765361,34.369386],[-90.576716,34.423284],[-90.594682,34.620913],[-90.459935,34.674811],[-90.567733,34.710744],[-90.540783,34.800575],[-90.244341,34.899389],[-90.307222,34.998203],[-88.205174,34.998203],[-88.196191,34.98922],[-88.187208,34.980237],[-88.097377,34.890406],[-88.25009,33.767517],[-88.411786,32.375135],[-88.420769,32.339202],[-88.420769,32.321236],[-88.420769,32.30327],[-88.474668,31.916996],[-88.420769,30.991736],[-88.384837,30.156306],[-88.232124,29.832914],[-88.241107,29.698167],[-88.564499,29.99461],[-88.816026,30.165289],[-88.878908,30.13834],[-88.896874,30.13834],[-88.905857,30.13834],[-88.91484,30.13834],[-88.923823,30.147323],[-89.184333,30.210205],[-89.507725,30.156306],[-89.615523,30.219188],[-89.687388,30.461732],[-89.840101,30.65936],[-89.813151,30.794107],[-89.732303,31.000719],[-91.62774,31.000719],[-91.645706,31.270212],[-91.510959,31.279195],[-91.573841,31.422925],[-91.475027,31.369026],[-91.519943,31.530722],[-91.403162,31.593604],[-91.34028,31.854114],[-91.097736,31.988861],[-91.034854,32.096658],[-91.169601,32.195473],[-90.909091,32.339202],[-90.971973,32.447],[-91.115702,32.473949],[-91.07977,32.545814],[-91.151635,32.644628],[-91.052821,32.725476],[-91.160618,32.743442],[-91.061804,32.896155],[-91.169601,33.003953],[-91.097736,33.237513]]]],"type":"MultiPolygon"},"properties":{"name":"Mississippi","source_feature_id":"fips:28"},"type":"Feature"}
