{"geometry":{"coordinates":[[[[-111.384,44.755],[-111.489,44.706],[-111.491,44.643],[-111.524,44.592],[-111.468,44.539],[-111.704,44.56],[-111.822,44.509],[-111.869,44.566],[-112.107,44.521],[-112.287,44.569],[-112.386,44.447],[-112.721,44.504],[-112.828,44.442],[-112.844,44.358],[-112.953,44.424],[-113.088,44.6],[-113.05,44.632],[-113.131,44.773],[-113.246,44.823],[-113.342,44.785],[-113.479,44.895],[-113.452,45.059],[-113.692,45.262],[-113.776,45.407],[-113.766,45.521],[-113.834,45.521],[-113.806,45.602],[-113.905,45.622],[-113.937,45.696],[-114.016,45.696],[-114.086,45.591],[-114.248,45.546],[-114.332,45.459],[-114.456,45.562],[-114.565,45.558],[-114.495,45.704],[-114.566,45.774],[-114.388,45.883],[-114.412,45.978],[-114.507,46.031],[-114.46,46.098],[-114.527,46.147],[-114.444,46.169],[-114.471,46.266],[-114.321,46.649],[-114.607,46.636],[-114.664,46.739],[-114.767,46.697],[-114.787,46.783],[-114.895,46.801],[-114.948,46.86],[-114.924,46.918],[-115.049,46.97],[-115.32,47.257],[-115.759,47.423],[-115.63,47.478],[-115.756,47.548],[-115.688,47.595],[-115.724,47.697],[-116.049,47.977],[-116.049,49.001],[-115.501,49.001],[-115.423,49.0],[-115.3545,49.0],[-115.171,49.0],[-115.122,49.0],[-114.70913,49.000935],[-114.685,49.001],[-114.677,49.001],[-114.251,49.001],[-114.231,49.0],[-114.226,49.0],[-114.142,48.999],[-113.893,48.999],[-113.886,48.999],[-113.885135,48.998961],[-113.883298,48.998877],[-113.864,48.998],[-113.814,48.998],[-113.693,48.998],[-113.548,48.998],[-113.195,48.999],[-112.001,48.999],[-111.576,48.997],[-111.501,48.997],[-111.15,48.997],[-111.142083,48.99772],[-111.14056,48.997858],[-111.139,48.998],[-111.081,48.998],[-111.002333,48.998],[-110.794,48.998],[-110.789737,48.998426],[-110.784,48.999],[-110.503667,48.999],[-110.373,48.999],[-110.105,48.999],[-110.096278,48.999793],[-110.096008,48.999817],[-110.024,49.0],[-110.005,49.0],[-109.732,49.0],[-109.69,49.0],[-109.592,49.0],[-109.454,49.001],[-108.826,48.999],[-108.751,48.999],[-108.412,48.999],[-108.409041,48.999247],[-108.407968,48.999336],[-108.4,49.0],[-107.73,49.0],[-107.364,49.0],[-106.875,49.0],[-106.364,49.0],[-106.333482,48.99929],[-106.321,48.999],[-106.112,48.999],[-106.05,49.0],[-105.768,49.0],[-105.387,49.0],[-105.375033,48.999614],[-105.356,48.999],[-104.75,48.999],[-104.534,48.999],[-104.399,48.999],[-104.383611,48.999699],[-104.38012,48.999858],[-104.377,49.0],[-104.319,49.0],[-104.049,49.0],[-104.046,45.945],[-104.058,44.998],[-104.753,44.999],[-104.767,44.999],[-104.781,45.0],[-111.055,45.001],[-111.052,44.478],[-111.056,44.477],[-111.06,44.477],[-111.065,44.479],[-111.384,44.755]],[[-112.952,44.424],[-112.952,44.425],[-112.953,44.425],[-112.953,44.424],[-112.952,44.424]]],[[[-111.49,44.642],[-111.491,44.642],[-111.491,44.643],[-111.49,44.643],[-111.49,44.642]]]],"type":"MultiPolygon"},"properties":{"name":"Montana","source_feature_id":"fips:30"},"type":"Feature"}
