{"geometry":{"coordinates":[[[[-77.733,32.883],[-77.878,32.866],[-78.074,32.87],[-78.076,32.867],[-78.315,33.185],[-78.308,33.349],[-78.5,33.813],[-79.676,34.805],[-80.797,34.82],[-80.782,34.936],[-80.931,35.104],[-81.041,35.045],[-81.035,35.149],[-81.148,35.156],[-81.159854,35.156464],[-81.173571,35.157],[-81.193418,35.157776],[-81.327,35.163],[-81.763,35.18],[-81.771,35.181],[-81.818,35.182],[-81.822571,35.182286],[-81.834,35.183],[-81.836,35.183],[-81.852872,35.183359],[-81.883,35.184],[-81.919,35.185],[-81.943,35.186],[-82.38,35.195],[-82.378,35.196],[-82.394,35.215],[-82.395,35.215],[-82.395,35.214],[-82.395,35.213],[-82.757,35.067],[-83.109,35.001],[-84.322,34.988],[-84.291,35.224],[-84.052,35.27],[-83.973,35.448],[-83.965,35.455],[-83.771,35.562],[-83.485,35.568],[-83.16,35.765],[-82.987,35.776],[-82.896,35.879],[-82.92,35.929],[-82.805,35.927],[-82.776,36.001],[-82.637,36.066],[-82.558,35.954],[-82.353,36.117],[-82.216,36.159],[-82.13,36.104],[-82.033,36.121],[-81.856,36.337],[-81.707,36.335],[-81.742,36.413],[-81.677,36.588],[-75.797,36.551],[-74.73,36.818],[-74.727,36.813],[-74.647,36.519],[-74.389,36.026],[-74.304,35.61],[-74.301,35.538],[-74.30135,35.52785],[-74.301,35.517],[-74.31,35.425],[-74.337,35.263],[-74.36,35.166],[-74.42,34.973],[-74.487,34.817],[-74.528,34.752],[-74.530056,34.74921],[-74.534,34.743],[-74.549714,34.723286],[-74.569,34.699],[-74.569714,34.698195],[-74.614695,34.647489],[-74.624,34.637],[-74.629981,34.631718],[-74.652,34.609],[-74.7448,34.5325],[-74.749,34.529],[-74.749636,34.529],[-74.75,34.529],[-74.798,34.494],[-75.384,34.272],[-75.717,33.924],[-75.992,33.755],[-76.373,33.655],[-76.826,33.682],[-76.828,33.666],[-76.847,33.58],[-76.847889,33.577496],[-76.852133,33.565533],[-76.878,33.492],[-76.92,33.408],[-77.101,33.184],[-77.364,32.999],[-77.733,32.883]],[[-83.973,35.447],[-83.972,35.447],[-83.972,35.448],[-83.973,35.448],[-83.973,35.447]],[[-83.965,35.454],[-83.964,35.454],[-83.964,35.455],[-83.965,35.455],[-83.965,35.454]]]],"type":"MultiPolygon"},"properties":{"name":"North Carolina","source_feature_id":"fips:37"},"type":"Feature"}
