{"geometry":{"coordinates":[[[[-104.041277,48.99726],[-97.23657,48.99726],[-97.143492,48.726659],[-97.13551,48.44143],[-97.152354,48.44143],[-97.152354,48.424587],[-97.13551,48.424587],[-97.081791,48.043144],[-96.87557,47.569928],[-96.773013,46.671076],[-96.593051,46.188585],[-96.562837,45.931773],[-104.041277,45.948617],[-104.041277,48.99726]]],[[[-97.118667,48.424587],[-97.13551,48.424587],[-97.13551,48.44143],[-97.118667,48.44143],[-97.118667,48.424587]]]],"type":"MultiPolygon"},"properties":{"name":"North Dakota","source_feature_id":"fips:38"},"type":"Feature"}
