{"geometry":{"coordinates":[[[[-104.058121,43.001033],[-98.49982,43.001033],[-98.061894,42.765226],[-97.7924,42.849443],[-97.219727,42.849443],[-96.512307,42.47889],[-96.461777,42.495733],[-96.22597,42.007276],[-96.091223,41.51882],[-95.92279,41.46829],[-95.838573,40.76087],[-95.754357,40.592436],[-95.31643,40.00292],[-102.053764,40.00292],[-102.053764,40.996676],[-104.058121,40.996676],[-104.058121,43.001033]]]],"type":"MultiPolygon"},"properties":{"name":"Nebraska","source_feature_id":"fips:31"},"type":"Feature"}
