{"geometry":{"coordinates":[[[[-73.891709,40.996676],[-74.043299,40.65981],[-74.245419,40.474533],[-73.756962,40.440846],[-72.881109,39.699739],[-72.999012,39.346029],[-73.302192,38.941789],[-73.841179,38.402803],[-75.020212,38.773356],[-75.256019,39.177596],[-75.559199,39.447089],[-75.424452,39.783956],[-75.407609,39.800799],[-74.717032,40.137666],[-75.188645,40.55875],[-75.138115,40.996676],[-74.700189,41.350386],[-73.891709,40.996676]]]],"type":"MultiPolygon"},"properties":{"name":"New Jersey","source_feature_id":"fips:34"},"type":"Feature"}
