{"geometry":{"coordinates":[[[[-109.045994,37.001437],[-106.87208,37.001437],[-106.87208,36.992454],[-105.68631,36.992454],[-105.632411,36.992454],[-105.623428,36.992454],[-105.246137,36.992454],[-105.219188,36.992454],[-105.165289,36.992454],[-105.156306,36.992454],[-103.89867,36.992454],[-103.000359,37.001437],[-103.000359,36.498383],[-103.018326,36.498383],[-103.045275,36.498383],[-103.045275,36.049227],[-103.045275,36.040244],[-103.045275,36.031261],[-103.045275,36.022278],[-103.045275,36.013295],[-103.045275,35.94143],[-103.045275,35.923464],[-103.045275,35.914481],[-103.045275,33.713618],[-103.063241,33.282429],[-103.063241,31.997844],[-106.620553,31.997844],[-106.620553,31.916996],[-106.629536,31.908013],[-106.530722,31.782249],[-108.210564,31.782249],[-108.210564,31.333094],[-109.045994,31.333094],[-109.045994,37.001437]]]],"type":"MultiPolygon"},"properties":{"name":"New Mexico","source_feature_id":"fips:35"},"type":"Feature"}
