{"geometry":{"coordinates":[[[[-118.406396,41.996047],[-118.38843,41.996047],[-117.247575,41.996047],[-117.238591,41.996047],[-117.229608,41.996047],[-117.022997,41.996047],[-114.98383,41.996047],[-114.965864,41.996047],[-114.956881,41.996047],[-114.938915,41.996047],[-114.929932,41.996047],[-114.920949,41.996047],[-114.040604,41.996047],[-114.040604,40.576716],[-114.049587,40.513834],[-114.049587,37.711103],[-114.049587,37.693137],[-114.049587,37.675171],[-114.049587,37.001437],[-114.040604,36.192957],[-114.148401,36.022278],[-114.247215,36.013295],[-114.363996,36.139059],[-114.588573,36.148042],[-114.741286,36.103126],[-114.750269,36.094143],[-114.678405,35.483291],[-114.597557,35.348545],[-114.570607,35.13295],[-114.642472,35.025153],[-114.642472,35.01617],[-115.226374,35.483291],[-116.349263,36.34567],[-116.708588,36.63313],[-117.427237,37.172116],[-118.918433,38.25009],[-120.00539,38.995688],[-119.996407,39.759253],[-119.996407,41.996047],[-119.107079,41.996047],[-119.098096,41.996047],[-119.089112,41.996047],[-118.675889,41.996047],[-118.666906,41.996047],[-118.657923,41.996047],[-118.406396,41.996047]]]],"type":"MultiPolygon"},"properties":{"name":"Nevada","source_feature_id":"fips:32"},"type":"Feature"}
