{"geometry":{"coordinates":[[[[-73.420095,43.657923],[-73.251662,43.573706],[-73.268505,42.748383],[-73.487469,42.057806],[-73.554842,41.299856],[-73.723275,41.097736],[-73.605372,40.946146],[-72.982169,41.097736],[-71.904195,41.299856],[-71.533642,40.777713],[-71.264148,40.221883],[-72.881109,39.699739],[-73.756962,40.440846],[-74.245419,40.474533],[-74.043299,40.65981],[-73.891709,40.996676],[-74.700189,41.350386],[-75.003369,41.501976],[-75.070742,41.822],[-75.357079,42.007276],[-78.978396,42.007276],[-79.770032,41.990433],[-79.770032,42.512576],[-78.927866,42.849443],[-79.197359,43.455803],[-78.692059,43.64108],[-76.771919,43.624236],[-76.435052,44.09585],[-75.862379,44.39903],[-75.289705,44.8538],[-74.851779,45.00539],[-73.352722,45.00539],[-73.420095,43.657923]]]],"type":"MultiPolygon"},"properties":{"name":"New York","source_feature_id":"fips:36"},"type":"Feature"}
