{"geometry":{"coordinates":[[[[-83.755948,38.676374],[-84.186379,38.833917],[-84.37213,39.039909],[-84.454441,39.080344],[-84.823033,39.110223],[-84.806189,41.704096],[-83.546339,41.735145],[-83.362077,41.793827],[-83.121856,41.956746],[-83.105013,41.956746],[-82.970266,41.822],[-82.886049,41.77147],[-82.869206,41.77147],[-82.751303,41.704096],[-82.734459,41.704096],[-82.683929,41.687253],[-82.683929,41.67041],[-82.330219,41.704096],[-82.246003,41.737783],[-82.246003,41.754626],[-82.128099,41.805156],[-81.993352,41.855686],[-81.622799,42.02412],[-81.555426,42.07465],[-81.504896,42.091493],[-81.488052,42.091493],[-81.454366,42.108336],[-81.437522,42.12518],[-81.370149,42.158866],[-81.336462,42.17571],[-81.285932,42.192553],[-81.269089,42.209396],[-81.252246,42.209396],[-81.218559,42.22624],[-81.184872,42.22624],[-81.168029,42.22624],[-81.142764,42.234661],[-81.117499,42.243083],[-81.100656,42.243083],[-80.527982,42.3273],[-80.511139,40.642966],[-80.626831,40.571676],[-80.628154,40.290153],[-80.901438,39.637056],[-81.185638,39.422736],[-81.317029,39.371487],[-81.459309,39.380677],[-81.697695,39.230966],[-81.766573,39.107539],[-81.786291,38.966596],[-81.833073,38.914757],[-81.901405,38.919679],[-81.947072,38.974082],[-82.012701,38.996529],[-82.077645,38.970192],[-82.188734,38.790394],[-82.19627,38.649665],[-82.332663,38.485779],[-82.457625,38.423603],[-82.599713,38.419646],[-82.946098,38.719681],[-83.207799,38.634772],[-83.755948,38.676374]]]],"type":"MultiPolygon"},"properties":{"name":"Ohio","source_feature_id":"fips:39"},"type":"Feature"}
