{"geometry":{"coordinates":[[[[-94.575323,33.619296],[-94.575323,33.636139],[-94.55848,33.636139],[-94.55848,33.619296],[-94.575323,33.619296]]],[[[-94.642697,33.669826],[-94.929033,33.804572],[-95.097467,33.905632],[-95.943011,33.854778],[-96.28806,33.745196],[-96.63021,33.855102],[-96.613367,33.855102],[-96.613367,33.871946],[-96.958265,33.900627],[-97.051294,33.838259],[-97.135541,33.787155],[-97.320787,33.871946],[-97.320787,33.888789],[-97.33763,33.888789],[-97.33763,33.875234],[-97.664594,33.939075],[-97.775557,33.905632],[-97.775557,33.922476],[-97.7924,33.922476],[-97.7924,33.909232],[-97.986202,33.950645],[-98.09558,34.141439],[-98.112424,34.141439],[-98.112424,34.158282],[-98.583106,34.117979],[-98.93396,34.183613],[-99.157045,34.260919],[-99.345042,34.400999],[-99.697379,34.421956],[-99.900448,34.541945],[-99.994401,34.756677],[-100.003528,36.304039],[-100.045946,36.413961],[-100.141375,36.482012],[-102.996991,36.499506],[-102.996991,37.004806],[-102.036921,36.987963],[-94.625853,37.004806],[-94.60901,36.499506],[-94.442919,35.381987],[-94.491107,33.636139],[-94.55848,33.636139],[-94.575323,33.642876],[-94.575323,33.636139],[-94.592167,33.636139],[-94.592167,33.649614],[-94.642697,33.669826]],[[-94.91219,33.804572],[-94.91219,33.821416],[-94.929033,33.821416],[-94.929033,33.804572],[-94.91219,33.804572]],[[-95.080623,33.905632],[-95.06378,33.905632],[-95.06378,33.922476],[-95.080623,33.922476],[-95.097467,33.922476],[-95.097467,33.905632],[-95.080623,33.905632]],[[-97.051294,33.855102],[-97.068137,33.855102],[-97.08498,33.855102],[-97.08498,33.838259],[-97.068137,33.838259],[-97.051294,33.838259],[-97.051294,33.855102]]],[[[-94.65954,33.669826],[-94.642697,33.669826],[-94.642697,33.652982],[-94.65954,33.652982],[-94.65954,33.669826]]]],"type":"MultiPolygon"},"properties":{"name":"Oklahoma","source_feature_id":"fips:40"},"type":"Feature"}
