{"geometry":{"coordinates":[[[[-124.33525,41.996047],[-124.33525,42.005031],[-124.398132,41.951132],[-125.080848,41.996047],[-125.628818,41.960115],[-125.772548,42.337406],[-125.862379,42.490119],[-125.925261,42.786561],[-125.862379,43.056055],[-125.727632,43.280632],[-125.673733,43.559109],[-125.467122,43.945383],[-125.413223,44.574201],[-125.40424,44.915559],[-125.341358,45.229968],[-125.332375,45.607258],[-125.377291,45.984549],[-125.440172,46.146245],[-125.440172,46.388789],[-124.164571,46.272009],[-124.155587,46.263026],[-123.93101,46.236076],[-123.472871,46.272009],[-123.427955,46.173194],[-123.104563,46.182178],[-122.897952,46.083363],[-122.808121,45.9576],[-122.763205,45.652174],[-122.332016,45.544377],[-122.098455,45.580309],[-121.864894,45.697089],[-121.496586,45.724039],[-120.894718,45.643191],[-120.562343,45.742005],[-120.508444,45.697089],[-120.212001,45.724039],[-119.978441,45.822853],[-119.673015,45.858785],[-119.60115,45.921667],[-119.125045,45.93065],[-118.972332,46.002515],[-118.963349,46.002515],[-118.954366,46.002515],[-118.891484,46.002515],[-118.882501,46.002515],[-118.873518,46.002515],[-118.76572,46.002515],[-118.747754,46.002515],[-117.274524,46.002515],[-117.256558,46.002515],[-116.915199,45.993532],[-116.780453,45.822853],[-116.582824,45.777937],[-116.466044,45.598275],[-116.672655,45.328782],[-116.726554,45.140137],[-116.861301,44.987424],[-116.843335,44.969457],[-116.933166,44.780812],[-117.058929,44.735897],[-117.14876,44.529285],[-117.229608,44.484369],[-117.193676,44.268775],[-116.969098,44.241825],[-116.897233,44.178944],[-116.978081,43.864535],[-117.022997,43.828602],[-117.022997,41.996047],[-117.229608,41.996047],[-117.247575,41.996047],[-118.38843,41.996047],[-118.397413,41.996047],[-118.406396,41.996047],[-118.657923,41.996047],[-118.675889,41.996047],[-119.089112,41.996047],[-119.107079,41.996047],[-119.996407,41.996047],[-120.993532,41.996047],[-121.002515,41.996047],[-121.011498,41.996047],[-121.694215,42.005031],[-123.571685,42.005031],[-124.326267,41.996047],[-124.33525,41.996047]]]],"type":"MultiPolygon"},"properties":{"name":"Oregon","source_feature_id":"fips:41"},"type":"Feature"}
