{"geometry":{"coordinates":[[[[-71.795163,41.473916],[-71.787192,41.52685],[-71.786292,41.794488],[-71.802292,41.900245],[-71.803135,42.007276],[-71.582918,42.007276],[-71.419302,42.021839],[-71.395625,42.008634],[-71.383769,41.984219],[-71.380396,41.929391],[-71.370098,41.903985],[-71.348365,41.889373],[-71.342936,41.809506],[-71.329738,41.786406],[-71.26149,41.743984],[-71.140002,41.641369],[-71.121121,41.508413],[-71.088591,41.406491],[-71.151472,41.173302],[-71.158814,41.09308],[-71.119192,40.881275],[-71.042641,40.622866],[-70.977812,40.3061],[-71.045185,40.289256],[-71.095715,40.272413],[-71.146245,40.25557],[-71.196775,40.238726],[-71.264148,40.221883],[-71.430056,40.53346],[-71.539384,40.78206],[-71.664236,40.992329],[-71.73938,41.166263],[-71.755052,41.187848],[-71.827313,41.223004],[-71.904195,41.299856],[-71.843645,41.350001],[-71.795163,41.473916]]],[[[-71.331522,41.906216],[-71.331522,41.889373],[-71.348365,41.889373],[-71.348365,41.906216],[-71.331522,41.906216]]]],"type":"MultiPolygon"},"properties":{"name":"Rhode Island","source_feature_id":"fips:44"},"type":"Feature"}
