{"geometry":{"coordinates":[[[[-83.102767,34.998203],[-82.779375,35.061085],[-82.554797,35.159899],[-82.312253,35.195832],[-81.943945,35.186849],[-81.925979,35.186849],[-81.916996,35.186849],[-81.881064,35.186849],[-81.845131,35.186849],[-81.836148,35.186849],[-81.827165,35.186849],[-81.818182,35.177866],[-81.324111,35.159899],[-81.153432,35.159899],[-81.144448,35.159899],[-81.054617,35.052102],[-80.937837,35.106001],[-80.785124,34.944305],[-80.794107,34.818541],[-79.689184,34.809558],[-79.293927,34.495149],[-78.512397,33.812433],[-78.305785,33.345311],[-78.323751,33.210564],[-78.072224,32.869206],[-78.269853,32.581746],[-78.566295,32.321236],[-78.92562,32.132591],[-79.347826,31.836148],[-79.545455,31.746317],[-79.904779,31.46784],[-80.407833,31.854114],[-80.839023,32.04276],[-81.117499,32.114625],[-81.126482,32.15954],[-81.117499,32.177506],[-81.20733,32.482932],[-81.413942,32.626662],[-81.404959,32.626662],[-81.413942,32.635645],[-81.422925,32.842257],[-81.49479,33.012936],[-81.764283,33.156665],[-81.934962,33.345311],[-81.916996,33.453108],[-82.186489,33.614804],[-82.321236,33.821416],[-82.56378,33.947179],[-82.716493,34.144808],[-82.743442,34.270571],[-82.896155,34.486166],[-83.048868,34.486166],[-83.174632,34.602946],[-83.354294,34.710744],[-83.300395,34.809558],[-83.102767,34.998203]]]],"type":"MultiPolygon"},"properties":{"name":"South Carolina","source_feature_id":"fips:45"},"type":"Feature"}
