{"geometry":{"coordinates":[[[[-104.0424,45.113187],[-104.0424,45.12217],[-104.0424,45.131153],[-104.0424,45.580309],[-104.0424,45.598275],[-104.0424,45.948617],[-101.527129,45.948617],[-101.518146,45.939633],[-99.092706,45.939633],[-99.065756,45.939633],[-99.04779,45.939633],[-98.90406,45.939633],[-98.895077,45.939633],[-98.886094,45.939633],[-98.877111,45.939633],[-98.859145,45.939633],[-98.706432,45.939633],[-98.688466,45.939633],[-98.679483,45.939633],[-98.634567,45.939633],[-98.589651,45.939633],[-98.580668,45.939633],[-96.559468,45.939633],[-96.649299,45.742005],[-96.846928,45.643191],[-96.685232,45.40963],[-96.451671,45.301833],[-96.451671,43.496227],[-96.586418,43.496227],[-96.523536,43.397413],[-96.568451,43.226734],[-96.469637,43.208768],[-96.451671,43.074021],[-96.631333,42.723679],[-96.523536,42.642831],[-96.460654,42.490119],[-96.50557,42.481135],[-96.631333,42.517068],[-96.694215,42.660798],[-97.134387,42.768595],[-97.242185,42.858426],[-97.655408,42.84046],[-97.879986,42.858426],[-97.942867,42.768595],[-98.472871,42.948257],[-98.49982,43.002156],[-104.051383,43.002156],[-104.051383,44.753863],[-104.060367,44.996407],[-104.0424,45.113187]]]],"type":"MultiPolygon"},"properties":{"name":"South Dakota","source_feature_id":"fips:46"},"type":"Feature"}
