{"geometry":{"coordinates":[[[[-89.539166,36.246856],[-89.539166,36.499506],[-89.488636,36.499506],[-89.438106,36.465819],[-89.421263,36.499506],[-88.04011,36.499506],[-88.073796,36.684783],[-87.854833,36.634253],[-86.254716,36.651096],[-84.031396,36.583723],[-83.997709,36.583723],[-83.980866,36.583723],[-83.660843,36.600566],[-81.673329,36.583723],[-81.723859,36.347916],[-82.060726,36.112109],[-82.380749,36.112109],[-82.616556,35.960519],[-82.902893,35.943676],[-82.970266,35.775243],[-83.492409,35.556279],[-83.745059,35.573123],[-84.031396,35.286786],[-84.300889,35.202569],[-84.317733,34.983606],[-85.597826,34.983606],[-88.1917,35.000449],[-90.31396,35.000449],[-90.078153,35.118352],[-90.16237,35.253099],[-89.926563,35.758399],[-89.640226,35.876303],[-89.724443,35.994206],[-89.539166,36.246856]]]],"type":"MultiPolygon"},"properties":{"name":"Tennessee","source_feature_id":"fips:47"},"type":"Feature"}
