{"geometry":{"coordinates":[[[[-106.618308,32.002336],[-103.064364,32.002336],[-103.047521,33.417176],[-103.047521,35.909989],[-103.047521,35.943676],[-102.996991,36.499506],[-99.998877,36.499506],[-99.998877,34.562522],[-99.695697,34.377246],[-99.25777,34.410932],[-99.190397,34.208812],[-98.937747,34.208812],[-98.466134,34.057222],[-98.112424,34.158282],[-98.09558,34.141439],[-97.960834,33.871946],[-97.775557,33.905632],[-97.455534,33.821416],[-97.320787,33.871946],[-97.169197,33.720356],[-97.051294,33.838259],[-97.000764,33.956162],[-96.613367,33.871946],[-96.63021,33.855102],[-96.360717,33.686669],[-96.158597,33.838259],[-95.552237,33.939319],[-95.097467,33.905632],[-94.929033,33.804572],[-94.642697,33.669826],[-94.55848,33.669826],[-94.55848,33.636139],[-94.491107,33.636139],[-94.40689,33.551922],[-94.2553,33.568766],[-94.221613,33.551922],[-94.221613,33.585609],[-94.036337,33.551922],[-94.036337,33.012936],[-94.036337,32.002336],[-93.817373,31.732842],[-93.665783,31.278072],[-93.54788,31.177012],[-93.54788,30.823302],[-93.716313,30.587496],[-93.733157,30.014822],[-93.935277,29.795859],[-93.817373,29.593739],[-93.918433,28.903162],[-93.884747,28.734729],[-94.676383,28.128369],[-95.61961,27.690442],[-96.108067,27.370419],[-96.310187,26.999865],[-96.108067,26.258759],[-96.091223,26.006109],[-96.815487,26.006109],[-97.270257,25.955579],[-97.371317,25.837675],[-97.64081,26.022952],[-98.19664,26.056639],[-98.432447,26.225072],[-99.089337,26.393505],[-99.274614,26.848275],[-99.443047,27.016709],[-99.493577,27.505165],[-99.880974,27.791502],[-99.931504,27.976779],[-100.285214,28.263115],[-100.655767,29.071595],[-101.413717,29.762172],[-101.817957,29.795859],[-102.356944,29.863232],[-102.693811,29.728485],[-102.912774,29.189499],[-103.114894,28.987379],[-103.434917,29.037909],[-103.771784,29.240029],[-103.990747,29.290559],[-104.445517,29.576895],[-104.681324,29.913762],[-104.681324,30.183255],[-104.984504,30.671712],[-105.338214,30.823302],[-106.011948,31.395976],[-106.163538,31.429662],[-106.534091,31.783372],[-106.618308,32.002336]]]],"type":"MultiPolygon"},"properties":{"name":"Texas","source_feature_id":"fips:48"},"type":"Feature"}
