{"geometry":{"coordinates":[[[[-114.365678,36.136398],[-114.366124,36.136517],[-114.370181,36.142624],[-114.365678,36.136398]]],[[[-114.377375,36.142608],[-114.379976,36.141388],[-114.381479,36.141349],[-114.377375,36.142608]]],[[[-114.374593,36.143462],[-114.373745,36.143722],[-114.370181,36.142624],[-114.374593,36.143462]]],[[[-114.402281,36.146507],[-114.401456,36.146302],[-114.403045,36.146562],[-114.402281,36.146507]]],[[[-114.052885,37.549262],[-114.051654,37.751498],[-114.049861,37.766142],[-114.048302,37.809424],[-114.049613,37.823541],[-114.0505,37.953341],[-114.050346,38.237104],[-114.049325,38.26606],[-114.050521,38.496117],[-114.047551,39.624941],[-114.046839,39.709111],[-114.047855,39.779402],[-114.046994,39.911513],[-114.046099,40.401848],[-114.04507,40.43082],[-114.045477,40.49008],[-114.042874,40.795071],[-114.040528,41.34197],[-114.040715,41.534082],[-114.039461,41.718874],[-114.040177,41.775203],[-114.040177,41.948805],[-114.041477,41.993873],[-113.990091,41.993095],[-113.901578,41.988552],[-113.873349,41.988182],[-113.249781,41.995969],[-112.705684,42.000151],[-112.173148,42.001515],[-112.153848,41.997226],[-111.750764,41.99933],[-111.483516,41.999541],[-111.430495,42.000541],[-111.311026,42.001223],[-111.046714,42.001702],[-111.045789,41.565208],[-111.046815,40.997875],[-110.681369,40.996239],[-110.545871,40.996332],[-110.505074,40.994804],[-110.274112,40.994817],[-110.086964,40.997128],[-109.543697,40.998396],[-109.250007,41.00105],[-109.232505,41.002107],[-109.174893,41.000896],[-109.178685,41.000902],[-109.050026,41.000691],[-109.048455,40.826081],[-109.049088,40.714503],[-109.048432,40.662601],[-109.048944,40.662601],[-109.047767,40.609879],[-109.04801,40.580977],[-109.050092,40.529198],[-109.051245,40.441599],[-109.051157,40.008238],[-109.050334,39.852406],[-109.050956,39.821031],[-109.051441,39.58247],[-109.050701,39.360945],[-109.051166,39.142603],[-109.054022,38.877161],[-109.05895,38.753405],[-109.059824,38.714746],[-109.060204,38.278238],[-109.042835,38.166268],[-109.042572,38.157016],[-109.04258,38.093799],[-109.041979,38.079557],[-109.042866,38.03642],[-109.042947,37.979906],[-109.04204,37.943812],[-109.041572,37.562138],[-109.044861,37.422442],[-109.04564,37.359723],[-109.045335,37.21394],[-109.045923,37.19961],[-109.045086,37.120377],[-109.045172,36.998977],[-109.530695,36.999189],[-109.624319,36.998246],[-110.469733,36.997657],[-110.490299,37.003628],[-110.720491,37.003113],[-110.625691,37.003725],[-110.741926,37.003083],[-110.797438,37.002616],[-110.799716,37.003102],[-110.803517,37.003087],[-110.801511,37.002932],[-110.810463,37.002511],[-111.064951,37.002342],[-111.150576,37.00095],[-111.498749,37.001615],[-113.064954,37.000043],[-114.050616,37.000167],[-114.050052,37.000191],[-114.050072,37.014095],[-114.050881,37.074976],[-114.052541,37.112881],[-114.051914,37.122766],[-114.051655,37.171964],[-114.051626,37.303905],[-114.051916,37.416672],[-114.05283,37.437276],[-114.052885,37.549262]],[[-109.201039,41.001402],[-109.197811,41.001185],[-109.178685,41.000902],[-109.201039,41.001402]],[[-113.064954,37.000043],[-113.089209,37.000087],[-113.150984,37.000056],[-113.064954,37.000043]],[[-114.05283,37.437276],[-114.052635,37.499974],[-114.052856,37.541928],[-114.05283,37.437276]],[[-114.05166,37.748924],[-114.051657,37.750276],[-114.051667,37.747969],[-114.05166,37.748924]],[[-114.051781,37.721066],[-114.051687,37.737396],[-114.051672,37.746616],[-114.051781,37.721066]],[[-114.052067,37.653525],[-114.051839,37.664243],[-114.051972,37.676039],[-114.052067,37.653525]],[[-113.900776,37.000169],[-113.897711,37.000168],[-113.899501,37.000178],[-113.900776,37.000169]],[[-113.900776,37.000169],[-113.945232,37.000196],[-113.96579,37.000178],[-113.900776,37.000169]]],[[[-115.085167,41.996157],[-115.055933,41.996325],[-115.069421,41.996137],[-115.085167,41.996157]]],[[[-114.996624,41.997154],[-114.85625,42.001702],[-114.97355,41.997476],[-114.996624,41.997154]]],[[[-114.050327,36.752899],[-114.050237,36.808436],[-114.049935,36.709521],[-114.050327,36.752899]]],[[[-111.043547,42.719502],[-111.044813,42.649395],[-111.043618,42.738386],[-111.043547,42.719502]]]],"type":"MultiPolygon"},"properties":{"name":"Utah","source_feature_id":"fips:49"},"type":"Feature"}
