{"geometry":{"coordinates":[[[[-74.733875,36.819529],[-75.71644,36.584471],[-76.017121,36.55009],[-79.451631,36.533971],[-81.673329,36.583723],[-81.8582,36.611787],[-83.660843,36.600566],[-83.306332,36.705581],[-83.05482,36.823134],[-82.895766,36.91847],[-82.621769,37.165961],[-82.284246,37.319535],[-81.976509,37.526949],[-81.890297,37.338331],[-81.770993,37.260231],[-81.634345,37.218914],[-81.365265,37.302465],[-81.227941,37.265422],[-81.015758,37.293132],[-80.945807,37.308636],[-80.831342,37.390239],[-80.411154,37.460917],[-80.298947,37.54569],[-80.208141,37.809502],[-80.002482,38.008125],[-79.643289,38.539348],[-79.576773,38.553287],[-79.394976,38.441194],[-79.258662,38.466748],[-79.055613,38.759639],[-79.000859,38.803092],[-78.859058,38.80555],[-78.469965,39.116778],[-78.351335,39.375468],[-78.294673,39.412741],[-77.857682,39.179225],[-77.795975,39.211229],[-77.715146,39.329186],[-77.606824,39.303579],[-77.510769,39.249331],[-77.500425,39.142641],[-77.471855,39.097049],[-77.310905,39.059693],[-77.310905,39.042849],[-77.294062,39.042849],[-77.176159,38.975476],[-77.159315,38.975476],[-77.159315,38.958633],[-77.142472,38.958633],[-77.125629,38.958633],[-77.125629,38.941789],[-77.12533,38.930405],[-77.123603,38.927072],[-77.112827,38.924178],[-77.109984,38.921748],[-77.107267,38.91085],[-77.100487,38.908103],[-77.08148,38.907985],[-77.077946,38.906681],[-77.0757,38.903689],[-77.074657,38.896194],[-77.072673,38.89302],[-77.061813,38.890256],[-77.059202,38.887586],[-77.056405,38.876741],[-77.053186,38.874821],[-77.045694,38.873751],[-77.042749,38.871441],[-77.040056,38.860532],[-77.037113,38.858229],[-77.029624,38.857169],[-77.026412,38.855246],[-77.024811,38.851852],[-77.025503,38.8444],[-77.028121,38.841732],[-77.038988,38.838969],[-77.040976,38.83579],[-77.041412,38.790199],[-77.094229,38.692438],[-77.268342,38.549026],[-77.309833,38.444989],[-77.298362,38.390511],[-77.254961,38.355613],[-77.199515,38.347677],[-77.090106,38.375424],[-77.036761,38.366243],[-76.983448,38.267395],[-76.898597,38.193354],[-76.624465,38.130902],[-76.445729,37.992871],[-76.344177,37.942499],[-76.234395,37.917641],[-76.066106,37.939196],[-75.840647,37.922234],[-75.511887,38.004149],[-75.173409,38.012673],[-74.186532,37.581219],[-74.178045,37.577479],[-74.312792,37.409046],[-74.733875,36.819529]]]],"type":"MultiPolygon"},"properties":{"name":"Virginia","source_feature_id":"fips:51"},"type":"Feature"}
