{"geometry":{"coordinates":[[[[-72.408843,43.303271],[-72.43922,43.217692],[-72.453031,43.037703],[-72.542731,42.88273],[-72.522428,42.797414],[-72.460025,42.73154],[-73.268505,42.748383],[-73.278365,42.840716],[-73.248848,43.494786],[-73.279296,43.58166],[-73.318406,43.605822],[-73.405741,43.613648],[-73.371136,43.793903],[-73.41593,44.022436],[-73.416383,44.115466],[-73.329341,44.27954],[-73.306327,44.464985],[-73.375973,44.636009],[-73.354222,44.773571],[-73.352722,45.00539],[-73.184289,45.00539],[-73.167445,45.00539],[-73.167445,45.008197],[-73.167445,45.011004],[-73.167445,45.022233],[-73.150602,45.022233],[-73.133759,45.022233],[-73.116915,45.022233],[-73.083229,45.022233],[-72.645302,45.022233],[-72.628458,45.022233],[-72.611615,45.022233],[-72.611615,45.013812],[-72.611615,45.00539],[-72.594772,45.00539],[-72.577928,45.00539],[-71.533642,45.00539],[-71.519877,44.913248],[-71.601081,44.746138],[-71.565936,44.612789],[-71.593575,44.524452],[-71.61884,44.484759],[-71.694556,44.429841],[-71.864604,44.349812],[-71.956654,44.332408],[-72.040341,44.292884],[-72.058971,44.249878],[-72.050166,44.109987],[-72.064478,44.065398],[-72.218316,43.775425],[-72.358965,43.59055],[-72.358965,43.573706],[-72.375808,43.573706],[-72.408843,43.303271]]]],"type":"MultiPolygon"},"properties":{"name":"Vermont","source_feature_id":"fips:50"},"type":"Feature"}
