{"geometry":{"coordinates":[[[[-117.044332,46.3697],[-116.926428,45.999147],[-118.863412,45.999147],[-118.897098,45.999147],[-119.621362,45.91493],[-120.194035,45.729653],[-120.631962,45.746497],[-120.884612,45.645437],[-121.878369,45.695967],[-122.333139,45.544377],[-122.771065,45.66228],[-122.804752,45.948617],[-123.107932,46.184423],[-123.461642,46.26864],[-123.933255,46.234953],[-125.449156,46.386543],[-125.567059,46.942373],[-125.988142,47.58242],[-126.173419,48.054033],[-124.943856,48.49196],[-124.708049,48.49196],[-124.017472,48.28984],[-123.512172,48.222467],[-123.124775,48.407743],[-123.259522,48.69408],[-123.006872,48.828827],[-123.293209,48.99726],[-117.027488,48.99726],[-117.044332,46.3697]]]],"type":"MultiPolygon"},"properties":{"name":"Washington","source_feature_id":"fips:53"},"type":"Feature"}
