{"geometry":{"coordinates":[[[[-90.41502,46.554977],[-90.078153,46.31917],[-89.118083,46.150737],[-88.814903,46.01599],[-88.174856,45.948617],[-88.124326,45.797027],[-87.804303,45.71281],[-87.871676,45.3591],[-87.652713,45.375943],[-87.73693,45.173823],[-87.450593,45.072763],[-87.096883,45.443317],[-86.743173,45.443317],[-86.254716,45.241197],[-86.692643,44.8538],[-86.962136,44.230596],[-87.13057,43.674766],[-87.147413,43.371586],[-87.02951,42.596793],[-87.02951,42.57995],[-87.02951,42.52942],[-87.02951,42.495733],[-89.623383,42.495733],[-90.633983,42.512576],[-90.7182,42.647323],[-91.07191,42.748383],[-91.17297,43.13578],[-91.07191,43.28737],[-91.2235,43.506333],[-91.240343,43.775826],[-91.442463,44.011633],[-91.796173,44.14638],[-91.998293,44.382186],[-92.554123,44.567463],[-92.806773,44.75274],[-92.756243,45.291727],[-92.655183,45.392787],[-92.874147,45.71281],[-92.655183,45.931773],[-92.301473,46.06652],[-92.28463,46.656037],[-91.492993,46.908687],[-90.66767,47.312927],[-89.96025,47.296083],[-90.41502,46.554977]]]],"type":"MultiPolygon"},"properties":{"name":"Wisconsin","source_feature_id":"fips:55"},"type":"Feature"}
