{"geometry":{"coordinates":[[[[-82.188,38.724],[-82.188,38.723],[-82.189,38.725],[-82.188,38.724]]],[[[-82.19,38.725],[-82.19,38.726],[-82.189,38.726],[-82.189,38.725],[-82.19,38.725]]],[[[-82.19,38.726],[-82.191,38.728],[-82.19,38.727],[-82.19,38.726]]],[[[-82.191,38.728],[-82.192,38.731],[-82.191,38.73],[-82.191,38.728]]],[[[-82.192,38.731],[-82.194,38.736],[-82.193,38.738],[-82.192,38.738],[-82.192,38.731]]],[[[-81.854,37.288],[-81.996,37.477],[-81.996,37.478],[-81.995,37.478],[-81.94,37.509],[-81.939,37.51],[-81.9375,37.51],[-81.937,37.51],[-81.935,37.511],[-81.933,37.511],[-81.932,37.512],[-81.927,37.512],[-81.926,37.513],[-81.931,37.517],[-81.932,37.518],[-81.946,37.532],[-81.947,37.532],[-81.947,37.531667],[-81.947,37.531],[-81.949,37.531],[-81.95,37.53],[-81.951,37.53],[-81.951,37.529333],[-81.951,37.529],[-81.9515,37.529],[-81.953,37.529],[-81.953,37.528],[-81.969,37.537],[-81.968,37.537],[-81.968,37.538],[-81.976,37.546],[-81.978,37.545],[-82.0,37.543],[-82.006,37.534],[-82.008,37.533],[-82.012,37.533],[-82.014,37.533],[-82.014,37.533667],[-82.014,37.534],[-82.015,37.534],[-82.305,37.676],[-82.31,37.763],[-82.498,37.928],[-82.501,37.931],[-82.501,37.93175],[-82.501,37.932],[-82.502,37.933],[-82.464,37.983],[-82.645,38.165],[-82.581,38.25],[-82.58,38.251],[-82.579,38.253],[-82.575,38.265],[-82.575,38.271],[-82.574,38.272],[-82.598,38.344],[-82.593,38.422],[-82.537,38.404],[-82.331,38.444],[-82.292,38.579],[-82.174,38.61],[-82.174,38.611],[-82.173,38.612],[-82.188,38.723],[-82.187,38.723],[-82.188,38.735],[-82.199,38.758],[-82.22,38.772],[-82.221,38.789],[-82.035,39.026],[-81.933,38.988],[-81.909,38.878],[-81.825,38.947],[-81.76,38.926],[-81.814,39.08],[-81.747,39.095],[-81.756,39.181],[-81.683,39.272],[-81.569,39.268],[-81.558,39.339],[-81.453,39.41],[-81.381,39.342],[-81.221,39.386],[-80.88,39.621],[-80.83,39.71],[-80.868,39.77],[-80.806,39.918],[-80.756,39.913],[-80.738,40.08],[-80.602,40.309],[-80.633,40.391],[-80.615,40.5],[-80.668,40.577],[-80.634,40.616],[-80.633,40.617],[-80.6325,40.617],[-80.632,40.617],[-80.631,40.618],[-80.63,40.618],[-80.63,40.619],[-80.6285,40.619],[-80.628,40.619],[-80.628,40.619333],[-80.628,40.62],[-80.627,40.62],[-80.576,40.614],[-80.519,40.639],[-80.519,39.721],[-79.477,39.721],[-79.474,39.202],[-79.102,39.477],[-78.957,39.44],[-78.799,39.621],[-78.8,39.624],[-78.768,39.647],[-78.768,39.648],[-78.766,39.648],[-78.774,39.622],[-78.774,39.621],[-78.773,39.621],[-78.69,39.546],[-78.688,39.545],[-78.687,39.545],[-78.667,39.539],[-78.666,39.538333],[-78.664,39.537],[-78.469,39.516],[-78.417,39.547],[-78.457,39.588],[-78.395,39.584],[-78.43,39.624],[-78.265,39.619],[-78.18,39.696],[-77.937,39.593],[-77.936,39.596],[-77.923,39.605],[-77.923,39.606],[-77.922,39.606],[-77.83,39.584],[-77.831,39.581],[-77.832,39.579],[-77.889,39.555],[-77.766,39.496],[-77.801,39.435],[-77.798333,39.433],[-77.798,39.43275],[-77.797,39.432],[-77.756,39.425],[-77.755,39.425],[-77.754,39.424],[-77.736,39.387],[-77.753,39.382],[-77.743,39.36],[-77.75,39.349],[-77.752,39.349],[-77.752,39.348],[-77.754,39.348],[-77.755,39.347],[-77.756,39.347],[-77.757,39.347],[-77.757,39.346],[-77.758,39.346],[-77.76,39.345],[-77.760667,39.343],[-77.761,39.342],[-77.759,39.337],[-77.759,39.336],[-77.758,39.336],[-77.758,39.335],[-77.756,39.334],[-77.72,39.321],[-77.722,39.318],[-77.726,39.318],[-77.728,39.316],[-77.731,39.316],[-77.731,39.315],[-77.732,39.314],[-77.733,39.314],[-77.738,39.308],[-77.739,39.308],[-77.739,39.307],[-77.83,39.133],[-78.347,39.466],[-78.339,39.349],[-78.438,39.199],[-78.404,39.167],[-78.602,38.965],[-78.717,38.904],[-78.718,38.934],[-78.869,38.763],[-78.998,38.848],[-79.283,38.418],[-79.477,38.457],[-79.538,38.552],[-79.649,38.591],[-79.789,38.268],[-79.921,38.182],[-79.999,37.995],[-80.296,37.693],[-80.221,37.627],[-80.328,37.564],[-80.3,37.508],[-80.475,37.423],[-80.552,37.474],[-80.77,37.372],[-80.861,37.429],[-80.849,37.347],[-80.899,37.316],[-81.225,37.235],[-81.309,37.291],[-81.362,37.338],[-81.366,37.337],[-81.366,37.336],[-81.367,37.336],[-81.369,37.331],[-81.369,37.33],[-81.36875,37.33],[-81.368,37.33],[-81.368,37.327],[-81.556,37.207],[-81.679,37.202],[-81.854,37.288]],[[-80.615,40.499],[-80.614,40.499],[-80.614,40.5],[-80.615,40.5],[-80.615,40.499]],[[-78.717,38.935],[-78.717,38.936],[-78.718,38.934],[-78.717,38.935]]]],"type":"MultiPolygon"},"properties":{"name":"West Virginia","source_feature_id":"fips:54"},"type":"Feature"}
