{"geometry":{"coordinates":[[[[-106.288178,40.998922],[-106.315128,40.998922],[-109.045994,40.998922],[-111.049227,40.998922],[-111.049227,42.005031],[-111.040244,42.651815],[-111.049227,43.307582],[-111.049227,44.475386],[-111.058211,45.00539],[-109.090909,45.00539],[-109.081926,44.996407],[-104.805965,44.996407],[-104.796982,44.996407],[-104.787999,44.996407],[-104.770032,44.996407],[-104.752066,44.996407],[-104.635286,44.996407],[-104.599353,44.996407],[-104.59037,44.996407],[-104.545455,44.996407],[-104.527488,44.996407],[-104.518505,44.996407],[-104.060367,44.996407],[-104.051383,44.753863],[-104.051383,43.002156],[-104.051383,40.998922],[-106.180381,40.998922],[-106.198347,40.998922],[-106.279195,40.998922],[-106.288178,40.998922]]]],"type":"MultiPolygon"},"properties":{"name":"Wyoming","source_feature_id":"fips:56"},"type":"Feature"}
