{"geometry":{"coordinates":[[[49.882222,40.800515],[49.934488,40.798552],[49.986241,40.792682],[50.036974,40.782963],[50.086191,40.76949],[50.133411,40.752395],[50.178173,40.731845],[50.220042,40.708041],[50.258613,40.681216],[50.293512,40.651631],[50.324405,40.619575],[50.350997,40.58536],[50.373036,40.549319],[50.390317,40.5118],[50.402679,40.473168],[50.410013,40.433795],[50.412255,40.394063],[50.409393,40.354354],[50.401463,40.31505],[50.388552,40.276529],[50.370789,40.23916],[50.348355,40.2033],[50.321469,40.169292],[50.290395,40.137462],[50.255435,40.108111],[50.216926,40.08152],[50.175238,40.057942],[50.130769,40.037599],[50.083944,40.020686],[50.035209,40.007362],[49.985025,39.997754],[49.933868,39.991953],[49.882222,39.990013],[49.830576,39.991953],[49.779419,39.997754],[49.729235,40.007362],[49.6805,40.020686],[49.633675,40.037599],[49.589206,40.057942],[49.547518,40.08152],[49.509009,40.108111],[49.474049,40.137462],[49.442975,40.169292],[49.416089,40.2033],[49.393655,40.23916],[49.375892,40.276529],[49.362981,40.31505],[49.355051,40.354354],[49.352189,40.394063],[49.354431,40.433795],[49.361765,40.473168],[49.374127,40.5118],[49.391408,40.549319],[49.413447,40.58536],[49.440039,40.619575],[49.470932,40.651631],[49.505831,40.681216],[49.544402,40.708041],[49.586271,40.731845],[49.631033,40.752395],[49.678253,40.76949],[49.72747,40.782963],[49.778203,40.792682],[49.829956,40.798552],[49.882222,40.800515]]],"type":"Polygon"},"properties":{"name":"Baku metropolitan area","placeholder":"geodesic disk, 45 km radius, centered 40.395278, 49.882222"},"type":"Feature"}
