{"geometry":{"coordinates":[[[-43.933333,-19.510166],[-43.891312,-19.512118],[-43.849693,-19.517957],[-43.808874,-19.527626],[-43.769244,-19.541034],[-43.731184,-19.558051],[-43.695058,-19.578516],[-43.661211,-19.602231],[-43.629971,-19.628971],[-43.601636,-19.658479],[-43.57648,-19.690472],[-43.554746,-19.724644],[-43.536646,-19.760666],[-43.522354,-19.798193],[-43.512011,-19.836865],[-43.505719,-19.87631],[-43.503543,-19.916148],[-43.505505,-19.955995],[-43.511591,-19.995469],[-43.521744,-20.034188],[-43.535869,-20.071779],[-43.553833,-20.107878],[-43.575465,-20.142138],[-43.600559,-20.174227],[-43.628873,-20.203834],[-43.660134,-20.230674],[-43.694043,-20.254485],[-43.730271,-20.275037],[-43.768468,-20.292132],[-43.808264,-20.305603],[-43.849273,-20.31532],[-43.891098,-20.321187],[-43.933333,-20.32315],[-43.975568,-20.321187],[-44.017393,-20.31532],[-44.058402,-20.305603],[-44.098198,-20.292132],[-44.136395,-20.275037],[-44.172623,-20.254485],[-44.206532,-20.230674],[-44.237793,-20.203834],[-44.266107,-20.174227],[-44.291201,-20.142138],[-44.312833,-20.107878],[-44.330797,-20.071779],[-44.344922,-20.034188],[-44.355075,-19.995469],[-44.361161,-19.955995],[-44.363123,-19.916148],[-44.360947,-19.87631],[-44.354655,-19.836865],[-44.344312,-19.798193],[-44.33002,-19.760666],[-44.31192,-19.724644],[-44.290186,-19.690472],[-44.26503,-19.658479],[-44.236695,-19.628971],[-44.205455,-19.602231],[-44.171608,-19.578516],[-44.135482,-19.558051],[-44.097422,-19.541034],[-44.057792,-19.527626],[-44.016973,-19.517957],[-43.975354,-19.512118],[-43.933333,-19.510166]]],"type":"Polygon"},"properties":{"name":"Belo Horizonte metropolitan area","placeholder":"geodesic disk, 45 km radius, centered -19.916667, -43.933333"},"type":"Feature"}
