{"geometry":{"coordinates":[[[116.383333,40.653792],[116.476042,40.650286],[116.567829,40.639804],[116.657784,40.622448],[116.745014,40.598393],[116.828658,40.567875],[116.907892,40.531198],[116.98194,40.488725],[117.050081,40.440875],[117.111657,40.388119],[117.166079,40.330976],[117.212832,40.270007],[117.251479,40.205808],[117.281666,40.139006],[117.303126,40.07025],[117.315677,40.000208],[117.319225,39.929556],[117.313763,39.858975],[117.299371,39.789145],[117.276215,39.720734],[117.24454,39.654396],[117.204673,39.590763],[117.157013,39.530439],[117.102033,39.473997],[117.040267,39.421969],[116.972314,39.374847],[116.898824,39.333073],[116.820497,39.297042],[116.738074,39.26709],[116.652331,39.243499],[116.564073,39.226488],[116.474127,39.216218],[116.383333,39.212784],[116.292539,39.216218],[116.202593,39.226488],[116.114335,39.243499],[116.028592,39.26709],[115.946169,39.297042],[115.867842,39.333073],[115.794352,39.374847],[115.726399,39.421969],[115.664633,39.473997],[115.609653,39.530439],[115.561993,39.590763],[115.522126,39.654396],[115.490451,39.720734],[115.467295,39.789145],[115.452903,39.858975],[115.447441,39.929556],[115.450989,40.000208],[115.46354,40.07025],[115.485,40.139006],[115.515187,40.205808],[115.553834,40.270007],[115.600587,40.330976],[115.655009,40.388119],[115.716585,40.440875],[115.784726,40.488725],[115.858774,40.531198],[115.938008,40.567875],[116.021652,40.598393],[116.108882,40.622448],[116.198837,40.639804],[116.290624,40.650286],[116.383333,40.653792]]],"type":"Polygon"},"properties":{"name":"Beijing metropolitan area","placeholder":"geodesic disk, 80 km radius, centered 39.933333, 116.383333"},"type":"Feature"}
