{"geometry":{"coordinates":[[[-58.38,-34.05911],[-58.316297,-34.061698],[-58.253196,-34.069438],[-58.191293,-34.082256],[-58.131174,-34.100031],[-58.07341,-34.122595],[-58.018548,-34.149734],[-57.967112,-34.181191],[-57.919594,-34.216668],[-57.876449,-34.255828],[-57.838094,-34.298299],[-57.804902,-34.343676],[-57.777197,-34.391526],[-57.755255,-34.441393],[-57.739294,-34.492799],[-57.72948,-34.545251],[-57.725917,-34.598247],[-57.728652,-34.651276],[-57.737672,-34.703827],[-57.752899,-34.755393],[-57.774199,-34.805474],[-57.801377,-34.853586],[-57.834177,-34.899262],[-57.87229,-34.942057],[-57.915353,-34.981554],[-57.962953,-35.017369],[-58.014631,-35.049151],[-58.069884,-35.076589],[-58.128176,-35.099415],[-58.188937,-35.117405],[-58.251573,-35.130383],[-58.31547,-35.13822],[-58.38,-35.140842],[-58.44453,-35.13822],[-58.508427,-35.130383],[-58.571063,-35.117405],[-58.631824,-35.099415],[-58.690116,-35.076589],[-58.745369,-35.049151],[-58.797047,-35.017369],[-58.844647,-34.981554],[-58.88771,-34.942057],[-58.925823,-34.899262],[-58.958623,-34.853586],[-58.985801,-34.805474],[-59.007101,-34.755393],[-59.022328,-34.703827],[-59.031348,-34.651276],[-59.034083,-34.598247],[-59.03052,-34.545251],[-59.020706,-34.492799],[-59.004745,-34.441393],[-58.982803,-34.391526],[-58.955098,-34.343676],[-58.921906,-34.298299],[-58.883551,-34.255828],[-58.840406,-34.216668],[-58.792888,-34.181191],[-58.741452,-34.149734],[-58.68659,-34.122595],[-58.628826,-34.100031],[-58.568707,-34.082256],[-58.506804,-34.069438],[-58.443703,-34.061698],[-58.38,-34.05911]]],"type":"Polygon"},"properties":{"name":"Buenos Aires metropolitan area","placeholder":"geodesic disk, 60 km radius, centered -34.6, -58.38"},"type":"Feature"}
