{"geometry":{"coordinates":[[[26.103889,44.747464],[26.147207,44.745939],[26.190102,44.74138],[26.232153,44.73383],[26.27295,44.723365],[26.312093,44.710085],[26.349204,44.694122],[26.38392,44.67563],[26.415905,44.65479],[26.444851,44.631805],[26.47048,44.6069],[26.492547,44.580315],[26.510843,44.55231],[26.525195,44.523155],[26.535472,44.493133],[26.54158,44.462534],[26.543466,44.431654],[26.541119,44.40079],[26.534569,44.370239],[26.523884,44.340295],[26.509173,44.311244],[26.490584,44.283365],[26.468299,44.256925],[26.442535,44.232177],[26.413544,44.209355],[26.381604,44.188679],[26.347022,44.170344],[26.31013,44.154525],[26.27128,44.141373],[26.230841,44.131011],[26.189198,44.123539],[26.146747,44.119027],[26.103889,44.117518],[26.061031,44.119027],[26.01858,44.123539],[25.976937,44.131011],[25.936498,44.141373],[25.897648,44.154525],[25.860756,44.170344],[25.826174,44.188679],[25.794234,44.209355],[25.765243,44.232177],[25.739479,44.256925],[25.717194,44.283365],[25.698605,44.311244],[25.683894,44.340295],[25.673209,44.370239],[25.666659,44.40079],[25.664312,44.431654],[25.666198,44.462534],[25.672306,44.493133],[25.682583,44.523155],[25.696935,44.55231],[25.715231,44.580315],[25.737298,44.6069],[25.762927,44.631805],[25.791873,44.65479],[25.823858,44.67563],[25.858574,44.694122],[25.895685,44.710085],[25.934828,44.723365],[25.975625,44.73383],[26.017676,44.74138],[26.060571,44.745939],[26.103889,44.747464]]],"type":"Polygon"},"properties":{"name":"Bucharest metropolitan area","placeholder":"geodesic disk, 35 km radius, centered 44.4325, 26.103889"},"type":"Feature"}
