{"geometry":{"coordinates":[[[-87.6298,42.508293],[-87.546324,42.505229],[-87.463676,42.496065],[-87.382675,42.480894],[-87.304123,42.459866],[-87.228794,42.433188],[-87.157429,42.401125],[-87.090726,42.363993],[-87.029333,42.322158],[-86.973845,42.276032],[-86.924793,42.226068],[-86.882641,42.172756],[-86.847783,42.116616],[-86.82054,42.058196],[-86.801155,41.998064],[-86.789793,41.936802],[-86.786542,41.875004],[-86.791409,41.813265],[-86.804325,41.752177],[-86.825142,41.692328],[-86.853641,41.634288],[-86.889529,41.578612],[-86.932447,41.525829],[-86.981971,41.47644],[-87.037619,41.430911],[-87.098852,41.389674],[-87.165084,41.353116],[-87.235684,41.321582],[-87.309982,41.295368],[-87.387279,41.27472],[-87.466847,41.259832],[-87.547941,41.250843],[-87.6298,41.247837],[-87.711659,41.250843],[-87.792753,41.259832],[-87.872321,41.27472],[-87.949618,41.295368],[-88.023916,41.321582],[-88.094516,41.353116],[-88.160748,41.389674],[-88.221981,41.430911],[-88.277629,41.47644],[-88.327153,41.525829],[-88.370071,41.578612],[-88.405959,41.634288],[-88.434458,41.692328],[-88.455275,41.752177],[-88.468191,41.813265],[-88.473058,41.875004],[-88.469807,41.936802],[-88.458445,41.998064],[-88.43906,42.058196],[-88.411817,42.116616],[-88.376959,42.172756],[-88.334807,42.226068],[-88.285755,42.276032],[-88.230267,42.322158],[-88.168874,42.363993],[-88.102171,42.401125],[-88.030806,42.433188],[-87.955477,42.459866],[-87.876925,42.480894],[-87.795924,42.496065],[-87.713276,42.505229],[-87.6298,42.508293]]],"type":"Polygon"},"properties":{"name":"Chicago metropolitan area","placeholder":"geodesic disk, 70 km radius, centered 41.8781, -87.6298"},"type":"Feature"}
