{"geometry":{"coordinates":[[[-83.05,42.828118],[-82.984074,42.825715],[-82.918797,42.81853],[-82.854814,42.806634],[-82.792753,42.790144],[-82.733225,42.769222],[-82.676811,42.744074],[-82.624062,42.714947],[-82.57549,42.682127],[-82.531565,42.645936],[-82.492707,42.606728],[-82.459285,42.564884],[-82.431615,42.520814],[-82.409954,42.474946],[-82.394497,42.427724],[-82.385381,42.379607],[-82.382679,42.331058],[-82.386402,42.282547],[-82.3965,42.234538],[-82.412862,42.187494],[-82.435317,42.141865],[-82.463637,42.098085],[-82.497542,42.056574],[-82.536698,42.017726],[-82.580725,41.981909],[-82.629196,41.949464],[-82.681647,41.920698],[-82.737577,41.895882],[-82.796455,41.875251],[-82.857722,41.858999],[-82.9208,41.84728],[-82.985095,41.840205],[-83.05,41.837839],[-83.114905,41.840205],[-83.1792,41.84728],[-83.242278,41.858999],[-83.303545,41.875251],[-83.362423,41.895882],[-83.418353,41.920698],[-83.470804,41.949464],[-83.519275,41.981909],[-83.563302,42.017726],[-83.602458,42.056574],[-83.636363,42.098085],[-83.664683,42.141865],[-83.687138,42.187494],[-83.7035,42.234538],[-83.713598,42.282547],[-83.717321,42.331058],[-83.714619,42.379607],[-83.705503,42.427724],[-83.690046,42.474946],[-83.668385,42.520814],[-83.640715,42.564884],[-83.607293,42.606728],[-83.568435,42.645936],[-83.52451,42.682127],[-83.475938,42.714947],[-83.423189,42.744074],[-83.366775,42.769222],[-83.307247,42.790144],[-83.245186,42.806634],[-83.181203,42.81853],[-83.115926,42.825715],[-83.05,42.828118]]],"type":"Polygon"},"properties":{"name":"Detroit metropolitan area","placeholder":"geodesic disk, 55 km radius, centered 42.333, -83.05"},"type":"Feature"}
