{"geometry":{"coordinates":[[[27.14,38.825375],[27.190791,38.823412],[27.241084,38.817543],[27.290388,38.807824],[27.33822,38.794352],[27.384113,38.777257],[27.42762,38.756707],[27.468318,38.732903],[27.505813,38.706077],[27.539743,38.67649],[27.569783,38.644431],[27.595645,38.610211],[27.617085,38.574164],[27.633901,38.536637],[27.645937,38.497995],[27.653086,38.458612],[27.655286,38.418867],[27.652525,38.379144],[27.644835,38.339824],[27.632301,38.301286],[27.615048,38.263898],[27.593251,38.22802],[27.567122,38.193994],[27.536919,38.162145],[27.502933,38.132777],[27.465493,38.106169],[27.424959,38.082574],[27.381718,38.062218],[27.336183,38.045293],[27.288788,38.031959],[27.239982,38.022344],[27.190229,38.016538],[27.14,38.014597],[27.089771,38.016538],[27.040018,38.022344],[26.991212,38.031959],[26.943817,38.045293],[26.898282,38.062218],[26.855041,38.082574],[26.814507,38.106169],[26.777067,38.132777],[26.743081,38.162145],[26.712878,38.193994],[26.686749,38.22802],[26.664952,38.263898],[26.647699,38.301286],[26.635165,38.339824],[26.627475,38.379144],[26.624714,38.418867],[26.626914,38.458612],[26.634063,38.497995],[26.646099,38.536637],[26.662915,38.574164],[26.684355,38.610211],[26.710217,38.644431],[26.740257,38.67649],[26.774187,38.706077],[26.811682,38.732903],[26.85238,38.756707],[26.895887,38.777257],[26.94178,38.794352],[26.989612,38.807824],[27.038916,38.817543],[27.089209,38.823412],[27.14,38.825375]]],"type":"Polygon"},"properties":{"name":"Izmir metropolitan area","placeholder":"geodesic disk, 45 km radius, centered 38.42, 27.14"},"type":"Feature"}
