{"geometry":{"coordinates":[[[106.816667,-5.657436],[106.869753,-5.660047],[106.92233,-5.667852],[106.973892,-5.680777],[107.023944,-5.698698],[107.072005,-5.721442],[107.117614,-5.748792],[107.160331,-5.780485],[107.199746,-5.816215],[107.23548,-5.85564],[107.267187,-5.898381],[107.294564,-5.944026],[107.317344,-5.992137],[107.335309,-6.042252],[107.348284,-6.093887],[107.356142,-6.146546],[107.358806,-6.199723],[107.35625,-6.252905],[107.348496,-6.305579],[107.335617,-6.35724],[107.317736,-6.407388],[107.295024,-6.45554],[107.267699,-6.501233],[107.236023,-6.544024],[107.2003,-6.583502],[107.160874,-6.619286],[107.118126,-6.651029],[107.072466,-6.678426],[107.024336,-6.701212],[106.9742,-6.719167],[106.922542,-6.732117],[106.869862,-6.739937],[106.816667,-6.742552],[106.763472,-6.739937],[106.710792,-6.732117],[106.659134,-6.719167],[106.608998,-6.701212],[106.560868,-6.678426],[106.515208,-6.651029],[106.47246,-6.619286],[106.433034,-6.583502],[106.397311,-6.544024],[106.365635,-6.501233],[106.33831,-6.45554],[106.315598,-6.407388],[106.297717,-6.35724],[106.284838,-6.305579],[106.277084,-6.252905],[106.274528,-6.199723],[106.277192,-6.146546],[106.28505,-6.093887],[106.298025,-6.042252],[106.31599,-5.992137],[106.33877,-5.944026],[106.366147,-5.898381],[106.397854,-5.85564],[106.433588,-5.816215],[106.473003,-5.780485],[106.51572,-5.748792],[106.561329,-5.721442],[106.60939,-5.698698],[106.659442,-5.680777],[106.711004,-5.667852],[106.763581,-5.660047],[106.816667,-5.657436]]],"type":"Polygon"},"properties":{"name":"Jakarta metropolitan area","placeholder":"geodesic disk, 60 km radius, centered -6.2, 106.816667"},"type":"Feature"}
