{"geometry":{"coordinates":[[[-0.11832,52.048652],[-0.032601,52.046025],[0.052262,52.038168],[0.135424,52.025161],[0.216058,52.007133],[0.293365,51.984263],[0.366581,51.956779],[0.434988,51.924954],[0.497919,51.889103],[0.554766,51.849581],[0.604985,51.806776],[0.648102,51.76111],[0.683716,51.713031],[0.711504,51.663008],[0.73122,51.611528],[0.742702,51.559092],[0.745866,51.506207],[0.740712,51.453382],[0.727316,51.401126],[0.705836,51.349938],[0.676502,51.300308],[0.639619,51.252707],[0.595559,51.207587],[0.54476,51.165375],[0.487716,51.126468],[0.424981,51.091233],[0.357154,51.060001],[0.284881,51.033063],[0.208843,51.010672],[0.129755,50.993037],[0.048357,50.980322],[-0.034592,50.972645],[-0.11832,50.970078],[-0.202048,50.972645],[-0.284997,50.980322],[-0.366395,50.993037],[-0.445483,51.010672],[-0.521521,51.033063],[-0.593794,51.060001],[-0.661621,51.091233],[-0.724356,51.126468],[-0.7814,51.165375],[-0.832199,51.207587],[-0.876259,51.252707],[-0.913142,51.300308],[-0.942476,51.349938],[-0.963956,51.401126],[-0.977352,51.453382],[-0.982506,51.506207],[-0.979342,51.559092],[-0.96786,51.611528],[-0.948144,51.663008],[-0.920356,51.713031],[-0.884742,51.76111],[-0.841625,51.806776],[-0.791406,51.849581],[-0.734559,51.889103],[-0.671628,51.924954],[-0.603221,51.956779],[-0.530005,51.984263],[-0.452698,52.007133],[-0.372064,52.025161],[-0.288902,52.038168],[-0.204039,52.046025],[-0.11832,52.048652]]],"type":"Polygon"},"properties":{"name":"London metropolitan area","placeholder":"geodesic disk, 60 km radius, centered 51.50939, -0.11832"},"type":"Feature"}
