{"geometry":{"coordinates":[[[9.186389,45.912362],[9.249553,45.910178],[9.312094,45.90365],[9.373396,45.892839],[9.432855,45.877855],[9.489887,45.858843],[9.543935,45.835992],[9.59447,45.809525],[9.641002,45.779703],[9.683082,45.746817],[9.720306,45.71119],[9.752321,45.67317],[9.778824,45.633126],[9.799571,45.591448],[9.814372,45.548542],[9.823099,45.504822],[9.825681,45.460711],[9.822107,45.416634],[9.812426,45.373015],[9.796746,45.330272],[9.775229,45.288815],[9.748093,45.24904],[9.715609,45.211325],[9.678095,45.17603],[9.635918,45.14349],[9.589483,45.114013],[9.539237,45.087879],[9.48566,45.065334],[9.429259,45.046591],[9.370571,45.031826],[9.310148,45.02118],[9.248561,45.014752],[9.186389,45.012602],[9.124217,45.014752],[9.06263,45.02118],[9.002207,45.031826],[8.943519,45.046591],[8.887118,45.065334],[8.833541,45.087879],[8.783295,45.114013],[8.73686,45.14349],[8.694683,45.17603],[8.657169,45.211325],[8.624685,45.24904],[8.597549,45.288815],[8.576032,45.330272],[8.560352,45.373015],[8.550671,45.416634],[8.547097,45.460711],[8.549679,45.504822],[8.558406,45.548542],[8.573207,45.591448],[8.593954,45.633126],[8.620457,45.67317],[8.652472,45.71119],[8.689696,45.746817],[8.731776,45.779703],[8.778308,45.809525],[8.828843,45.835992],[8.882891,45.858843],[8.939923,45.877855],[8.999382,45.892839],[9.060684,45.90365],[9.123225,45.910178],[9.186389,45.912362]]],"type":"Polygon"},"properties":{"name":"Milan metropolitan area","placeholder":"geodesic disk, 50 km radius, centered 45.4625, 9.186389"},"type":"Feature"}
