{"geometry":{"coordinates":[[[37.618423,56.379932],[37.729472,56.376855],[37.839398,56.367656],[37.947093,56.352428],[38.051473,56.331325],[38.151491,56.304558],[38.246153,56.272399],[38.334523,56.235168],[38.415736,56.193239],[38.489007,56.14703],[38.553636,56.097001],[38.609019,56.043647],[38.654648,55.987494],[38.690118,55.929095],[38.715129,55.869019],[38.729487,55.807853],[38.733102,55.746189],[38.72599,55.684621],[38.70827,55.62374],[38.68016,55.564129],[38.641973,55.506354],[38.594114,55.450962],[38.537074,55.398476],[38.471423,55.349389],[38.397807,55.30416],[38.316938,55.263211],[38.229587,55.226923],[38.136581,55.195632],[38.038792,55.169627],[37.93713,55.149148],[37.832535,55.134384],[37.725973,55.125471],[37.618423,55.122491],[37.510873,55.125471],[37.404311,55.134384],[37.299716,55.149148],[37.198054,55.169627],[37.100265,55.195632],[37.007259,55.226923],[36.919908,55.263211],[36.839039,55.30416],[36.765423,55.349389],[36.699772,55.398476],[36.642732,55.450962],[36.594873,55.506354],[36.556686,55.564129],[36.528576,55.62374],[36.510856,55.684621],[36.503744,55.746189],[36.507359,55.807853],[36.521717,55.869019],[36.546728,55.929095],[36.582198,55.987494],[36.627827,56.043647],[36.68321,56.097001],[36.747839,56.14703],[36.82111,56.193239],[36.902323,56.235168],[36.990693,56.272399],[37.085355,56.304558],[37.185373,56.331325],[37.289753,56.352428],[37.397448,56.367656],[37.507374,56.376855],[37.618423,56.379932]]],"type":"Polygon"},"properties":{"name":"Moscow metropolitan area","placeholder":"geodesic disk, 70 km radius, centered 55.751244, 37.618423"},"type":"Feature"}
