{"geometry":{"coordinates":[[[121.0,19.162387],[121.325942,19.146903],[121.648575,19.100609],[121.964629,19.023977],[122.270914,18.917783],[122.564354,18.783104],[122.842026,18.621302],[123.101189,18.434007],[123.339314,18.2231],[123.55411,17.990688],[123.743544,17.739085],[123.905858,17.470784],[124.039581,17.188429],[124.143544,16.89479],[124.216876,16.592732],[124.259017,16.285188],[124.269708,15.97513],[124.248993,15.66554],[124.197213,15.359381],[124.114992,15.059573],[124.003235,14.768963],[123.863107,14.490301],[123.696028,14.226214],[123.50365,13.979186],[123.287848,13.751534],[123.050694,13.545389],[122.794445,13.362676],[122.52152,13.205099],[122.234476,13.074125],[121.935994,12.970972],[121.628848,12.896599],[121.315884,12.851698],[121.0,12.836684],[120.684116,12.851698],[120.371152,12.896599],[120.064006,12.970972],[119.765524,13.074125],[119.47848,13.205099],[119.205555,13.362676],[118.949306,13.545389],[118.712152,13.751534],[118.49635,13.979186],[118.303972,14.226214],[118.136893,14.490301],[117.996765,14.768963],[117.885008,15.059573],[117.802787,15.359381],[117.751007,15.66554],[117.730292,15.97513],[117.740983,16.285188],[117.783124,16.592732],[117.856456,16.89479],[117.960419,17.188429],[118.094142,17.470784],[118.256456,17.739085],[118.44589,17.990688],[118.660686,18.2231],[118.898811,18.434007],[119.157974,18.621302],[119.435646,18.783104],[119.729086,18.917783],[120.035371,19.023977],[120.351425,19.100609],[120.674058,19.146903],[121.0,19.162387]]],"type":"Polygon"},"properties":{"name":"Luzon","placeholder":"geodesic disk, 350 km radius, centered 16.0, 121.0"},"type":"Feature"}
