{"geometry":{"coordinates":[[[-74.005833,41.343099],[-73.923862,41.340035],[-73.842703,41.330874],[-73.76316,41.315706],[-73.686019,41.294681],[-73.612039,41.268007],[-73.541948,41.235948],[-73.47643,41.19882],[-73.416124,41.156989],[-73.361611,41.110866],[-73.313414,41.060904],[-73.27199,41.007591],[-73.237726,40.951449],[-73.210938,40.893025],[-73.191866,40.832886],[-73.180675,40.771616],[-73.177449,40.709806],[-73.182198,40.648052],[-73.194856,40.586949],[-73.215278,40.527081],[-73.24325,40.469022],[-73.278485,40.413325],[-73.320632,40.360521],[-73.369274,40.31111],[-73.423937,40.26556],[-73.484093,40.224302],[-73.549166,40.187725],[-73.618535,40.156174],[-73.691544,40.129946],[-73.767501,40.109286],[-73.845694,40.094389],[-73.925387,40.085395],[-74.005833,40.082388],[-74.086279,40.085395],[-74.165972,40.094389],[-74.244165,40.109286],[-74.320122,40.129946],[-74.393131,40.156174],[-74.4625,40.187725],[-74.527573,40.224302],[-74.587729,40.26556],[-74.642392,40.31111],[-74.691034,40.360521],[-74.733181,40.413325],[-74.768416,40.469022],[-74.796388,40.527081],[-74.81681,40.586949],[-74.829468,40.648052],[-74.834217,40.709806],[-74.830991,40.771616],[-74.8198,40.832886],[-74.800728,40.893025],[-74.77394,40.951449],[-74.739676,41.007591],[-74.698252,41.060904],[-74.650055,41.110866],[-74.595542,41.156989],[-74.535236,41.19882],[-74.469718,41.235948],[-74.399627,41.268007],[-74.325647,41.294681],[-74.248506,41.315706],[-74.168963,41.330874],[-74.087804,41.340035],[-74.005833,41.343099]]],"type":"Polygon"},"properties":{"name":"New York metropolitan area","placeholder":"geodesic disk, 70 km radius, centered 40.712778, -74.005833"},"type":"Feature"}
