{"geometry":{"coordinates":[[[135.502222,35.234722],[135.566827,35.232101],[135.630797,35.224263],[135.693505,35.211285],[135.754336,35.193295],[135.812694,35.170469],[135.86801,35.143031],[135.919746,35.111249],[135.9674,35.075434],[136.010512,35.035937],[136.048668,34.993142],[136.081504,34.947467],[136.108711,34.899355],[136.130034,34.849273],[136.145278,34.797708],[136.154306,34.745158],[136.157043,34.69213],[136.153475,34.639135],[136.143648,34.586683],[136.127668,34.535279],[136.105699,34.485413],[136.077963,34.437564],[136.044732,34.392189],[136.006334,34.349719],[135.96314,34.31056],[135.915568,34.275084],[135.864075,34.243628],[135.809152,34.21649],[135.751323,34.193926],[135.691138,34.176152],[135.629167,34.163335],[135.565996,34.155596],[135.502222,34.153008],[135.438448,34.155596],[135.375277,34.163335],[135.313306,34.176152],[135.253121,34.193926],[135.195292,34.21649],[135.140369,34.243628],[135.088876,34.275084],[135.041304,34.31056],[134.99811,34.349719],[134.959712,34.392189],[134.926481,34.437564],[134.898745,34.485413],[134.876776,34.535279],[134.860796,34.586683],[134.850969,34.639135],[134.847401,34.69213],[134.850138,34.745158],[134.859166,34.797708],[134.87441,34.849273],[134.895733,34.899355],[134.92294,34.947467],[134.955776,34.993142],[134.993932,35.035937],[135.037044,35.075434],[135.084698,35.111249],[135.136434,35.143031],[135.19175,35.170469],[135.250108,35.193295],[135.310939,35.211285],[135.373647,35.224263],[135.437617,35.232101],[135.502222,35.234722]]],"type":"Polygon"},"properties":{"name":"Osaka metropolitan area","placeholder":"geodesic disk, 60 km radius, centered 34.693889, 135.502222"},"type":"Feature"}
