{"geometry":{"coordinates":[[[2.351667,49.396176],[2.432679,49.39355],[2.512885,49.385698],[2.591489,49.372699],[2.66771,49.35468],[2.740796,49.331822],[2.810025,49.304351],[2.874721,49.272539],[2.934253,49.236699],[2.988046,49.197187],[3.035585,49.154389],[3.076419,49.108727],[3.11017,49.060647],[3.136527,49.010618],[3.155256,48.959128],[3.166201,48.906675],[3.16928,48.853768],[3.164487,48.800916],[3.151894,48.748627],[3.131645,48.697402],[3.103957,48.64773],[3.069114,48.600086],[3.027467,48.55492],[2.979428,48.512662],[2.925466,48.47371],[2.866103,48.438431],[2.801907,48.407158],[2.733489,48.380184],[2.661496,48.357761],[2.586606,48.3401],[2.509522,48.327366],[2.430964,48.319678],[2.351667,48.317107],[2.27237,48.319678],[2.193812,48.327366],[2.116728,48.3401],[2.041838,48.357761],[1.969845,48.380184],[1.901427,48.407158],[1.837231,48.438431],[1.777868,48.47371],[1.723906,48.512662],[1.675867,48.55492],[1.63422,48.600086],[1.599377,48.64773],[1.571689,48.697402],[1.55144,48.748627],[1.538847,48.800916],[1.534054,48.853768],[1.537133,48.906675],[1.548078,48.959128],[1.566807,49.010618],[1.593164,49.060647],[1.626915,49.108727],[1.667749,49.154389],[1.715288,49.197187],[1.769081,49.236699],[1.828613,49.272539],[1.893309,49.304351],[1.962538,49.331822],[2.035624,49.35468],[2.111845,49.372699],[2.190449,49.385698],[2.270655,49.39355],[2.351667,49.396176]]],"type":"Polygon"},"properties":{"name":"Paris metropolitan area","placeholder":"geodesic disk, 60 km radius, centered 48.856667, 2.351667"},"type":"Feature"}
