{"geometry":{"coordinates":[[[-21.933333,64.492135],[-21.851776,64.490385],[-21.771034,64.485151],[-21.691917,64.476488],[-21.615212,64.46448],[-21.541682,64.449248],[-21.472054,64.430944],[-21.407014,64.409751],[-21.347195,64.385877],[-21.293176,64.359561],[-21.245473,64.331062],[-21.204537,64.300661],[-21.170746,64.268657],[-21.144405,64.235362],[-21.125745,64.201101],[-21.114917,64.166207],[-21.111997,64.131019],[-21.116984,64.095875],[-21.129799,64.061112],[-21.150291,64.027064],[-21.178237,63.994056],[-21.213346,63.962401],[-21.255262,63.932398],[-21.303567,63.904332],[-21.35779,63.878465],[-21.417406,63.855042],[-21.481844,63.83428],[-21.550493,63.816375],[-21.622705,63.801493],[-21.697804,63.789772],[-21.77509,63.781321],[-21.853843,63.776219],[-21.933333,63.774513],[-22.012823,63.776219],[-22.091576,63.781321],[-22.168862,63.789772],[-22.243961,63.801493],[-22.316173,63.816375],[-22.384822,63.83428],[-22.44926,63.855042],[-22.508876,63.878465],[-22.563099,63.904332],[-22.611404,63.932398],[-22.65332,63.962401],[-22.688429,63.994056],[-22.716375,64.027064],[-22.736867,64.061112],[-22.749682,64.095875],[-22.754669,64.131019],[-22.751749,64.166207],[-22.740921,64.201101],[-22.722261,64.235362],[-22.69592,64.268657],[-22.662129,64.300661],[-22.621193,64.331062],[-22.57349,64.359561],[-22.519471,64.385877],[-22.459652,64.409751],[-22.394612,64.430944],[-22.324984,64.449248],[-22.251454,64.46448],[-22.174749,64.476488],[-22.095632,64.485151],[-22.01489,64.490385],[-21.933333,64.492135]]],"type":"Polygon"},"properties":{"name":"Reykjavik metropolitan area","placeholder":"geodesic disk, 40 km radius, centered 64.133333, -21.933333"},"type":"Feature"}
