{"geometry":{"coordinates":[[[-43.196389,-22.411671],[-43.14403,-22.414054],[-43.09217,-22.42118],[-43.041303,-22.432982],[-42.991914,-22.449347],[-42.944475,-22.470119],[-42.899439,-22.495099],[-42.857237,-22.52405],[-42.818275,-22.556694],[-42.782926,-22.592721],[-42.751531,-22.631784],[-42.724395,-22.673512],[-42.701781,-22.717503],[-42.68391,-22.763337],[-42.670959,-22.810573],[-42.663057,-22.858758],[-42.660285,-22.907429],[-42.662676,-22.956116],[-42.670212,-23.004352],[-42.682825,-23.05167],[-42.7004,-23.097614],[-42.722771,-23.14174],[-42.749727,-23.183621],[-42.781011,-23.222852],[-42.816322,-23.259052],[-42.855322,-23.29187],[-42.897635,-23.320987],[-42.942851,-23.346121],[-42.990533,-23.367028],[-43.040218,-23.383503],[-43.091422,-23.395387],[-43.143649,-23.402564],[-43.196389,-23.404964],[-43.249129,-23.402564],[-43.301356,-23.395387],[-43.35256,-23.383503],[-43.402245,-23.367028],[-43.449927,-23.346121],[-43.495143,-23.320987],[-43.537456,-23.29187],[-43.576456,-23.259052],[-43.611767,-23.222852],[-43.643051,-23.183621],[-43.670007,-23.14174],[-43.692378,-23.097614],[-43.709953,-23.05167],[-43.722566,-23.004352],[-43.730102,-22.956116],[-43.732493,-22.907429],[-43.729721,-22.858758],[-43.721819,-22.810573],[-43.708868,-22.763337],[-43.690997,-22.717503],[-43.668383,-22.673512],[-43.641247,-22.631784],[-43.609852,-22.592721],[-43.574503,-22.556694],[-43.535541,-22.52405],[-43.493339,-22.495099],[-43.448303,-22.470119],[-43.400864,-22.449347],[-43.351475,-22.432982],[-43.300608,-22.42118],[-43.248748,-22.414054],[-43.196389,-22.411671]]],"type":"Polygon"},"properties":{"name":"Rio de Janeiro metropolitan area","placeholder":"geodesic disk, 55 km radius, centered -22.908333, -43.196389"},"type":"Feature"}
