{"geometry":{"coordinates":[[[12.483333,42.288465],[12.536811,42.286502],[12.589763,42.280631],[12.641672,42.270912],[12.692028,42.257438],[12.740338,42.240342],[12.786131,42.219792],[12.828963,42.195988],[12.868416,42.169164],[12.904111,42.13958],[12.935705,42.107527],[12.962897,42.073315],[12.985429,42.037278],[13.003092,41.999765],[13.015721,41.961139],[13.023206,41.921776],[13.025482,41.882053],[13.022538,41.842355],[13.014411,41.803063],[13.001189,41.764555],[12.983008,41.7272],[12.960049,41.691354],[12.932541,41.657361],[12.900752,41.625545],[12.864991,41.596208],[12.825603,41.569631],[12.782967,41.546064],[12.73749,41.525733],[12.689606,41.508829],[12.639769,41.495512],[12.588453,41.48591],[12.536142,41.480111],[12.483333,41.478172],[12.430524,41.480111],[12.378213,41.48591],[12.326897,41.495512],[12.27706,41.508829],[12.229176,41.525733],[12.183699,41.546064],[12.141063,41.569631],[12.101675,41.596208],[12.065914,41.625545],[12.034125,41.657361],[12.006617,41.691354],[11.983658,41.7272],[11.965477,41.764555],[11.952255,41.803063],[11.944128,41.842355],[11.941184,41.882053],[11.94346,41.921776],[11.950945,41.961139],[11.963574,41.999765],[11.981237,42.037278],[12.003769,42.073315],[12.030961,42.107527],[12.062555,42.13958],[12.09825,42.169164],[12.137703,42.195988],[12.180535,42.219792],[12.226328,42.240342],[12.274638,42.257438],[12.324994,42.270912],[12.376903,42.280631],[12.429855,42.286502],[12.483333,42.288465]]],"type":"Polygon"},"properties":{"name":"Rome metropolitan area","placeholder":"geodesic disk, 45 km radius, centered 41.883333, 12.483333"},"type":"Feature"}
