{"geometry":{"coordinates":[[[-46.633333,-22.96308],[-46.571206,-22.965894],[-46.50967,-22.974309],[-46.449309,-22.988245],[-46.390699,-23.007569],[-46.334397,-23.032099],[-46.280941,-23.061599],[-46.230842,-23.095789],[-46.18458,-23.134344],[-46.1426,-23.176894],[-46.105306,-23.223036],[-46.073059,-23.272326],[-46.046175,-23.324294],[-46.024916,-23.378442],[-46.009493,-23.434251],[-46.000063,-23.491185],[-45.996722,-23.548697],[-45.999511,-23.606234],[-46.008412,-23.663241],[-46.023346,-23.719168],[-46.044176,-23.773476],[-46.070709,-23.825638],[-46.102695,-23.875149],[-46.139828,-23.921531],[-46.181754,-23.964331],[-46.22807,-24.003136],[-46.27833,-24.037566],[-46.332047,-24.067288],[-46.3887,-24.092011],[-46.447739,-24.111495],[-46.508588,-24.125549],[-46.570655,-24.134037],[-46.633333,-24.136876],[-46.696011,-24.134037],[-46.758078,-24.125549],[-46.818927,-24.111495],[-46.877966,-24.092011],[-46.934619,-24.067288],[-46.988336,-24.037566],[-47.038596,-24.003136],[-47.084912,-23.964331],[-47.126838,-23.921531],[-47.163971,-23.875149],[-47.195957,-23.825638],[-47.22249,-23.773476],[-47.24332,-23.719168],[-47.258254,-23.663241],[-47.267155,-23.606234],[-47.269944,-23.548697],[-47.266603,-23.491185],[-47.257173,-23.434251],[-47.24175,-23.378442],[-47.220491,-23.324294],[-47.193607,-23.272326],[-47.16136,-23.223036],[-47.124066,-23.176894],[-47.082086,-23.134344],[-47.035824,-23.095789],[-46.985725,-23.061599],[-46.932269,-23.032099],[-46.875967,-23.007569],[-46.817357,-22.988245],[-46.756996,-22.974309],[-46.69546,-22.965894],[-46.633333,-22.96308]]],"type":"Polygon"},"properties":{"name":"Sao Paulo metropolitan area","placeholder":"geodesic disk, 65 km radius, centered -23.55, -46.633333"},"type":"Feature"}
