{"geometry":{"coordinates":[[[-1.261694,61.124965],[-1.098039,61.120978],[-0.936081,61.109056],[-0.777497,61.089324],[-0.62392,61.061986],[-0.476921,61.027325],[-0.337989,60.985697],[-0.208515,60.937529],[-0.089777,60.883315],[0.017077,60.823604],[0.111035,60.759001],[0.191233,60.690156],[0.256961,60.617755],[0.307666,60.542518],[0.342953,60.465186],[0.362589,60.386516],[0.366495,60.307271],[0.354749,60.228218],[0.327574,60.150111],[0.285337,60.073695],[0.228539,59.999691],[0.157809,59.928793],[0.073891,59.861663],[-0.02236,59.798921],[-0.129992,59.741146],[-0.247963,59.688867],[-0.375153,59.642561],[-0.510371,59.602649],[-0.65237,59.569492],[-0.799853,59.543389],[-0.951481,59.524575],[-1.10589,59.513219],[-1.261694,59.509422],[-1.417498,59.513219],[-1.571907,59.524575],[-1.723535,59.543389],[-1.871018,59.569492],[-2.013017,59.602649],[-2.148235,59.642561],[-2.275425,59.688867],[-2.393396,59.741146],[-2.501028,59.798921],[-2.597279,59.861663],[-2.681197,59.928793],[-2.751927,59.999691],[-2.808725,60.073695],[-2.850962,60.150111],[-2.878137,60.228218],[-2.889883,60.307271],[-2.885977,60.386516],[-2.866341,60.465186],[-2.831054,60.542518],[-2.780349,60.617755],[-2.714621,60.690156],[-2.634423,60.759001],[-2.540465,60.823604],[-2.433611,60.883315],[-2.314873,60.937529],[-2.185399,60.985697],[-2.046467,61.027325],[-1.899468,61.061986],[-1.745891,61.089324],[-1.587307,61.109056],[-1.425349,61.120978],[-1.261694,61.124965]]],"type":"Polygon"},"properties":{"name":"Shetland Islands","placeholder":"geodesic disk, 90 km radius, centered 60.317243, -1.261694"},"type":"Feature"}
