{"geometry":{"coordinates":[[[126.966667,38.062194],[127.028094,38.059792],[127.088917,38.05261],[127.14854,38.040718],[127.206377,38.024233],[127.261863,38.003317],[127.314456,37.978174],[127.363643,37.949052],[127.408948,37.916235],[127.449934,37.880044],[127.486207,37.840831],[127.517421,37.798979],[127.543282,37.754895],[127.563548,37.709008],[127.578034,37.661761],[127.58661,37.613612],[127.589205,37.565026],[127.585805,37.516471],[127.576456,37.468414],[127.561257,37.421317],[127.540366,37.375631],[127.513992,37.331792],[127.482396,37.290221],[127.445889,37.251312],[127.404824,37.215437],[127.359598,37.182936],[127.310645,37.154117],[127.258434,37.129255],[127.203461,37.108585],[127.146248,37.092301],[127.087339,37.080559],[127.027289,37.073469],[126.966667,37.071098],[126.906045,37.073469],[126.845995,37.080559],[126.787086,37.092301],[126.729873,37.108585],[126.6749,37.129255],[126.622689,37.154117],[126.573736,37.182936],[126.52851,37.215437],[126.487445,37.251312],[126.450938,37.290221],[126.419342,37.331792],[126.392968,37.375631],[126.372077,37.421317],[126.356878,37.468414],[126.347529,37.516471],[126.344129,37.565026],[126.346724,37.613612],[126.3553,37.661761],[126.369786,37.709008],[126.390052,37.754895],[126.415913,37.798979],[126.447127,37.840831],[126.4834,37.880044],[126.524386,37.916235],[126.569691,37.949052],[126.618878,37.978174],[126.671471,38.003317],[126.726957,38.024233],[126.784794,38.040718],[126.844417,38.05261],[126.90524,38.059792],[126.966667,38.062194]]],"type":"Polygon"},"properties":{"name":"Seoul metropolitan area","placeholder":"geodesic disk, 55 km radius, centered 37.566667, 126.966667"},"type":"Feature"}
