{"geometry":{"coordinates":[[[141.3545,43.511852],[141.415106,43.509669],[141.475115,43.503141],[141.533937,43.492333],[141.590994,43.477352],[141.645727,43.458343],[141.697601,43.435495],[141.746109,43.40903],[141.790782,43.379209],[141.831188,43.346324],[141.866939,43.310695],[141.897695,43.272671],[141.923166,43.232621],[141.943115,43.190935],[141.957361,43.148017],[141.965776,43.104283],[141.968293,43.060154],[141.9649,43.016057],[141.955642,42.972415],[141.940621,42.929647],[141.919991,42.888164],[141.893962,42.848361],[141.862791,42.810618],[141.826784,42.775294],[141.786292,42.742727],[141.741706,42.713224],[141.693453,42.687065],[141.641994,42.664498],[141.587819,42.645736],[141.531442,42.630957],[141.473397,42.620299],[141.41423,42.613864],[141.3545,42.611713],[141.29477,42.613864],[141.235603,42.620299],[141.177558,42.630957],[141.121181,42.645736],[141.067006,42.664498],[141.015547,42.687065],[140.967294,42.713224],[140.922708,42.742727],[140.882216,42.775294],[140.846209,42.810618],[140.815038,42.848361],[140.789009,42.888164],[140.768379,42.929647],[140.753358,42.972415],[140.7441,43.016057],[140.740707,43.060154],[140.743224,43.104283],[140.751639,43.148017],[140.765885,43.190935],[140.785834,43.232621],[140.811305,43.272671],[140.842061,43.310695],[140.877812,43.346324],[140.918218,43.379209],[140.962891,43.40903],[141.011399,43.435495],[141.063273,43.458343],[141.118006,43.477352],[141.175063,43.492333],[141.233885,43.503141],[141.293894,43.509669],[141.3545,43.511852]]],"type":"Polygon"},"properties":{"name":"Sapporo metropolitan area","placeholder":"geodesic disk, 50 km radius, centered 43.0618, 141.3545"},"type":"Feature"}
