{"geometry":{"coordinates":[[[18.05,59.818694],[18.146079,59.816282],[18.241191,59.80907],[18.334381,59.79713],[18.424716,59.780583],[18.511295,59.759594],[18.593257,59.734374],[18.669796,59.705175],[18.740163,59.672288],[18.803677,59.63604],[18.859733,59.596789],[18.907803,59.554925],[18.947445,59.510859],[18.978304,59.465022],[19.000114,59.417864],[19.012702,59.369841],[19.015984,59.32142],[19.009969,59.273068],[18.994754,59.225248],[18.970522,59.178418],[18.937541,59.133025],[18.896157,59.089498],[18.846791,59.048249],[18.789938,59.009667],[18.726154,58.974113],[18.656055,58.94192],[18.580313,58.913389],[18.499645,58.888785],[18.414809,58.868336],[18.326596,58.852232],[18.235828,58.840621],[18.143345,58.833612],[18.05,58.831268],[17.956655,58.833612],[17.864172,58.840621],[17.773404,58.852232],[17.685191,58.868336],[17.600355,58.888785],[17.519687,58.913389],[17.443945,58.94192],[17.373846,58.974113],[17.310062,59.009667],[17.253209,59.048249],[17.203843,59.089498],[17.162459,59.133025],[17.129478,59.178418],[17.105246,59.225248],[17.090031,59.273068],[17.084016,59.32142],[17.087298,59.369841],[17.099886,59.417864],[17.121696,59.465022],[17.152555,59.510859],[17.192197,59.554925],[17.240267,59.596789],[17.296323,59.63604],[17.359837,59.672288],[17.430204,59.705175],[17.506743,59.734374],[17.588705,59.759594],[17.675284,59.780583],[17.765619,59.79713],[17.858809,59.80907],[17.953921,59.816282],[18.05,59.818694]]],"type":"Polygon"},"properties":{"name":"Stockholm metropolitan area","placeholder":"geodesic disk, 55 km radius, centered 59.325, 18.05"},"type":"Feature"}
