{"geometry":{"coordinates":[[[-16.6291,28.787864],[-16.573888,28.785463],[-16.519215,28.778284],[-16.465615,28.766397],[-16.413611,28.749919],[-16.363709,28.729009],[-16.316394,28.703872],[-16.272127,28.674753],[-16.231334,28.641936],[-16.19441,28.605738],[-16.161709,28.566514],[-16.133544,28.524642],[-16.110183,28.48053],[-16.091845,28.434605],[-16.078702,28.38731],[-16.070874,28.339103],[-16.068428,28.290449],[-16.071381,28.241817],[-16.079697,28.193675],[-16.09329,28.146485],[-16.112022,28.1007],[-16.135706,28.05676],[-16.164112,28.015084],[-16.19696,27.976072],[-16.233934,27.940095],[-16.274677,27.907499],[-16.318797,27.878592],[-16.365871,27.853651],[-16.41545,27.832913],[-16.46706,27.816576],[-16.52021,27.804794],[-16.574395,27.797679],[-16.6291,27.7953],[-16.683805,27.797679],[-16.73799,27.804794],[-16.79114,27.816576],[-16.84275,27.832913],[-16.892329,27.853651],[-16.939403,27.878592],[-16.983523,27.907499],[-17.024266,27.940095],[-17.06124,27.976072],[-17.094088,28.015084],[-17.122494,28.05676],[-17.146178,28.1007],[-17.16491,28.146485],[-17.178503,28.193675],[-17.186819,28.241817],[-17.189772,28.290449],[-17.187326,28.339103],[-17.179498,28.38731],[-17.166355,28.434605],[-17.148017,28.48053],[-17.124656,28.524642],[-17.096491,28.566514],[-17.06379,28.605738],[-17.026866,28.641936],[-16.986073,28.674753],[-16.941806,28.703872],[-16.894491,28.729009],[-16.844589,28.749919],[-16.792585,28.766397],[-16.738985,28.778284],[-16.684312,28.785463],[-16.6291,28.787864]]],"type":"Polygon"},"properties":{"name":"Tenerife","placeholder":"geodesic disk, 55 km radius, centered 28.2916, -16.6291"},"type":"Feature"}
