{"geometry":{"coordinates":[[[139.6503,36.397183],[139.737702,36.393679],[139.82424,36.383205],[139.909057,36.365862],[139.991316,36.341823],[140.070208,36.311324],[140.144958,36.274668],[140.214835,36.232215],[140.279162,36.184382],[140.337315,36.131641],[140.388739,36.074507],[140.432944,36.01354],[140.469518,35.949335],[140.498122,35.882517],[140.5185,35.813735],[140.530475,35.743656],[140.533953,35.672957],[140.528924,35.60232],[140.515459,35.532423],[140.493707,35.463937],[140.463898,35.397517],[140.426336,35.333796],[140.381395,35.273383],[140.329519,35.216849],[140.271213,35.164731],[140.207039,35.117523],[140.137614,35.07567],[140.063598,35.039567],[139.985695,35.009554],[139.90464,34.985912],[139.821198,34.968865],[139.736151,34.958573],[139.6503,34.955131],[139.564449,34.958573],[139.479402,34.968865],[139.39596,34.985912],[139.314905,35.009554],[139.237002,35.039567],[139.162986,35.07567],[139.093561,35.117523],[139.029387,35.164731],[138.971081,35.216849],[138.919205,35.273383],[138.874264,35.333796],[138.836702,35.397517],[138.806893,35.463937],[138.785141,35.532423],[138.771676,35.60232],[138.766647,35.672957],[138.770125,35.743656],[138.7821,35.813735],[138.802478,35.882517],[138.831082,35.949335],[138.867656,36.01354],[138.911861,36.074507],[138.963285,36.131641],[139.021438,36.184382],[139.085765,36.232215],[139.155642,36.274668],[139.230392,36.311324],[139.309284,36.341823],[139.391543,36.365862],[139.47636,36.383205],[139.562898,36.393679],[139.6503,36.397183]]],"type":"Polygon"},"properties":{"name":"Tokyo metropolitan area","placeholder":"geodesic disk, 80 km radius, centered 35.6762, 139.6503"},"type":"Feature"}
