{"geometry":{"coordinates":[[[-77.036667,39.390414],[-76.974092,39.388012],[-76.912133,39.380829],[-76.851398,39.368936],[-76.792484,39.35245],[-76.735966,39.331533],[-76.682399,39.306389],[-76.632303,39.277266],[-76.586164,39.244448],[-76.544428,39.208257],[-76.507496,39.169046],[-76.475718,39.127197],[-76.449396,39.083117],[-76.428773,39.037235],[-76.414039,38.989995],[-76.405325,38.941855],[-76.402703,38.893279],[-76.406185,38.844736],[-76.415725,38.796692],[-76.43122,38.74961],[-76.45251,38.703939],[-76.47938,38.660117],[-76.511565,38.618561],[-76.548748,38.579669],[-76.590569,38.54381],[-76.636623,38.511324],[-76.686468,38.482519],[-76.739629,38.45767],[-76.795598,38.43701],[-76.853846,38.420735],[-76.913819,38.408999],[-76.974952,38.401913],[-77.036667,38.399544],[-77.098382,38.401913],[-77.159515,38.408999],[-77.219488,38.420735],[-77.277736,38.43701],[-77.333705,38.45767],[-77.386866,38.482519],[-77.436711,38.511324],[-77.482765,38.54381],[-77.524586,38.579669],[-77.561769,38.618561],[-77.593954,38.660117],[-77.620824,38.703939],[-77.642114,38.74961],[-77.657609,38.796692],[-77.667149,38.844736],[-77.670631,38.893279],[-77.668009,38.941855],[-77.659295,38.989995],[-77.644561,39.037235],[-77.623938,39.083117],[-77.597616,39.127197],[-77.565838,39.169046],[-77.528906,39.208257],[-77.48717,39.244448],[-77.441031,39.277266],[-77.390935,39.306389],[-77.337368,39.331533],[-77.28085,39.35245],[-77.221936,39.368936],[-77.161201,39.380829],[-77.099242,39.388012],[-77.036667,39.390414]]],"type":"Polygon"},"properties":{"name":"Washington metropolitan area","placeholder":"geodesic disk, 55 km radius, centered 38.895, -77.036667"},"type":"Feature"}
