{"geometry":{"coordinates":[[[-113.553,53.937645],[-113.485842,53.93568],[-113.419349,53.929803],[-113.35418,53.920072],[-113.290979,53.906585],[-113.230369,53.889474],[-113.172945,53.868908],[-113.119269,53.845091],[-113.069863,53.818257],[-113.025204,53.78867],[-112.985721,53.756621],[-112.951786,53.722422],[-112.923719,53.686409],[-112.901778,53.648932],[-112.886159,53.610356],[-112.876995,53.571054],[-112.874359,53.531407],[-112.878257,53.491797],[-112.888632,53.452604],[-112.905369,53.414204],[-112.92829,53.376965],[-112.957161,53.341242],[-112.991693,53.307374],[-113.031545,53.275683],[-113.076328,53.246469],[-113.12561,53.220008],[-113.178918,53.19655],[-113.235744,53.176315],[-113.295551,53.159493],[-113.357772,53.146244],[-113.421823,53.13669],[-113.487103,53.130922],[-113.553,53.128993],[-113.618897,53.130922],[-113.684177,53.13669],[-113.748228,53.146244],[-113.810449,53.159493],[-113.870256,53.176315],[-113.927082,53.19655],[-113.98039,53.220008],[-114.029672,53.246469],[-114.074455,53.275683],[-114.114307,53.307374],[-114.148839,53.341242],[-114.17771,53.376965],[-114.200631,53.414204],[-114.217368,53.452604],[-114.227743,53.491797],[-114.231641,53.531407],[-114.229005,53.571054],[-114.219841,53.610356],[-114.204222,53.648932],[-114.182281,53.686409],[-114.154214,53.722422],[-114.120279,53.756621],[-114.080796,53.78867],[-114.036137,53.818257],[-113.986731,53.845091],[-113.933055,53.868908],[-113.875631,53.889474],[-113.815021,53.906585],[-113.75182,53.920072],[-113.686651,53.929803],[-113.620158,53.93568],[-113.553,53.937645]]],"type":"Polygon"},"properties":{"name":"Edmonton metropolitan area","placeholder":"geodesic disk, 45 km radius, centered 53.533333, -113.553"},"type":"Feature"}
