{"geometry":{"coordinates":[[[-73.5626,46.002542],[-73.493007,46.000138],[-73.424102,45.992951],[-73.356566,45.981051],[-73.291065,45.964555],[-73.228244,45.943627],[-73.168717,45.918474],[-73.113068,45.889342],[-73.061837,45.856518],[-73.015519,45.820325],[-72.974557,45.781116],[-72.93934,45.739277],[-72.9102,45.695214],[-72.887404,45.649358],[-72.87116,45.602152],[-72.861606,45.554055],[-72.85882,45.505532],[-72.862809,45.45705],[-72.873519,45.409075],[-72.89083,45.362068],[-72.91456,45.316478],[-72.944468,45.272741],[-72.980254,45.231272],[-73.021567,45.192467],[-73.068004,45.156692],[-73.119117,45.124287],[-73.174415,45.095558],[-73.233372,45.070775],[-73.295426,45.050173],[-73.359993,45.033944],[-73.426463,45.022243],[-73.49421,45.015177],[-73.5626,45.012815],[-73.63099,45.015177],[-73.698737,45.022243],[-73.765207,45.033944],[-73.829774,45.050173],[-73.891828,45.070775],[-73.950785,45.095558],[-74.006083,45.124287],[-74.057196,45.156692],[-74.103633,45.192467],[-74.144946,45.231272],[-74.180732,45.272741],[-74.21064,45.316478],[-74.23437,45.362068],[-74.251681,45.409075],[-74.262391,45.45705],[-74.26638,45.505532],[-74.263594,45.554055],[-74.25404,45.602152],[-74.237796,45.649358],[-74.215,45.695214],[-74.18586,45.739277],[-74.150643,45.781116],[-74.109681,45.820325],[-74.063363,45.856518],[-74.012132,45.889342],[-73.956483,45.918474],[-73.896956,45.943627],[-73.834135,45.964555],[-73.768634,45.981051],[-73.701098,45.992951],[-73.632193,46.000138],[-73.5626,46.002542]]],"type":"Polygon"},"properties":{"name":"Montreal metropolitan area","placeholder":"geodesic disk, 55 km radius, centered 45.5077, -73.5626"},"type":"Feature"}
