{"geometry":{"coordinates":[[[-79.383087,44.201351],[-79.309518,44.198727],[-79.236677,44.190882],[-79.165284,44.177893],[-79.096043,44.159889],[-79.029637,44.137047],[-78.966716,44.109593],[-78.907895,44.077798],[-78.853747,44.041973],[-78.804794,44.002472],[-78.761506,43.95968],[-78.724292,43.914018],[-78.693503,43.86593],[-78.669422,43.815885],[-78.652266,43.764369],[-78.642183,43.711882],[-78.639253,43.65893],[-78.643484,43.606024],[-78.654817,43.553673],[-78.673126,43.502378],[-78.698217,43.452631],[-78.729836,43.404906],[-78.767665,43.359657],[-78.811333,43.317315],[-78.860415,43.278281],[-78.914435,43.242924],[-78.972876,43.211577],[-79.035181,43.184537],[-79.100758,43.162058],[-79.168989,43.144352],[-79.239229,43.131584],[-79.310819,43.123875],[-79.383087,43.121298],[-79.455355,43.123875],[-79.526945,43.131584],[-79.597185,43.144352],[-79.665416,43.162058],[-79.730993,43.184537],[-79.793298,43.211577],[-79.851739,43.242924],[-79.905759,43.278281],[-79.954841,43.317315],[-79.998509,43.359657],[-80.036338,43.404906],[-80.067957,43.452631],[-80.093048,43.502378],[-80.111357,43.553673],[-80.12269,43.606024],[-80.126921,43.65893],[-80.123991,43.711882],[-80.113908,43.764369],[-80.096752,43.815885],[-80.072671,43.86593],[-80.041882,43.914018],[-80.004668,43.95968],[-79.96138,44.002472],[-79.912427,44.041973],[-79.858279,44.077798],[-79.799458,44.109593],[-79.736537,44.137047],[-79.670131,44.159889],[-79.60089,44.177893],[-79.529497,44.190882],[-79.456656,44.198727],[-79.383087,44.201351]]],"type":"Polygon"},"properties":{"name":"Toronto metropolitan area","placeholder":"geodesic disk, 60 km radius, centered 43.66135, -79.383087"},"type":"Feature"}
